Name,Address,Blocks,Units,Unit Rate,MoM,Trans Record,For Sale,For Rent,Estate Link,Region,District,Subdistrict,Code
The Merton,38 New Praya Kennedy Town,3,"1,182",--,--,--,51,2,https://hk.centanet.com/estate/en/The-Merton/2-SSPPWPPYPS,Hong Kong Island,All Hong Kong Island,Kennedy Town,HMA111
Manhattan Heights,28 New Praya Kennedy Town,1,476,--,--,--,19,3,https://hk.centanet.com/estate/en/Manhattan-Heights/2-SSWSWPGSPS,Hong Kong Island,All Hong Kong Island,Kennedy Town,HMA111
Smithfield Terrace,71-77 Smithfield,4,912,--,--,--,27,4,https://hk.centanet.com/estate/en/Smithfield-Terrace/2-TTLIIHSRHT,Hong Kong Island,All Hong Kong Island,Kennedy Town,HMA111
University Heights,23 Pokfield Road,2,444,--,--,--,17,5,https://hk.centanet.com/estate/en/University-Heights/2-TTXNZHIXHT,Hong Kong Island,All Hong Kong Island,Kennedy Town,HMA111
Pearl Court,13 Belcher's Street,2,368,--,--,--,4,1,https://hk.centanet.com/estate/en/Pearl-Court/2-SSABGPPOPS,Hong Kong Island,All Hong Kong Island,Kennedy Town,HMA111
Cadogan,37A Cadogan Street,1,197,--,--,--,17,--,https://hk.centanet.com/estate/en/Cadogan/2-SSPPWWPSWS,Hong Kong Island,All Hong Kong Island,Kennedy Town,HMA111
The Hudson,11 Davis Street,1,134,--,--,--,11,--,https://hk.centanet.com/estate/en/The-Hudson/2-SSSPWWPYWS,Hong Kong Island,All Hong Kong Island,Kennedy Town,HMA111
Cayman Rise,29 Ka Wai Man Road,2,496,"$16,067/ ft²",6.23%,2,8,2,https://hk.centanet.com/estate/en/Cayman-Rise/2-SSPPWPPEPS,Hong Kong Island,All Hong Kong Island,Kennedy Town,HMA111
Imperial Kennedy,68 Belcher's Street,1,161,"$21,056/ ft²",18.39%,1,11,--,https://hk.centanet.com/estate/en/Imperial-Kennedy/2-SSSPWWPHWS,Hong Kong Island,All Hong Kong Island,Kennedy Town,HMA111
The Sail At Victoria,86 Victoria Road,1,95,--,--,--,9,3,https://hk.centanet.com/estate/en/The-Sail-At-Victoria/2-SSSPWWPXWS,Hong Kong Island,All Hong Kong Island,Kennedy Town,HMA111
Jade Court,"48-49 Praya, Kennedy Town",2,300,--,--,--,4,1,https://hk.centanet.com/estate/en/Jade-Court/2-SSYYGPDOPS,Hong Kong Island,All Hong Kong Island,Kennedy Town,HMA111
Smithfield Court,43 Smithfield,2,516,--,--,--,5,1,https://hk.centanet.com/estate/en/Smithfield-Court/2-TTMTIHSXHT,Hong Kong Island,All Hong Kong Island,Kennedy Town,HMA111
Harbour View Garden,21 North Street,3,452,"$17,063/ ft²",1.45%,1,5,--,https://hk.centanet.com/estate/en/Harbour-View-Garden/2-OOFDURJRRO,Hong Kong Island,All Hong Kong Island,Kennedy Town,HMA111
Belcher's Hill,9 Rock Hill Street,1,152,--,--,--,6,--,https://hk.centanet.com/estate/en/Belcher-s-Hill/2-SSSPWWPJWS,Hong Kong Island,All Hong Kong Island,Kennedy Town,HMA111
Scholar Court,15 Sands Street,1,47,--,--,--,3,1,https://hk.centanet.com/estate/en/Scholar-Court/2-OOSDQRFXRO,Hong Kong Island,All Hong Kong Island,Kennedy Town,HMA111
Kennedy Town Centre,"38 Praya, Kennedy Town",1,272,--,--,--,2,1,https://hk.centanet.com/estate/en/Kennedy-Town-Centre/2-SSPAGPDXPS,Hong Kong Island,All Hong Kong Island,Kennedy Town,HMA111
Axeford Villa,3-5 Sands Street,1,81,--,--,--,--,--,https://hk.centanet.com/estate/en/Axeford-Villa/2-OOOCURFRRO,Hong Kong Island,All Hong Kong Island,Kennedy Town,HMA111
Mei Wah Mansion,36-42 Smithfield,1,96,--,--,--,4,--,https://hk.centanet.com/estate/en/Mei-Wah-Mansion/2-TTTSTHLXHT,Hong Kong Island,All Hong Kong Island,Kennedy Town,HMA111
Lung Cheung Garden,"26 Praya, Kennedy Town",1,128,"$15,449/ ft²",10.36%,1,1,--,https://hk.centanet.com/estate/en/Lung-Cheung-Garden/2-SSEYBPDXPS,Hong Kong Island,All Hong Kong Island,Kennedy Town,HMA111
Cheong Yue Mansion,13-19 North Street,1,68,--,--,--,1,--,https://hk.centanet.com/estate/en/Cheong-Yue-Mansion/2-OOJQURJYRO,Hong Kong Island,All Hong Kong Island,Kennedy Town,HMA111
Ying Ga Garden,34 Sands Street,3,300,"$14,730/ ft²",8.36%,1,2,--,https://hk.centanet.com/estate/en/Ying-Ga-Garden/2-SSSDBPYRPS,Hong Kong Island,All Hong Kong Island,Kennedy Town,HMA111
Joyful Building,16-18 Belcher's Street,1,224,"$12,913/ ft²",3.13%,2,1,1,https://hk.centanet.com/estate/en/Joyful-Building/2-SSBDGPSRPS,Hong Kong Island,All Hong Kong Island,Kennedy Town,HMA111
Sea View Mansion,37-37A Belcher's Street,1,134,--,--,--,2,--,https://hk.centanet.com/estate/en/Sea-View-Mansion/2-OOJJFRRYRO,Hong Kong Island,All Hong Kong Island,Kennedy Town,HMA111
Kennedy 38,38 Belcher's Street,1,341,--,--,--,17,1,https://hk.centanet.com/estate/en/Kennedy-38/2-SSSPWWPVWS,Hong Kong Island,All Hong Kong Island,Kennedy Town,HMA111
Nam Hung Mansion,5-5H Belcher's Street,2,379,--,--,--,10,2,https://hk.centanet.com/estate/en/Nam-Hung-Mansion/2-SSSEPPPXPG,Hong Kong Island,All Hong Kong Island,Kennedy Town,HMA111
New Fortune House,4-8 North Street,2,358,--,--,--,7,--,https://hk.centanet.com/estate/en/New-Fortune-House/2-OOCJQRJJRO,Hong Kong Island,All Hong Kong Island,Kennedy Town,HMA111
To Li Garden,15-19 To Li Terrace,1,98,--,--,--,6,--,https://hk.centanet.com/estate/en/To-Li-Garden/2-SSWWBPWRPS,Hong Kong Island,All Hong Kong Island,Kennedy Town,HMA111
Lexington Hill,11 Rock Hill Street,1,104,--,--,--,6,1,https://hk.centanet.com/estate/en/Lexington-Hill/2-SSPPWWPRWG,Hong Kong Island,All Hong Kong Island,Kennedy Town,HMA111
Serene Court,35 Sai Ning Street,1,232,"$15,630/ ft²",37.79%,1,6,--,https://hk.centanet.com/estate/en/Serene-Court/2-SSBBPPYAPS,Hong Kong Island,All Hong Kong Island,Kennedy Town,HMA111
Sincere Western House,63-71 Cadogan Street,1,205,--,--,--,5,1,https://hk.centanet.com/estate/en/Sincere-Western-House/2-SSDKGPEEPS,Hong Kong Island,All Hong Kong Island,Kennedy Town,HMA111
No. 60 Victoria Road,60 Victoria Road,1,73,--,--,--,5,1,https://hk.centanet.com/estate/en/No-60-Victoria-Road/2-SSPPWWPYWS,Hong Kong Island,All Hong Kong Island,Kennedy Town,HMA111
Po Tak Mansion,85 Smithfield,1,138,--,--,--,6,--,https://hk.centanet.com/estate/en/Po-Tak-Mansion/2-TTDSIHSXHT,Hong Kong Island,All Hong Kong Island,Kennedy Town,HMA111
Hoi Tao Building,7-11 Belcher's Street,3,323,--,--,--,4,1,https://hk.centanet.com/estate/en/Hoi-Tao-Building/2-SSYKGPPOPS,Hong Kong Island,All Hong Kong Island,Kennedy Town,HMA111
Yick Fung Garden,"20 Praya, Kennedy Town",2,235,--,--,--,4,--,https://hk.centanet.com/estate/en/Yick-Fung-Garden/2-SSAKBPAOPG,Hong Kong Island,All Hong Kong Island,Kennedy Town,HMA111
Belcher Court,2 Sai Cheung Street,2,240,--,--,--,4,--,https://hk.centanet.com/estate/en/Belcher-Court/2-SSKEBPDEPG,Hong Kong Island,All Hong Kong Island,Kennedy Town,HMA111
Wah Fai House,26-34 Smithfield,1,92,"$10,525/ ft²",35.08%,2,4,--,https://hk.centanet.com/estate/en/Wah-Fai-House/2-TTNITHLXHT,Hong Kong Island,All Hong Kong Island,Kennedy Town,HMA111
Luen Hong Apartments,116-122 Belcher's Street,1,267,"$10,671/ ft²",3.25%,1,4,--,https://hk.centanet.com/estate/en/Luen-Hong-Apartments/2-TTSSTHMEHT,Hong Kong Island,All Hong Kong Island,Kennedy Town,HMA111
Tai Pak Terrace,36 Sands Street,1,45,--,--,--,3,1,https://hk.centanet.com/estate/en/Tai-Pak-Terrace/2-SSGYBPYXPS,Hong Kong Island,All Hong Kong Island,Kennedy Town,HMA111
Kennedy Town Building,"27 Praya, Kennedy Town",1,75,"$16,582/ ft²",4.61%,1,3,1,https://hk.centanet.com/estate/en/Kennedy-Town-Building/2-SSPWBPDXPS,Hong Kong Island,All Hong Kong Island,Kennedy Town,HMA111
Luen Wai Apartment,136-142 Belcher's Street,1,279,"$10,486/ ft²",6.97%,1,3,1,https://hk.centanet.com/estate/en/Luen-Wai-Apartment/2-TTMLTHMAHT,Hong Kong Island,All Hong Kong Island,Kennedy Town,HMA111
Ching Lin Court,4-6 Ching Lin Terrace,1,36,--,--,--,3,--,https://hk.centanet.com/estate/en/Ching-Lin-Court/2-SSGDWPAXPS,Hong Kong Island,All Hong Kong Island,Kennedy Town,HMA111
May Sun Building,55-57 Catchick Street,1,131,--,--,--,3,--,https://hk.centanet.com/estate/en/May-Sun-Building/2-SSPPGPYYPS,Hong Kong Island,All Hong Kong Island,Kennedy Town,HMA111
Westview Height,163 Belcher's Street,1,66,--,--,--,3,--,https://hk.centanet.com/estate/en/Westview-Height/2-SSPPWWPAWG,Hong Kong Island,All Hong Kong Island,Kennedy Town,HMA111
Ivy On Belcher's,26 Belcher's Stret,1,140,--,--,--,3,--,https://hk.centanet.com/estate/en/Ivy-On-Belcher-s/2-SSPPWWPEWG,Hong Kong Island,All Hong Kong Island,Kennedy Town,HMA111
Hang (Han) Yu Building,45-55 Cadogan Street,1,136,--,--,--,3,--,https://hk.centanet.com/estate/en/Hang-Han-Yu-Building/2-SSYWBPESPS,Hong Kong Island,All Hong Kong Island,Kennedy Town,HMA111
Regent Height,80 Victoria Road,1,63,--,--,--,3,--,https://hk.centanet.com/estate/en/Regent-Height/2-TTHLIHLXHT,Hong Kong Island,All Hong Kong Island,Kennedy Town,HMA111
Huncliff Court,70 Victoria Road,1,38,--,--,--,3,--,https://hk.centanet.com/estate/en/Huncliff-Court/2-TTISIHLYHT,Hong Kong Island,All Hong Kong Island,Kennedy Town,HMA111
Full Harvest Building,6-18 Hau Wo Street,1,96,--,--,--,2,1,https://hk.centanet.com/estate/en/Full-Harvest-Building/2-OORQURVXRO,Hong Kong Island,All Hong Kong Island,Kennedy Town,HMA111
Hee Wong Terrace,1 Hee Wong Terrace,12,188,--,--,--,2,1,https://hk.centanet.com/estate/en/Hee-Wong-Terrace/2-SSPKBPBXPS,Hong Kong Island,All Hong Kong Island,Kennedy Town,HMA111
Mount Davis,33 Ka Wai Man Road,1,89,"$19,797/ ft²",1.21%,1,2,1,https://hk.centanet.com/estate/en/Mount-Davis/2-SSPPWWPRWS,Hong Kong Island,All Hong Kong Island,Kennedy Town,HMA111
Greenview Court,7-8 Ching Lin Terrace,1,31,--,--,--,1,1,https://hk.centanet.com/estate/en/Greenview-Court/2-SSPYWPAOPS,Hong Kong Island,All Hong Kong Island,Kennedy Town,HMA111
Ka Fu Building,63 Catchick Street,2,92,--,--,--,2,1,https://hk.centanet.com/estate/en/Ka-Fu-Building/2-TTXMTHDXHT,Hong Kong Island,All Hong Kong Island,Kennedy Town,HMA111
On Fat Building,10 Kwan Yick Street,1,189,--,--,--,2,--,https://hk.centanet.com/estate/en/On-Fat-Building/2-OODJQRDYRO,Hong Kong Island,All Hong Kong Island,Kennedy Town,HMA111
Tung Hing Mansion,41-55 Belcher's Street,1,96,--,--,--,2,--,https://hk.centanet.com/estate/en/Tung-Hing-Mansion/2-OOVFFRRSRO,Hong Kong Island,All Hong Kong Island,Kennedy Town,HMA111
Markfield Building,8 Smithfield,1,150,--,--,--,2,--,https://hk.centanet.com/estate/en/Markfield-Building/2-SSEDWPYXPS,Hong Kong Island,All Hong Kong Island,Kennedy Town,HMA111
Brilliant Court,"28 Praya, Kennedy Town",1,145,--,--,--,2,--,https://hk.centanet.com/estate/en/Brilliant-Court/2-SSKWBPDAPS,Hong Kong Island,All Hong Kong Island,Kennedy Town,HMA111
Sun Court,3-3A Belcher's Street,1,92,--,--,--,2,--,https://hk.centanet.com/estate/en/Sun-Court/2-SSPEPPPEPG,Hong Kong Island,All Hong Kong Island,Kennedy Town,HMA111
Po Wah House,36-40 Li Po Lung Path,1,20,"$10,101/ ft²",25.88%,1,1,--,https://hk.centanet.com/estate/en/Po-Wah-House/2-SSSSGPGAPS,Hong Kong Island,All Hong Kong Island,Kennedy Town,HMA111
Ka On Building,"27 New Praya, Kennedy Town",2,96,--,--,--,2,--,https://hk.centanet.com/estate/en/Ka-On-Building/2-SSWSWPGHPS,Hong Kong Island,All Hong Kong Island,Kennedy Town,HMA111
Luen Gay Apartments,124-134 Belcher's Street,1,268,--,--,--,2,--,https://hk.centanet.com/estate/en/Luen-Gay-Apartments/2-TTHLTHMHHT,Hong Kong Island,All Hong Kong Island,Kennedy Town,HMA111
Tai Sang Building,1A Sands Street,1,79,--,--,--,2,--,https://hk.centanet.com/estate/en/Tai-Sang-Building/2-TTMNTHSAHT,Hong Kong Island,All Hong Kong Island,Kennedy Town,HMA111
Wai Wah Court,12R Smithfield,1,112,--,--,--,2,--,https://hk.centanet.com/estate/en/Wai-Wah-Court/2-TTXDTHLYHT,Hong Kong Island,All Hong Kong Island,Kennedy Town,HMA111
Nan Sang Building,86 Belcher's Street,1,54,--,--,--,1,--,https://hk.centanet.com/estate/en/Nan-Sang-Building/2-TTXXTHMVHT,Hong Kong Island,All Hong Kong Island,Kennedy Town,HMA111
Tai Hong Building,1D Holland Street,1,92,--,--,--,1,2,https://hk.centanet.com/estate/en/Tai-Hong-Building/2-SSAEPPGEPS,Hong Kong Island,All Hong Kong Island,Kennedy Town,HMA111
Sai Wan New Apartments,177-185 Belcher's Street,1,109,--,--,--,1,2,https://hk.centanet.com/estate/en/Sai-Wan-New-Apartments/2-TTDLZHTYHT,Hong Kong Island,All Hong Kong Island,Kennedy Town,HMA111
32-34 Li Po Lung Path,32-34 Li Po Lung Path,1,19,--,--,--,--,--,https://hk.centanet.com/estate/en/32-34-Li-Po-Lung-Path/2-SSAPGPGHPS,Hong Kong Island,All Hong Kong Island,Kennedy Town,HMA111
Shun Fai Building,19 Hau Wo Street,1,71,--,--,--,1,1,https://hk.centanet.com/estate/en/Shun-Fai-Building/2-SSDEPPBXPS,Hong Kong Island,All Hong Kong Island,Kennedy Town,HMA111
Hing Wong Building,"23 New Praya, Kennedy Town",1,116,--,--,--,1,1,https://hk.centanet.com/estate/en/Hing-Wong-Building/2-SSYSWPGXPS,Hong Kong Island,All Hong Kong Island,Kennedy Town,HMA111
Tse Land Mansion,39-43 Sands Street,1,38,--,--,--,1,1,https://hk.centanet.com/estate/en/Tse-Land-Mansion/2-TTISZHSJHT,Hong Kong Island,All Hong Kong Island,Kennedy Town,HMA111
Luen On Apartments,51 Smithfield,1,160,--,--,--,1,1,https://hk.centanet.com/estate/en/Luen-On-Apartments/2-TTNIIHSRHT,Hong Kong Island,All Hong Kong Island,Kennedy Town,HMA111
Fook On Mansion,23-25 North Street,1,92,--,--,--,1,--,https://hk.centanet.com/estate/en/Fook-On-Mansion/2-OORFURJXRO,Hong Kong Island,All Hong Kong Island,Kennedy Town,HMA111
10 Tai Pak Terrace,10 Tai Pak Terrace,1,12,--,--,--,--,--,https://hk.centanet.com/estate/en/10-Tai-Pak-Terrace/2-OORQQRCSRO,Hong Kong Island,All Hong Kong Island,Kennedy Town,HMA111
Yue On Building,78-86 Catchick Street,1,40,--,--,--,1,--,https://hk.centanet.com/estate/en/Yue-On-Building/2-OORRFRQVRO,Hong Kong Island,All Hong Kong Island,Kennedy Town,HMA111
Kam Tong Mansion (Building),139-153 Belcher's Street,1,29,"$12,579/ ft²",--,1,1,--,https://hk.centanet.com/estate/en/Kam-Tong-Mansion-Building/2-OOUFQROSRO,Hong Kong Island,All Hong Kong Island,Kennedy Town,HMA111
Kam Hing Building,27-31 Catchick Street,1,42,--,--,--,1,--,https://hk.centanet.com/estate/en/Kam-Hing-Building/2-SSBKWPESPS,Hong Kong Island,All Hong Kong Island,Kennedy Town,HMA111
1-3 Ching Lin Terrace,1-3 Ching Lin Terrace,1,46,--,--,--,1,--,https://hk.centanet.com/estate/en/1-3-Ching-Lin-Terrace/2-SSDEWPAVPS,Hong Kong Island,All Hong Kong Island,Kennedy Town,HMA111
Jade Lotus Garden,11 Ching Lin Terrace,1,46,--,--,--,1,--,https://hk.centanet.com/estate/en/Jade-Lotus-Garden/2-SSDPPPKXPS,Hong Kong Island,All Hong Kong Island,Kennedy Town,HMA111
Sands House,10-18 Sands Street,1,44,--,--,--,1,--,https://hk.centanet.com/estate/en/Sands-House/2-SSDSBPYEPS,Hong Kong Island,All Hong Kong Island,Kennedy Town,HMA111
Hau Wo Court,25-33 Hau Wo Street,1,41,--,--,--,1,--,https://hk.centanet.com/estate/en/Hau-Wo-Court/2-SSEBPPBEPS,Hong Kong Island,All Hong Kong Island,Kennedy Town,HMA111
Nan Hai Mansion,"46-47 Praya, Kennedy Town",1,172,--,--,--,1,--,https://hk.centanet.com/estate/en/Nan-Hai-Mansion/2-SSGYGPDHPS,Hong Kong Island,All Hong Kong Island,Kennedy Town,HMA111
Leader House,57-61 Belcher's Street,1,38,--,--,--,1,--,https://hk.centanet.com/estate/en/Leader-House/2-SSGYWPPVPS,Hong Kong Island,All Hong Kong Island,Kennedy Town,HMA111
Ka Ming Building,56A-56B Belcher's Street,1,31,--,--,--,1,--,https://hk.centanet.com/estate/en/Ka-Ming-Building/2-SSKKPPEYPS,Hong Kong Island,All Hong Kong Island,Kennedy Town,HMA111
La Maison Du Nord,12A North Street,1,75,--,--,--,1,--,https://hk.centanet.com/estate/en/La-Maison-Du-Nord/2-SSPPWPPJPG,Hong Kong Island,All Hong Kong Island,Kennedy Town,HMA111
Shun Hing Building,22-34 Catchick Street,1,88,--,--,--,1,--,https://hk.centanet.com/estate/en/Shun-Hing-Building/2-SSWPBPAHPS,Hong Kong Island,All Hong Kong Island,Kennedy Town,HMA111
Shun On Building,2 Sands Street,1,72,--,--,--,1,--,https://hk.centanet.com/estate/en/Shun-On-Building/2-SSWPBPYRPS,Hong Kong Island,All Hong Kong Island,Kennedy Town,HMA111
Grand Fortune Mansion,1-1A Davis Street,1,92,--,--,--,1,--,https://hk.centanet.com/estate/en/Grand-Fortune-Mansion/2-SSYBPPKJPS,Hong Kong Island,All Hong Kong Island,Kennedy Town,HMA111
Chester Court,"6-8 Praya, Kennedy Town",1,138,--,--,--,1,--,https://hk.centanet.com/estate/en/Chester-Court/2-TTIHZHDXHX,Hong Kong Island,All Hong Kong Island,Kennedy Town,HMA111
Wah Po Building,"1 New Praya, Kennedy Town",1,189,--,--,--,1,--,https://hk.centanet.com/estate/en/Wah-Po-Building/2-TTISIHXVHT,Hong Kong Island,All Hong Kong Island,Kennedy Town,HMA111
Hoi Lee Building,29-31 Sands Street,1,16,--,--,--,--,--,https://hk.centanet.com/estate/en/Hoi-Lee-Building/2-TTLZZHSXHT,Hong Kong Island,All Hong Kong Island,Kennedy Town,HMA111
99-101 Belcher's Street,99-101 Belcher's Street,1,14,--,--,--,--,--,https://hk.centanet.com/estate/en/99-101-Belcher-s-Street/2-TTMMTHTVHT,Hong Kong Island,All Hong Kong Island,Kennedy Town,HMA111
Luen Hing Apartments,47 Smithfield,1,150,--,--,--,1,--,https://hk.centanet.com/estate/en/Luen-Hing-Apartments/2-TTNNIHSXHT,Hong Kong Island,All Hong Kong Island,Kennedy Town,HMA111
Kennedy Mansion,165-175 Belcher's Street,1,80,--,--,--,1,--,https://hk.centanet.com/estate/en/Kennedy-Mansion/2-TTTDZHTVHT,Hong Kong Island,All Hong Kong Island,Kennedy Town,HMA111
Sun Fat Building,12S-12T Smithfield,1,28,--,--,--,--,--,https://hk.centanet.com/estate/en/Sun-Fat-Building/2-TTXZTHLAHT,Hong Kong Island,All Hong Kong Island,Kennedy Town,HMA111
Luen Yau Apartments,102-114 Belcher's Street,1,176,--,--,--,1,--,https://hk.centanet.com/estate/en/Luen-Yau-Apartments/2-TTZSTHMSHT,Hong Kong Island,All Hong Kong Island,Kennedy Town,HMA111
The Highline,33 Catchick Street,1,173,--,--,--,--,4,https://hk.centanet.com/estate/en/The-Highline/2-SSSPWWPSWS,Hong Kong Island,All Hong Kong Island,Kennedy Town,HMA111
Kam Ho Court,144-148 Belcher's Street,1,66,--,--,--,--,1,https://hk.centanet.com/estate/en/Kam-Ho-Court/2-OOCUURUORO,Hong Kong Island,All Hong Kong Island,Kennedy Town,HMA111
Lungga Mansion,46A Belcher's Street,1,83,--,--,--,--,1,https://hk.centanet.com/estate/en/Lungga-Mansion/2-SSDDWPSRPS,Hong Kong Island,All Hong Kong Island,Kennedy Town,HMA111
Chin Hom Court,26 Li Po Lung Path,1,24,--,--,--,--,--,https://hk.centanet.com/estate/en/Chin-Hom-Court/2-SSEYBPGHPS,Hong Kong Island,All Hong Kong Island,Kennedy Town,HMA111
Sum Way Mansion,1-1F Belcher's Street,1,152,--,--,--,--,2,https://hk.centanet.com/estate/en/Sum-Way-Mansion/2-SSYSPPPYPG,Hong Kong Island,All Hong Kong Island,Kennedy Town,HMA111
1F Sands Street,1F Sands Street,1,7,--,--,--,--,--,https://hk.centanet.com/estate/en/1F-Sands-Street/2-OOCOURFARO,Hong Kong Island,All Hong Kong Island,Kennedy Town,HMA111
1E Sands Street,1E Sands Street,1,7,--,--,--,--,--,https://hk.centanet.com/estate/en/1E-Sands-Street/2-OOCRURFERO,Hong Kong Island,All Hong Kong Island,Kennedy Town,HMA111
12-15 Tai Pak Terrace,12-15 Tai Pak Terrace,1,22,--,--,--,--,--,https://hk.centanet.com/estate/en/12-15-Tai-Pak-Terrace/2-OOCSQRCARO,Hong Kong Island,All Hong Kong Island,Kennedy Town,HMA111
2-3 Tai Pak Terrace,2-3 Tai Pak Terrace,1,12,--,--,--,--,--,https://hk.centanet.com/estate/en/2-3-Tai-Pak-Terrace/2-OOCSURCERO,Hong Kong Island,All Hong Kong Island,Kennedy Town,HMA111
1G Sands Street,1G Sands Street,1,7,--,--,--,--,--,https://hk.centanet.com/estate/en/1G-Sands-Street/2-OOCUURFVRO,Hong Kong Island,All Hong Kong Island,Kennedy Town,HMA111
Yue Yee Mansion,18A-20A Belcher's Street,1,56,--,--,--,--,--,https://hk.centanet.com/estate/en/Yue-Yee-Mansion/2-OODCQRDHRO,Hong Kong Island,All Hong Kong Island,Kennedy Town,HMA111
121-123 Belcher's Street,121-123 Belcher's Street,1,8,--,--,--,--,--,https://hk.centanet.com/estate/en/121-123-Belcher-s-Street/2-OODQUROXRO,Hong Kong Island,All Hong Kong Island,Kennedy Town,HMA111
Tai Pak Mansion,1 Tai Pak Terrace,1,7,--,--,--,--,--,https://hk.centanet.com/estate/en/Tai-Pak-Mansion/2-OOFQURCORO,Hong Kong Island,All Hong Kong Island,Kennedy Town,HMA111
135-137 Belcher's Street,135-137 Belcher's Street,1,10,--,--,--,--,--,https://hk.centanet.com/estate/en/135-137-Belcher-s-Street/2-OOFRQROERO,Hong Kong Island,All Hong Kong Island,Kennedy Town,HMA111
6-7 Tai Pak Terrace,6-7 Tai Pak Terrace,1,14,--,--,--,--,--,https://hk.centanet.com/estate/en/6-7-Tai-Pak-Terrace/2-OOJFURCSRO,Hong Kong Island,All Hong Kong Island,Kennedy Town,HMA111
131-133 Belcher's Street,131-133 Belcher's Street,1,10,--,--,--,--,--,https://hk.centanet.com/estate/en/131-133-Belcher-s-Street/2-OOJFUROYRO,Hong Kong Island,All Hong Kong Island,Kennedy Town,HMA111
Smithfield Garden,50 Smithfield,3,35,--,--,--,--,--,https://hk.centanet.com/estate/en/Smithfield-Garden/2-OOJUURCARO,Hong Kong Island,All Hong Kong Island,Kennedy Town,HMA111
Kelley Court,9-15 Catchick Street,1,47,--,--,--,--,--,https://hk.centanet.com/estate/en/Kelley-Court/2-OOOOFRUORO,Hong Kong Island,All Hong Kong Island,Kennedy Town,HMA111
8 Tai Pak Terrace,8 Tai Pak Terrace,1,4,--,--,--,--,--,https://hk.centanet.com/estate/en/8-Tai-Pak-Terrace/2-OOOOQRCJRO,Hong Kong Island,All Hong Kong Island,Kennedy Town,HMA111
9 Tai Pak Terrace,9 Tai Pak Terrace,1,4,--,--,--,--,--,https://hk.centanet.com/estate/en/9-Tai-Pak-Terrace/2-OOOUQRCYRO,Hong Kong Island,All Hong Kong Island,Kennedy Town,HMA111
33 North Street,33 North Street,1,5,--,--,--,--,--,https://hk.centanet.com/estate/en/33-North-Street/2-OOQQQRJRRO,Hong Kong Island,All Hong Kong Island,Kennedy Town,HMA111
35 North Street,35 North Street,1,5,--,--,--,--,--,https://hk.centanet.com/estate/en/35-North-Street/2-OOQSQRJORO,Hong Kong Island,All Hong Kong Island,Kennedy Town,HMA111
Cheong Fai Building,17-21 Catchick Street,1,27,--,--,--,--,--,https://hk.centanet.com/estate/en/Cheong-Fai-Building/2-OOQVFRUERO,Hong Kong Island,All Hong Kong Island,Kennedy Town,HMA111
Chi Ping Building,38 Hau Wo Street,1,44,--,--,--,--,--,https://hk.centanet.com/estate/en/Chi-Ping-Building/2-OORFQRVXRO,Hong Kong Island,All Hong Kong Island,Kennedy Town,HMA111
9-11 North Street,9-11 North Street,1,10,--,--,--,--,--,https://hk.centanet.com/estate/en/9-11-North-Street/2-OOROURJXRO,Hong Kong Island,All Hong Kong Island,Kennedy Town,HMA111
1H Sands Street,1H Sands Street,1,7,--,--,--,--,--,https://hk.centanet.com/estate/en/1H-Sands-Street/2-OORSURFXRO,Hong Kong Island,All Hong Kong Island,Kennedy Town,HMA111
1J Sands Street,1J Sands Street,1,7,--,--,--,--,--,https://hk.centanet.com/estate/en/1J-Sands-Street/2-OORVURFHRO,Hong Kong Island,All Hong Kong Island,Kennedy Town,HMA111
23-25 Catchick Street,23-25 Catchick Street,1,9,--,--,--,--,--,https://hk.centanet.com/estate/en/23-25-Catchick-Street/2-OOSCFRUHRO,Hong Kong Island,All Hong Kong Island,Kennedy Town,HMA111
32 Belcher's Street,32 Belcher's Street,1,7,--,--,--,--,--,https://hk.centanet.com/estate/en/32-Belcher-s-Street/2-OOSFFROORO,Hong Kong Island,All Hong Kong Island,Kennedy Town,HMA111
19-21 Sands Street,19-21 Sands Street,1,18,--,--,--,--,--,https://hk.centanet.com/estate/en/19-21-Sands-Street/2-OOSFQRFJRO,Hong Kong Island,All Hong Kong Island,Kennedy Town,HMA111
Hung Lee Building,29-31A North Street,1,32,--,--,--,--,--,https://hk.centanet.com/estate/en/Hung-Lee-Building/2-OOUCURJARO,Hong Kong Island,All Hong Kong Island,Kennedy Town,HMA111
Kam Fai Building,125-129 Belcher's Street,1,34,--,--,--,--,--,https://hk.centanet.com/estate/en/Kam-Fai-Building/2-OOUDUROVRO,Hong Kong Island,All Hong Kong Island,Kennedy Town,HMA111
Tai Pak Court,4-5 Tai Pak Terrace,1,9,--,--,--,--,--,https://hk.centanet.com/estate/en/Tai-Pak-Court/2-OOUJURCARO,Hong Kong Island,All Hong Kong Island,Kennedy Town,HMA111
Wing Tai Mansion,7-9 Sands Street,1,33,--,--,--,--,--,https://hk.centanet.com/estate/en/Wing-Tai-Mansion/2-OOUOQRFERO,Hong Kong Island,All Hong Kong Island,Kennedy Town,HMA111
32A Belcher's Street,32A Belcher's Street,1,7,--,--,--,--,--,https://hk.centanet.com/estate/en/32A-Belcher-s-Street/2-OOVCFROJRO,Hong Kong Island,All Hong Kong Island,Kennedy Town,HMA111
14 North Street,14 North Street,1,5,--,--,--,--,--,https://hk.centanet.com/estate/en/14-North-Street/2-OOVCQRJARO,Hong Kong Island,All Hong Kong Island,Kennedy Town,HMA111
Cheong Kat Mansion,98-100 Catchick Street,1,66,--,--,--,--,--,https://hk.centanet.com/estate/en/Cheong-Kat-Mansion/2-OOVFFRQERO,Hong Kong Island,All Hong Kong Island,Kennedy Town,HMA111
Kam Po Mansion,37-41 North Street,1,20,--,--,--,--,--,https://hk.centanet.com/estate/en/Kam-Po-Mansion/2-OOVSQRJORO,Hong Kong Island,All Hong Kong Island,Kennedy Town,HMA111
Tai Tak House,1-5 Hau Wo Street,1,28,--,--,--,--,--,https://hk.centanet.com/estate/en/Tai-Tak-House/2-SSAWGPYJPS,Hong Kong Island,All Hong Kong Island,Kennedy Town,HMA111
Sun Shing Building,6-6G Belcher's Street,1,84,--,--,--,--,--,https://hk.centanet.com/estate/en/Sun-Shing-Building/2-SSAYBPSRPS,Hong Kong Island,All Hong Kong Island,Kennedy Town,HMA111
2A-2B Belcher's Street,2A-2B Belcher's Street,1,8,--,--,--,--,--,https://hk.centanet.com/estate/en/2A-2B-Belcher-s-Street/2-SSBBBPSHPS,Hong Kong Island,All Hong Kong Island,Kennedy Town,HMA111
44 Catchick Street,44 Catchick Street,1,5,--,--,--,--,--,https://hk.centanet.com/estate/en/44-Catchick-Street/2-SSBPGPAXPS,Hong Kong Island,All Hong Kong Island,Kennedy Town,HMA111
32B Belcher's Street,32B Belcher's Street,1,7,--,--,--,--,--,https://hk.centanet.com/estate/en/32B-Belcher-s-Street/2-SSBPWPSYPS,Hong Kong Island,All Hong Kong Island,Kennedy Town,HMA111
48-50 Belcher's Street,48-50 Belcher's Street,1,15,--,--,--,--,--,https://hk.centanet.com/estate/en/48-50-Belcher-s-Street/2-SSDYWPSOPS,Hong Kong Island,All Hong Kong Island,Kennedy Town,HMA111
Hang Fai Building,67-83 Belcher's Street,1,67,--,--,--,--,--,https://hk.centanet.com/estate/en/Hang-Fai-Building/2-SSEBPPSRPS,Hong Kong Island,All Hong Kong Island,Kennedy Town,HMA111
Po Lung House,28-30 Li Po Lung Path,1,12,--,--,--,--,--,https://hk.centanet.com/estate/en/Po-Lung-House/2-SSEWBPGHPS,Hong Kong Island,All Hong Kong Island,Kennedy Town,HMA111
Man Kwong Court,12 Smithfield,1,110,--,--,--,--,--,https://hk.centanet.com/estate/en/Man-Kwong-Court/2-SSEWWPYAPS,Hong Kong Island,All Hong Kong Island,Kennedy Town,HMA111
Centenary Mansion,1 Victoria Road,2,608,--,--,--,--,--,https://hk.centanet.com/estate/en/Centenary-Mansion/2-SSGGGPWYPS,Hong Kong Island,All Hong Kong Island,Kennedy Town,HMA111
Kin Yick Mansion,15-15C Belcher's Street,1,105,--,--,--,--,--,https://hk.centanet.com/estate/en/Kin-Yick-Mansion/2-SSGKPPGEPS,Hong Kong Island,All Hong Kong Island,Kennedy Town,HMA111
9 Ching Lin Terrace,9 Ching Lin Terrace,1,3,--,--,--,--,--,https://hk.centanet.com/estate/en/9-Ching-Lin-Terrace/2-SSGPPPKVPS,Hong Kong Island,All Hong Kong Island,Kennedy Town,HMA111
Chi Fung Building,62-64 Catchick Street,1,10,--,--,--,--,--,https://hk.centanet.com/estate/en/Chi-Fung-Building/2-SSGWGPAYPS,Hong Kong Island,All Hong Kong Island,Kennedy Town,HMA111
Kam Fai House,38-40 Catchick Street,1,19,--,--,--,--,--,https://hk.centanet.com/estate/en/Kam-Fai-House/2-SSKDBPAEPS,Hong Kong Island,All Hong Kong Island,Kennedy Town,HMA111
9 Hau Wo Street,9 Hau Wo Street,1,4,--,--,--,--,--,https://hk.centanet.com/estate/en/9-Hau-Wo-Street/2-SSKDWPKOPS,Hong Kong Island,All Hong Kong Island,Kennedy Town,HMA111
42 Catchick Street,42 Catchick Street,1,5,--,--,--,--,--,https://hk.centanet.com/estate/en/42-Catchick-Street/2-SSKWBPAVPS,Hong Kong Island,All Hong Kong Island,Kennedy Town,HMA111
Cado Building,39-41 Cadogan Street,1,14,--,--,--,--,--,https://hk.centanet.com/estate/en/Cado-Building/2-SSPBBPEJPS,Hong Kong Island,All Hong Kong Island,Kennedy Town,HMA111
Lung Fai Mansion,20-22 Li Po Lung Path,1,14,--,--,--,--,--,https://hk.centanet.com/estate/en/Lung-Fai-Mansion/2-SSPBBPGYPS,Hong Kong Island,All Hong Kong Island,Kennedy Town,HMA111
85-87 Belcher's Street,85-87 Belcher's Street,1,10,--,--,--,--,--,https://hk.centanet.com/estate/en/85-87-Belcher-s-Street/2-SSPGPPSOPS,Hong Kong Island,All Hong Kong Island,Kennedy Town,HMA111
63-65 Belcher's Street,63-65 Belcher's Street,1,8,--,--,--,--,--,https://hk.centanet.com/estate/en/63-65-Belcher-s-Street/2-SSPKPPSHPS,Hong Kong Island,All Hong Kong Island,Kennedy Town,HMA111
Houston Court,40 Belcher's Street,1,44,--,--,--,--,--,https://hk.centanet.com/estate/en/Houston-Court/2-SSPKWPSJPS,Hong Kong Island,All Hong Kong Island,Kennedy Town,HMA111
Shun Cheong Building,20-34 Hau Wo Street,1,66,--,--,--,--,--,https://hk.centanet.com/estate/en/Shun-Cheong-Building/2-SSPPWWPHWS,Hong Kong Island,All Hong Kong Island,Kennedy Town,HMA111
Millennium Court,11 Sands Street,1,32,--,--,--,--,--,https://hk.centanet.com/estate/en/Millennium-Court/2-SSPPWWPJWS,Hong Kong Island,All Hong Kong Island,Kennedy Town,HMA111
No. 18 Pokfield Road,18 Pokfield Road,1,70,--,--,--,--,--,https://hk.centanet.com/estate/en/No-18-Pokfield-Road/2-SSPPWWPVWS,Hong Kong Island,All Hong Kong Island,Kennedy Town,HMA111
No. 18 Catchick Street,18 Catchick Street,1,50,--,--,--,--,--,https://hk.centanet.com/estate/en/No-18-Catchick-Street/2-SSSPWWPRWS,Hong Kong Island,All Hong Kong Island,Kennedy Town,HMA111
89-91 Belcher's Street,89-91 Belcher's Street,1,8,--,--,--,--,--,https://hk.centanet.com/estate/en/89-91-Belcher-s-Street/2-SSSYPPSYPS,Hong Kong Island,All Hong Kong Island,Kennedy Town,HMA111
Poksmith Villa,40 Pokfield Road,1,36,--,--,--,--,--,https://hk.centanet.com/estate/en/Poksmith-Villa/2-SSWGBPDXPS,Hong Kong Island,All Hong Kong Island,Kennedy Town,HMA111
1D Davis Street,1D Davis Street,1,5,--,--,--,--,--,https://hk.centanet.com/estate/en/1D-Davis-Street/2-SSWWPPKAPS,Hong Kong Island,All Hong Kong Island,Kennedy Town,HMA111
1C Davis Street,1C Davis Street,1,5,--,--,--,--,--,https://hk.centanet.com/estate/en/1C-Davis-Street/2-SSWYPPKEPS,Hong Kong Island,All Hong Kong Island,Kennedy Town,HMA111
Man Fatt Mansion,20-28 Sands Street,1,56,--,--,--,--,--,https://hk.centanet.com/estate/en/Man-Fatt-Mansion/2-SSYABPYVPS,Hong Kong Island,All Hong Kong Island,Kennedy Town,HMA111
1B Davis Street,1B Davis Street,1,5,--,--,--,--,--,https://hk.centanet.com/estate/en/1B-Davis-Street/2-SSYDPPKSPS,Hong Kong Island,All Hong Kong Island,Kennedy Town,HMA111
Pokfield Garden,38 Pokfield Road,1,72,--,--,--,--,--,https://hk.centanet.com/estate/en/Pokfield-Garden/2-SSYGBPDEPS,Hong Kong Island,All Hong Kong Island,Kennedy Town,HMA111
Kuk Fung Building,46-60 Catchick Street,1,36,--,--,--,--,--,https://hk.centanet.com/estate/en/Kuk-Fung-Building/2-SSYKGPAAPS,Hong Kong Island,All Hong Kong Island,Kennedy Town,HMA111
52-54 Belcher's Street,52-54 Belcher's Street,1,15,--,--,--,--,--,https://hk.centanet.com/estate/en/52-54-Belcher-s-Street/2-SSYSPPESPS,Hong Kong Island,All Hong Kong Island,Kennedy Town,HMA111
Nam Shan House,113-119 Belcher's Street,1,10,--,--,--,--,--,https://hk.centanet.com/estate/en/Nam-Shan-House/2-TTDLTHTXHT,Hong Kong Island,All Hong Kong Island,Kennedy Town,HMA111
107-111 Belcher's Street,107-111 Belcher's Street,1,19,--,--,--,--,--,https://hk.centanet.com/estate/en/107-111-Belcher-s-Street/2-TTDXTHTOHT,Hong Kong Island,All Hong Kong Island,Kennedy Town,HMA111
103-105 Belcher's Street,103-105 Belcher's Street,1,12,--,--,--,--,--,https://hk.centanet.com/estate/en/103-105-Belcher-s-Street/2-TTDZTHTHHT,Hong Kong Island,All Hong Kong Island,Kennedy Town,HMA111
Mau Wah Mansion,22-24A Belcher's Street,1,84,--,--,--,--,--,https://hk.centanet.com/estate/en/Mau-Wah-Mansion/2-TTHDIHTAHT,Hong Kong Island,All Hong Kong Island,Kennedy Town,HMA111
Skyla,32 Sands Street,1,42,--,--,--,--,--,https://hk.centanet.com/estate/en/Skyla/2-TTHHIHNXHS,Hong Kong Island,All Hong Kong Island,Kennedy Town,HMA111
Sai On Building,93-95 Belcher's Street,1,10,--,--,--,--,--,https://hk.centanet.com/estate/en/Sai-On-Building/2-TTHHTHTSHT,Hong Kong Island,All Hong Kong Island,Kennedy Town,HMA111
Kut Cheung Mansion,1-3 Catchick Street,1,15,--,--,--,--,--,https://hk.centanet.com/estate/en/Kut-Cheung-Mansion/2-TTHIIHMVHT,Hong Kong Island,All Hong Kong Island,Kennedy Town,HMA111
Townplace Kennedy Town,97 Belcher's Street,1,128,--,--,--,--,--,https://hk.centanet.com/estate/en/Townplace-Kennedy-Town/2-TTHMTHTXHT,Hong Kong Island,All Hong Kong Island,Kennedy Town,HMA111
Timley Court,99 Catchick Street,1,23,--,--,--,--,--,https://hk.centanet.com/estate/en/Timley-Court/2-TTIITHDYHT,Hong Kong Island,All Hong Kong Island,Kennedy Town,HMA111
Hau Wo Building,44-52 Hau Wo Street,1,18,--,--,--,--,--,https://hk.centanet.com/estate/en/Hau-Wo-Building/2-TTIMZHNYHT,Hong Kong Island,All Hong Kong Island,Kennedy Town,HMA111
Kam Fu Mansion,66-68 Catchick Street,1,10,--,--,--,--,--,https://hk.centanet.com/estate/en/Kam-Fu-Mansion/2-TTITIHDOHT,Hong Kong Island,All Hong Kong Island,Kennedy Town,HMA111
Sunglow Building,"11-15 Praya, Kennedy Town",1,144,"$13,017/ ft²",3.78%,1,--,--,https://hk.centanet.com/estate/en/Sunglow-Building/2-TTIXZHDXHX,Hong Kong Island,All Hong Kong Island,Kennedy Town,HMA111
27 Sands Street,27 Sands Street,1,11,--,--,--,--,--,https://hk.centanet.com/estate/en/27-Sands-Street/2-TTIZZHSXHT,Hong Kong Island,All Hong Kong Island,Kennedy Town,HMA111
The Unit Davis Serviced Apartments,22 Davis Street,1,57,--,--,--,--,--,https://hk.centanet.com/estate/en/The-Unit-Davis-Serviced-Apartments/2-TTLHTHZSHT,Hong Kong Island,All Hong Kong Island,Kennedy Town,HMA111
1E Davis Street,1E Davis Street,1,5,--,--,--,--,--,https://hk.centanet.com/estate/en/1E-Davis-Street/2-TTLHTHZVHT,Hong Kong Island,All Hong Kong Island,Kennedy Town,HMA111
5-7 North Street,5-7 North Street,1,10,--,--,--,--,--,https://hk.centanet.com/estate/en/5-7-North-Street/2-TTLSTHIAHT,Hong Kong Island,All Hong Kong Island,Kennedy Town,HMA111
Koon Lun House,"1A New Praya, Kennedy Town",1,2,--,--,--,--,--,https://hk.centanet.com/estate/en/Koon-Lun-House/2-TTMLIHXSHT,Hong Kong Island,All Hong Kong Island,Kennedy Town,HMA111
33 Sands Street,33 Sands Street,1,12,--,--,--,--,--,https://hk.centanet.com/estate/en/33-Sands-Street/2-TTMNZHSHHT,Hong Kong Island,All Hong Kong Island,Kennedy Town,HMA111
Smith Court,83 Smithfield,1,42,--,--,--,--,--,https://hk.centanet.com/estate/en/Smith-Court/2-TTMSIHSAHT,Hong Kong Island,All Hong Kong Island,Kennedy Town,HMA111
Sands Building,23-25 Sands Street,1,48,--,--,--,--,--,https://hk.centanet.com/estate/en/Sands-Building/2-TTNMZHSEHT,Hong Kong Island,All Hong Kong Island,Kennedy Town,HMA111
Luen Fat Apartments,49 Smithfield,1,150,--,--,--,--,--,https://hk.centanet.com/estate/en/Luen-Fat-Apartments/2-TTNXIHSHHT,Hong Kong Island,All Hong Kong Island,Kennedy Town,HMA111
Shing Tai Building,70-76 Catchick Street,1,28,--,--,--,--,--,https://hk.centanet.com/estate/en/Shing-Tai-Building/2-TTSDIHDOHT,Hong Kong Island,All Hong Kong Island,Kennedy Town,HMA111
Treasure Court,28 Belcher's Street,1,84,--,--,--,--,--,https://hk.centanet.com/estate/en/Treasure-Court/2-TTSLIHTJHT,Hong Kong Island,All Hong Kong Island,Kennedy Town,HMA111
Tung Fat Building,"1B-1C New Praya, Kennedy Town",1,15,--,--,--,--,--,https://hk.centanet.com/estate/en/Tung-Fat-Building/2-TTSLIHXXHT,Hong Kong Island,All Hong Kong Island,Kennedy Town,HMA111
Kin Liong Mansion,16-30 North Street,1,171,--,--,--,--,--,https://hk.centanet.com/estate/en/Kin-Liong-Mansion/2-TTTHZHIAHT,Hong Kong Island,All Hong Kong Island,Kennedy Town,HMA111
47-49 Hau Wo Street,47-49 Hau Wo Street,1,14,--,--,--,--,--,https://hk.centanet.com/estate/en/47-49-Hau-Wo-Street/2-TTTLTHNJHT,Hong Kong Island,All Hong Kong Island,Kennedy Town,HMA111
95 Catchick Street,95 Catchick Street,1,5,--,--,--,--,--,https://hk.centanet.com/estate/en/95-Catchick-Street/2-TTTNTHDSHT,Hong Kong Island,All Hong Kong Island,Kennedy Town,HMA111
S-Residence,5-7 Catchick Street,1,14,--,--,--,--,--,https://hk.centanet.com/estate/en/S-Residence/2-TTTSIHMXHT,Hong Kong Island,All Hong Kong Island,Kennedy Town,HMA111
Tresend Garden,81 Smithfield,1,54,--,--,--,--,--,https://hk.centanet.com/estate/en/Tresend-Garden/2-TTTSIHSSHT,Hong Kong Island,All Hong Kong Island,Kennedy Town,HMA111
Hau Wo House,39-45 Hau Wo Street,1,20,--,--,--,--,--,https://hk.centanet.com/estate/en/Hau-Wo-House/2-TTTXTHNRHT,Hong Kong Island,All Hong Kong Island,Kennedy Town,HMA111
93 Catchick Street,93 Catchick Street,1,5,--,--,--,--,--,https://hk.centanet.com/estate/en/93-Catchick-Street/2-TTTZTHDYHT,Hong Kong Island,All Hong Kong Island,Kennedy Town,HMA111
Po Shu Lau,35-37 Sands Street,1,37,--,--,--,--,--,https://hk.centanet.com/estate/en/Po-Shu-Lau/2-TTXNZHSHHT,Hong Kong Island,All Hong Kong Island,Kennedy Town,HMA111
Luen Tak Apartments,45 Smithfield,1,148,--,--,--,--,--,https://hk.centanet.com/estate/en/Luen-Tak-Apartments/2-TTZDIHSAHT,Hong Kong Island,All Hong Kong Island,Kennedy Town,HMA111
Novum West,460 Queen's Road West,4,645,"$21,538/ ft²",1.25%,2,45,10,https://hk.centanet.com/estate/en/Novum-West/2-SSPPWWPOWG,Hong Kong Island,All Hong Kong Island,Shek Tong Tsui,HMA047
Chong Yip Centre,423-425 Queen's Road West,3,633,"$11,397/ ft²",8.83%,3,10,1,https://hk.centanet.com/estate/en/Chong-Yip-Centre/2-OODQFRVORU,Hong Kong Island,All Hong Kong Island,Shek Tong Tsui,HMA047
One South Lane,1 South Lane,1,92,--,--,--,16,5,https://hk.centanet.com/estate/en/One-South-Lane/2-SSPPWWPSWG,Hong Kong Island,All Hong Kong Island,Shek Tong Tsui,HMA047
Eivissa Crest,100 Hill Road,1,106,--,--,--,15,4,https://hk.centanet.com/estate/en/Eivissa-Crest/2-SKPPWWPVWS,Hong Kong Island,All Hong Kong Island,Shek Tong Tsui,HMA047
Kwan Yick Building,Des Voeux Road West,7,"2,504","$10,005/ ft²",2.50%,7,12,--,https://hk.centanet.com/estate/en/Kwan-Yick-Building/3-SSWDBPPYPG,Hong Kong Island,All Hong Kong Island,Shek Tong Tsui,HMA047
High West,36 Clarence Terrence,1,133,"$17,509/ ft²",3.95%,1,6,5,https://hk.centanet.com/estate/en/High-West/2-SSSPWWPAWE,Hong Kong Island,All Hong Kong Island,Shek Tong Tsui,HMA047
Kwan Yick Building Phase 1,430-440A Des Voeux Road West,1,924,--,--,--,7,--,https://hk.centanet.com/estate/en/Kwan-Yick-Building/2-SSWDBPPYSG,Hong Kong Island,All Hong Kong Island,Shek Tong Tsui,HMA047
Harbour One,458 Des Voeux Road West,1,103,"$25,680/ ft²",--,2,10,1,https://hk.centanet.com/estate/en/Harbour-One/2-SSPPWWPYWG,Hong Kong Island,All Hong Kong Island,Shek Tong Tsui,HMA047
Green View Court,14-20 Woo Hop Street,1,60,--,--,--,1,--,https://hk.centanet.com/estate/en/Green-View-Court/2-TTXLIHLXHX,Hong Kong Island,All Hong Kong Island,Shek Tong Tsui,HMA047
Kwok Ga Building,6-12 Woo Hop Street,1,88,--,--,--,--,--,https://hk.centanet.com/estate/en/Kwok-Ga-Building/2-TTZLIHLXHX,Hong Kong Island,All Hong Kong Island,Shek Tong Tsui,HMA047
Hill Court,28 Hill Road,1,138,"$18,770/ ft²",3.33%,1,1,--,https://hk.centanet.com/estate/en/Hill-Court/2-OOORFROHRD,Hong Kong Island,All Hong Kong Island,Shek Tong Tsui,HMA047
Eight South Lane,8-12 Eight South Lane,1,95,--,--,--,9,1,https://hk.centanet.com/estate/en/Eight-South-Lane/2-SSPPWWPVWG,Hong Kong Island,All Hong Kong Island,Shek Tong Tsui,HMA047
Ka Fai Court,18-22 Clarence Terrace,1,46,--,--,--,4,--,https://hk.centanet.com/estate/en/Ka-Fai-Court/2-OOCQFRRRRU,Hong Kong Island,All Hong Kong Island,Shek Tong Tsui,HMA047
Dragonfair Garden,485 Queen's Road West,2,220,--,--,--,4,--,https://hk.centanet.com/estate/en/Dragonfair-Garden/2-OOOUFRSHRD,Hong Kong Island,All Hong Kong Island,Shek Tong Tsui,HMA047
Yip Cheong (Cheung) Building,4-16 Hill Road,1,375,"$7,673/ ft²",--,1,4,--,https://hk.centanet.com/estate/en/Yip-Cheong-Cheung-Building/2-SSBGBPSHPG,Hong Kong Island,All Hong Kong Island,Shek Tong Tsui,HMA047
King's Building,521-525 Queen's Road West,1,88,"$12,102/ ft²",5.13%,1,4,1,https://hk.centanet.com/estate/en/King-s-Building/2-SSSGWPBAPG,Hong Kong Island,All Hong Kong Island,Shek Tong Tsui,HMA047
Fortune Villa,61-69 Hill Road,1,74,--,--,--,3,1,https://hk.centanet.com/estate/en/Fortune-Villa/2-SSESWPAXPE,Hong Kong Island,All Hong Kong Island,Shek Tong Tsui,HMA047
Sun King House,576-584 Queen's Road West,1,100,--,--,--,3,--,https://hk.centanet.com/estate/en/Sun-King-House/2-OOUOFRJYRO,Hong Kong Island,All Hong Kong Island,Shek Tong Tsui,HMA047
Mei Sun Lau,489-499 Queen's Road West,2,266,--,--,--,2,2,https://hk.centanet.com/estate/en/Mei-Sun-Lau/2-SSGSPPBEPG,Hong Kong Island,All Hong Kong Island,Shek Tong Tsui,HMA047
Lun Fung Court,363 Des Voeux Road West,1,122,--,--,--,2,1,https://hk.centanet.com/estate/en/Lun-Fung-Court/2-TTMDIHTYHM,Hong Kong Island,All Hong Kong Island,Shek Tong Tsui,HMA047
Mei Shing Mansion,501-511 Queen's Road West,1,117,"$3,163/ ft²",64.22%,1,2,--,https://hk.centanet.com/estate/en/Mei-Shing-Mansion/2-OOJVQRVXRD,Hong Kong Island,All Hong Kong Island,Shek Tong Tsui,HMA047
Intelligent Court,28 Clarence Terrace,1,48,--,--,--,2,--,https://hk.centanet.com/estate/en/Intelligent-Court/2-OOOVFRRERU,Hong Kong Island,All Hong Kong Island,Shek Tong Tsui,HMA047
Yen Oi Garden,9-15 Po Tuck Street,1,40,--,--,--,2,--,https://hk.centanet.com/estate/en/Yen-Oi-Garden/2-SSASWPKOPE,Hong Kong Island,All Hong Kong Island,Shek Tong Tsui,HMA047
Whitty Street Court,22-44 Whitty Street,3,169,--,--,--,2,--,https://hk.centanet.com/estate/en/Whitty-Street-Court/2-SSDDBPWSPE,Hong Kong Island,All Hong Kong Island,Shek Tong Tsui,HMA047
Sik On House,54-66 Hill Road,1,79,--,--,--,2,--,https://hk.centanet.com/estate/en/Sik-On-House/2-SSEABPEAPG,Hong Kong Island,All Hong Kong Island,Shek Tong Tsui,HMA047
Goa Building,20-24 Hill Road,1,88,"$12,913/ ft²",7.45%,1,2,--,https://hk.centanet.com/estate/en/Goa-Building/2-SSEGGPSAPG,Hong Kong Island,All Hong Kong Island,Shek Tong Tsui,HMA047
Hang Lung Bank Western Branch Building,15 Hill Road,1,51,--,--,--,1,1,https://hk.centanet.com/estate/en/Hang-Lung-Bank-Western-Branch-Building/2-OODOFRQARU,Hong Kong Island,All Hong Kong Island,Shek Tong Tsui,HMA047
Wing Ga Building,33-39 Po Tuck Street,1,44,--,--,--,1,1,https://hk.centanet.com/estate/en/Wing-Ga-Building/2-SSGBWPKXPE,Hong Kong Island,All Hong Kong Island,Shek Tong Tsui,HMA047
Kam Ling Court,1-3 Woo Hop Street,2,220,--,--,--,1,1,https://hk.centanet.com/estate/en/Kam-Ling-Court/2-SSPBGPWXPG,Hong Kong Island,All Hong Kong Island,Shek Tong Tsui,HMA047
Clarence Court,8-16 Clarence Terrace,1,51,--,--,--,1,--,https://hk.centanet.com/estate/en/Clarence-Court/2-OOFUFRRXRU,Hong Kong Island,All Hong Kong Island,Shek Tong Tsui,HMA047
Bic Wah Court,464-464D Des Voeux Road West,1,63,--,--,--,1,--,https://hk.centanet.com/estate/en/Bic-Wah-Court/2-OOJCQROXRD,Hong Kong Island,All Hong Kong Island,Shek Tong Tsui,HMA047
Wing Fu Lau (Wing Foo Building),2-6 Clarence Terrace,1,20,--,--,--,--,--,https://hk.centanet.com/estate/en/Wing-Fu-Lau-Wing-Foo-Building/2-OOSOFRRHRU,Hong Kong Island,All Hong Kong Island,Shek Tong Tsui,HMA047
Pak Hoo Mansion,554-560 Queen's Road West,1,88,--,--,--,1,--,https://hk.centanet.com/estate/en/Pak-Hoo-Mansion/2-OOVRQRJXRD,Hong Kong Island,All Hong Kong Island,Shek Tong Tsui,HMA047
Kai Fung Building,102-104 Hill Road,1,25,--,--,--,--,--,https://hk.centanet.com/estate/en/Kai-Fung-Building/2-SSEGPPKEPE,Hong Kong Island,All Hong Kong Island,Shek Tong Tsui,HMA047
Siu Yee Building,590-596A Queen's Road West,1,107,--,--,--,1,--,https://hk.centanet.com/estate/en/Siu-Yee-Building/2-SSESWPDOPS,Hong Kong Island,All Hong Kong Island,Shek Tong Tsui,HMA047
Sang Cheong Building,427-437 Queen's Road West,1,66,--,--,--,1,--,https://hk.centanet.com/estate/en/Sang-Cheong-Building/2-SSEWWPBYPE,Hong Kong Island,All Hong Kong Island,Shek Tong Tsui,HMA047
Poga Building,6-20 Po Tuck Street,1,88,--,--,--,1,--,https://hk.centanet.com/estate/en/Poga-Building/2-SSPYWPKEPE,Hong Kong Island,All Hong Kong Island,Shek Tong Tsui,HMA047
Hillview Garden,72 Hill Road,2,48,--,--,--,1,--,https://hk.centanet.com/estate/en/Hillview-Garden/2-SSWSPPAAPG,Hong Kong Island,All Hong Kong Island,Shek Tong Tsui,HMA047
Good Luck Mansion,101 Hill Road,1,9,--,--,--,--,--,https://hk.centanet.com/estate/en/Good-Luck-Mansion/2-SSWYWPAXPE,Hong Kong Island,All Hong Kong Island,Shek Tong Tsui,HMA047
Joy Fat Mansion (House),522-530 Queen's Road West,1,119,--,--,--,1,--,https://hk.centanet.com/estate/en/Joy-Fat-Mansion-House/2-TTHMIHXRHX,Hong Kong Island,All Hong Kong Island,Shek Tong Tsui,HMA047
Nam Wah Mansion,5-9 South Lane,1,52,--,--,--,1,--,https://hk.centanet.com/estate/en/Nam-Wah-Mansion/2-TTMDTHSOHX,Hong Kong Island,All Hong Kong Island,Shek Tong Tsui,HMA047
Wo Fat Building,533-543 Queen's Road West,1,120,--,--,--,1,--,https://hk.centanet.com/estate/en/Wo-Fat-Building/2-TTSDZHXAHX,Hong Kong Island,All Hong Kong Island,Shek Tong Tsui,HMA047
On Lok Mansion,586-588 Queen's Road West,1,48,--,--,--,--,1,https://hk.centanet.com/estate/en/On-Lok-Mansion/2-OOCDFRJJRO,Hong Kong Island,All Hong Kong Island,Shek Tong Tsui,HMA047
Po Tak Building,540-546 Queen's Road West,1,53,--,--,--,--,1,https://hk.centanet.com/estate/en/Po-Tak-Building/2-SSESPPDRPG,Hong Kong Island,All Hong Kong Island,Shek Tong Tsui,HMA047
Cheong Wan Mansion,55-59 Hill Road,1,46,--,--,--,--,--,https://hk.centanet.com/estate/en/Cheong-Wan-Mansion/2-OOCFFRQRRU,Hong Kong Island,All Hong Kong Island,Shek Tong Tsui,HMA047
Wing Wah Mansion,425G-425Z Queen's Road West,8,446,"$6,387/ ft²",17.05%,1,--,--,https://hk.centanet.com/estate/en/Wing-Wah-Mansion/2-OOCVFRVORU,Hong Kong Island,All Hong Kong Island,Shek Tong Tsui,HMA047
Lok Po House,51 Hill Road,1,15,--,--,--,--,--,https://hk.centanet.com/estate/en/Lok-Po-House/2-OODJFRQXRU,Hong Kong Island,All Hong Kong Island,Shek Tong Tsui,HMA047
Fu Yin Court,39 Hill Road,1,22,--,--,--,--,--,https://hk.centanet.com/estate/en/Fu-Yin-Court/2-OOFDFRQHRU,Hong Kong Island,All Hong Kong Island,Shek Tong Tsui,HMA047
Fu Ga Building,7-13 Yat Fu Lane,1,107,"$12,136/ ft²",1.56%,1,--,--,https://hk.centanet.com/estate/en/Fu-Ga-Building/2-OOFRFRCXRD,Hong Kong Island,All Hong Kong Island,Shek Tong Tsui,HMA047
1-7 Po Tuck Street,1-7 Po Tuck Street,1,34,--,--,--,--,--,https://hk.centanet.com/estate/en/1-7-Po-Tuck-Street/2-OORFFRSVRU,Hong Kong Island,All Hong Kong Island,Shek Tong Tsui,HMA047
Des Voeux Road West Building,406-408D Des Voeux Road West,1,273,--,--,--,--,--,https://hk.centanet.com/estate/en/Des-Voeux-Road-West-Building/2-OORQQRUVRU,Hong Kong Island,All Hong Kong Island,Shek Tong Tsui,HMA047
Nice Garden,513 Queen's Road West,1,84,--,--,--,--,--,https://hk.centanet.com/estate/en/Nice-Garden/2-OORRFRVXRD,Hong Kong Island,All Hong Kong Island,Shek Tong Tsui,HMA047
Graceful Court,27-37 Hill Road,1,48,--,--,--,--,--,https://hk.centanet.com/estate/en/Graceful-Court/2-OOSVFRQVRU,Hong Kong Island,All Hong Kong Island,Shek Tong Tsui,HMA047
93-99 Hill Road,93-99 Hill Road,1,10,--,--,--,--,--,https://hk.centanet.com/estate/en/93-99-Hill-Road/2-SSBYWPAYPE,Hong Kong Island,All Hong Kong Island,Shek Tong Tsui,HMA047
Hill Road Court,79-85 Hill Road,1,30,--,--,--,--,--,https://hk.centanet.com/estate/en/Hill-Road-Court/2-SSDBWPARPE,Hong Kong Island,All Hong Kong Island,Shek Tong Tsui,HMA047
Kam Ling Court,10-20 Whitty Street,1,72,--,--,--,--,--,https://hk.centanet.com/estate/en/Kam-Ling-Court/2-SSDKBPWJPE,Hong Kong Island,All Hong Kong Island,Shek Tong Tsui,HMA047
Cheung Po Building,29-31 Po Tuck Street,1,10,--,--,--,--,--,https://hk.centanet.com/estate/en/Cheung-Po-Building/2-SSDKWPKXPE,Hong Kong Island,All Hong Kong Island,Shek Tong Tsui,HMA047
Tuck Ga Building,22-28 Po Tuck Street,1,38,--,--,--,--,--,https://hk.centanet.com/estate/en/Tuck-Ga-Building/2-SSEAPPBOPE,Hong Kong Island,All Hong Kong Island,Shek Tong Tsui,HMA047
602 Queen's Road West,602 Queen's Road West,1,6,--,--,--,--,--,https://hk.centanet.com/estate/en/602-Queen-s-Road-West/2-SSEDWPDJPS,Hong Kong Island,All Hong Kong Island,Shek Tong Tsui,HMA047
604 Queen's Road West,604 Queen's Road West,1,6,--,--,--,--,--,https://hk.centanet.com/estate/en/604-Queen-s-Road-West/2-SSEYWPDYPS,Hong Kong Island,All Hong Kong Island,Shek Tong Tsui,HMA047
21-27 Po Tuck Street,21-27 Po Tuck Street,1,20,--,--,--,--,--,https://hk.centanet.com/estate/en/21-27-Po-Tuck-Street/2-SSGEWPKRPE,Hong Kong Island,All Hong Kong Island,Shek Tong Tsui,HMA047
17-19 Po Tuck Street,17-19 Po Tuck Street,1,10,--,--,--,--,--,https://hk.centanet.com/estate/en/17-19-Po-Tuck-Street/2-SSGSWPKAPE,Hong Kong Island,All Hong Kong Island,Shek Tong Tsui,HMA047
Yhill,71-77 Hill Road,1,75,--,--,--,--,--,https://hk.centanet.com/estate/en/Yhill/2-SSKAWPARPE,Hong Kong Island,All Hong Kong Island,Shek Tong Tsui,HMA047
Luen Wah Mansion,518-520 Queen's Road West,1,55,--,--,--,--,--,https://hk.centanet.com/estate/en/Luen-Wah-Mansion/2-SSKDBPGAPG,Hong Kong Island,All Hong Kong Island,Shek Tong Tsui,HMA047
Hon Bong Building,598-600 Queen's Road West,1,10,"$9,967/ ft²",23.02%,1,--,--,https://hk.centanet.com/estate/en/Hon-Bong-Building/2-SSPBWPDEPS,Hong Kong Island,All Hong Kong Island,Shek Tong Tsui,HMA047
Fuk Hing Lau,87 Hill Road,1,5,--,--,--,--,--,https://hk.centanet.com/estate/en/Fuk-Hing-Lau/2-SSPDWPAHPE,Hong Kong Island,All Hong Kong Island,Shek Tong Tsui,HMA047
23 South Lane,23 South Lane,1,10,--,--,--,--,--,https://hk.centanet.com/estate/en/23-South-Lane/2-SSSDBPYJPG,Hong Kong Island,All Hong Kong Island,Shek Tong Tsui,HMA047
Wing Hing House,476-482 Queen's Road West,1,81,"$10,766/ ft²",--,1,--,--,https://hk.centanet.com/estate/en/Wing-Hing-House/2-SSSYGPGXPE,Hong Kong Island,All Hong Kong Island,Shek Tong Tsui,HMA047
Shun Sing Mansion,1 Cheung Kan Lane,1,91,--,--,--,--,--,https://hk.centanet.com/estate/en/Shun-Sing-Mansion/2-SSWBPPPVPG,Hong Kong Island,All Hong Kong Island,Shek Tong Tsui,HMA047
25 South Lane,25 South Lane,1,10,--,--,--,--,--,https://hk.centanet.com/estate/en/25-South-Lane/2-SSWSGPYOPG,Hong Kong Island,All Hong Kong Island,Shek Tong Tsui,HMA047
89-91 Hill Road,89-91 Hill Road,1,10,--,--,--,--,--,https://hk.centanet.com/estate/en/89-91-Hill-Road/2-SSYDWPAXPE,Hong Kong Island,All Hong Kong Island,Shek Tong Tsui,HMA047
Jadeview Court,38 Hill Road,1,152,"$14,769/ ft²",--,1,--,--,https://hk.centanet.com/estate/en/Jadeview-Court/2-TTDXTHMXHX,Hong Kong Island,All Hong Kong Island,Shek Tong Tsui,HMA047
Sun On Building,484-496 Queen's Road West,1,195,"$8,543/ ft²",1.43%,1,--,--,https://hk.centanet.com/estate/en/Sun-On-Building/2-TTMZIHXJHM,Hong Kong Island,All Hong Kong Island,Shek Tong Tsui,HMA047
19-21 South Lane,19-21 South Lane,1,15,--,--,--,--,--,https://hk.centanet.com/estate/en/19-21-South-Lane/2-TTNMZHSEHX,Hong Kong Island,All Hong Kong Island,Shek Tong Tsui,HMA047
Nam Cheong Building,48-52 Hill Road,1,92,--,--,--,--,--,https://hk.centanet.com/estate/en/Nam-Cheong-Building/2-TTNTZHMAHX,Hong Kong Island,All Hong Kong Island,Shek Tong Tsui,HMA047
Ko Leung Mansion,572-574 Queen's Road West,1,28,--,--,--,--,--,https://hk.centanet.com/estate/en/Ko-Leung-Mansion/2-TTXXIHIJHT,Hong Kong Island,All Hong Kong Island,Shek Tong Tsui,HMA047
Hau Fook Building,562-570 Queen's Road West,1,92,--,--,--,--,--,https://hk.centanet.com/estate/en/Hau-Fook-Building/2-TTZNIHIRHT,Hong Kong Island,All Hong Kong Island,Shek Tong Tsui,HMA047
Island Crest,8 First Street,2,488,"$21,789/ ft²",13.55%,2,22,7,https://hk.centanet.com/estate/en/Island-Crest/2-SSSPWWPXWE,Hong Kong Island,All Hong Kong Island,Sai Ying Pun,HMA056
Artisan House,1 Sai Yuen Lane,1,250,"$19,481/ ft²",0.12%,1,26,3,https://hk.centanet.com/estate/en/Artisan-House/2-SSEPWWPRWE,Hong Kong Island,All Hong Kong Island,Sai Ying Pun,HMA056
Bohemian House,321 Des Voeux Road West,1,191,--,--,--,18,7,https://hk.centanet.com/estate/en/Bohemian-House/2-SSEPWWPAWE,Hong Kong Island,All Hong Kong Island,Sai Ying Pun,HMA056
Ko Nga Court,9 High Street,1,226,"$13,987/ ft²",17.57%,1,13,1,https://hk.centanet.com/estate/en/Ko-Nga-Court/2-OOURQRQXRU,Hong Kong Island,All Hong Kong Island,Sai Ying Pun,HMA056
One．Artlane,8 Chung Ching Street,1,240,--,--,--,24,11,https://hk.centanet.com/estate/en/One-Artlane/2-SSEPWWPSWE,Hong Kong Island,All Hong Kong Island,Sai Ying Pun,HMA056
The Nova,88 Third Street,1,255,--,--,--,16,3,https://hk.centanet.com/estate/en/The-Nova/2-SSSPWWPRWE,Hong Kong Island,All Hong Kong Island,Sai Ying Pun,HMA056
Upton,180 Connaught Road West,1,125,--,--,--,10,2,https://hk.centanet.com/estate/en/Upton/2-SSEPWWPEWE,Hong Kong Island,All Hong Kong Island,Sai Ying Pun,HMA056
Connaught Garden,155 Connaught Road West,3,720,--,--,--,8,--,https://hk.centanet.com/estate/en/Connaught-Garden/2-SSKPPPSSPE,Hong Kong Island,All Hong Kong Island,Sai Ying Pun,HMA056
Kwan Yick Building Phase 3,271-285 Des Voeux Road West,2,742,"$9,829/ ft²",4.22%,3,5,--,https://hk.centanet.com/estate/en/Kwan-Yick-Building/2-SSWDBPPYAG,Hong Kong Island,All Hong Kong Island,Sai Ying Pun,HMA056
Kwan Yick Building Phase 2,343 Des Voeux Road West,4,838,"$10,181/ ft²",1.59%,4,--,--,https://hk.centanet.com/estate/en/Kwan-Yick-Building/2-SSWDBPPYEG,Hong Kong Island,All Hong Kong Island,Sai Ying Pun,HMA056
Kensington Hill,98 High Street,1,75,--,--,--,10,2,https://hk.centanet.com/estate/en/Kensington-Hill/2-SSEPWWPXWE,Hong Kong Island,All Hong Kong Island,Sai Ying Pun,HMA056
Centre Place,1 High Street,1,95,--,--,--,11,2,https://hk.centanet.com/estate/en/Centre-Place/2-SSPPWWPOWE,Hong Kong Island,All Hong Kong Island,Sai Ying Pun,HMA056
King's Hill,38 Western Street,1,166,--,--,--,9,3,https://hk.centanet.com/estate/en/King-s-Hill/2-SSEPWWPHWE,Hong Kong Island,All Hong Kong Island,Sai Ying Pun,HMA056
Hang Sing Mansion,48-78 High Street,1,251,--,--,--,8,1,https://hk.centanet.com/estate/en/Hang-Sing-Mansion/2-TTSMIHDRHM,Hong Kong Island,All Hong Kong Island,Sai Ying Pun,HMA056
The Met. Sublime,1 Kwai Heung Street,1,97,--,--,--,6,2,https://hk.centanet.com/estate/en/The-Met-Sublime/2-SSSPWWPYWE,Hong Kong Island,All Hong Kong Island,Sai Ying Pun,HMA056
Elegant Garden,409 Queen's Road West,2,320,"$15,321/ ft²",--,1,--,--,https://hk.centanet.com/estate/en/Elegant-Garden/2-TTLZIHNYHM,Hong Kong Island,All Hong Kong Island,Sai Ying Pun,HMA056
Grace Mansion,374-376 Des Voeux Road West,1,69,"$5,848/ ft²",46.37%,1,1,--,https://hk.centanet.com/estate/en/Grace-Mansion/2-OOCSURUXRU,Hong Kong Island,All Hong Kong Island,Sai Ying Pun,HMA056
Manifold Court,36-46 Pok Fu Lam Road,1,69,--,--,--,--,--,https://hk.centanet.com/estate/en/Manifold-Court/2-OOFRQRVYRU,Hong Kong Island,All Hong Kong Island,Sai Ying Pun,HMA056
Kam Wa Building,382-388 Des Voeux Road West,1,84,--,--,--,1,--,https://hk.centanet.com/estate/en/Kam-Wa-Building/2-OOSDURUHRU,Hong Kong Island,All Hong Kong Island,Sai Ying Pun,HMA056
Yue Sun Mansion,89-99 Third Street,2,198,--,--,--,2,1,https://hk.centanet.com/estate/en/Yue-Sun-Mansion/2-SSPGPPYYPE,Hong Kong Island,All Hong Kong Island,Sai Ying Pun,HMA056
Kwong Fung Terrace,163 Third Street,2,320,"$14,068/ ft²",10.83%,1,1,--,https://hk.centanet.com/estate/en/Kwong-Fung-Terrace/2-OOUUURFJRU,Hong Kong Island,All Hong Kong Island,Sai Ying Pun,HMA056
Wah Lee Building,210-218 Queen's Road West,1,131,--,--,--,1,1,https://hk.centanet.com/estate/en/Wah-Lee-Building/2-SSYPWPGOPA,Hong Kong Island,All Hong Kong Island,Sai Ying Pun,HMA056
Two．Artlane,1 Chung Ching Street,1,264,--,--,--,27,11,https://hk.centanet.com/estate/en/Two-Artlane/2-SSAPWWPEWE,Hong Kong Island,All Hong Kong Island,Sai Ying Pun,HMA056
No. 15 Western Street,15 Western Street,1,105,--,--,--,9,3,https://hk.centanet.com/estate/en/No-15-Western-Street/2-SSAPWWPXWE,Hong Kong Island,All Hong Kong Island,Sai Ying Pun,HMA056
Altro,116-118 Second Street,1,41,--,--,--,6,2,https://hk.centanet.com/estate/en/Altro/2-SSSPWWPHWE,Hong Kong Island,All Hong Kong Island,Sai Ying Pun,HMA056
Winner Court,18 Hospital Road,2,77,--,--,--,5,--,https://hk.centanet.com/estate/en/Winner-Court/2-TTMHTHDHHD,Hong Kong Island,All Hong Kong Island,Sai Ying Pun,HMA056
Yee Fung Court,101 Third Street,1,200,--,--,--,5,2,https://hk.centanet.com/estate/en/Yee-Fung-Court/2-SSYYPPYSPE,Hong Kong Island,All Hong Kong Island,Sai Ying Pun,HMA056
Fook Moon Building,56-72 Third Street,1,142,--,--,--,5,--,https://hk.centanet.com/estate/en/Fook-Moon-Building/2-TTXTZHSRHM,Hong Kong Island,All Hong Kong Island,Sai Ying Pun,HMA056
Wealth Building,53-65 High Street,1,90,--,--,--,5,--,https://hk.centanet.com/estate/en/Wealth-Building/2-TTXZZHDAHM,Hong Kong Island,All Hong Kong Island,Sai Ying Pun,HMA056
Lechler Court,97 High Street,1,80,--,--,--,4,2,https://hk.centanet.com/estate/en/Lechler-Court/2-SSBGBPARPE,Hong Kong Island,All Hong Kong Island,Sai Ying Pun,HMA056
Chong Yuen,14-16 Hospital Road,1,32,--,--,--,4,1,https://hk.centanet.com/estate/en/Chong-Yuen/2-SSGWPPAYPA,Hong Kong Island,All Hong Kong Island,Sai Ying Pun,HMA056
Yen Shun Mansion,142-150 Third Street,1,60,--,--,--,4,1,https://hk.centanet.com/estate/en/Yen-Shun-Mansion/2-SSWGBPYJPE,Hong Kong Island,All Hong Kong Island,Sai Ying Pun,HMA056
True Light Building,100-106 Third Street,1,168,--,--,--,4,--,https://hk.centanet.com/estate/en/True-Light-Building/2-SSBPBPYOPE,Hong Kong Island,All Hong Kong Island,Sai Ying Pun,HMA056
Grand Scholar,419K Queen's Road West,1,78,--,--,--,4,--,https://hk.centanet.com/estate/en/Grand-Scholar/2-SSPPWWPSWE,Hong Kong Island,All Hong Kong Island,Sai Ying Pun,HMA056
Wah Ming Centre,421 Queen's Road West,3,380,--,--,--,3,1,https://hk.centanet.com/estate/en/Wah-Ming-Centre/2-OOSUFRVVRU,Hong Kong Island,All Hong Kong Island,Sai Ying Pun,HMA056
Tsui King Court,18 Water Street,1,72,--,--,--,3,1,https://hk.centanet.com/estate/en/Tsui-King-Court/2-TTLSTHLHHM,Hong Kong Island,All Hong Kong Island,Sai Ying Pun,HMA056
Kam Kwan Building,163-173 Des Voeux Road West,1,83,--,--,--,3,--,https://hk.centanet.com/estate/en/Kam-Kwan-Building/2-OOJQUROVRU,Hong Kong Island,All Hong Kong Island,Sai Ying Pun,HMA056
Western Garden,83 Second Street,2,432,"$17,407/ ft²",--,1,3,--,https://hk.centanet.com/estate/en/Western-Garden/2-OOVQURJJRU,Hong Kong Island,All Hong Kong Island,Sai Ying Pun,HMA056
Hoi Sing Building,128 Second Street,2,177,--,--,--,3,--,https://hk.centanet.com/estate/en/Hoi-Sing-Building/2-SSKWBPDYPE,Hong Kong Island,All Hong Kong Island,Sai Ying Pun,HMA056
Goodwill Garden,83 Third Street,1,69,--,--,--,3,--,https://hk.centanet.com/estate/en/Goodwill-Garden/2-SSPKPPYXPE,Hong Kong Island,All Hong Kong Island,Sai Ying Pun,HMA056
Fung King Court,284-288 Queen's Road West,1,42,"$12,308/ ft²",--,1,3,1,https://hk.centanet.com/estate/en/Fung-King-Court/2-SSPPWWPAWE,Hong Kong Island,All Hong Kong Island,Sai Ying Pun,HMA056
Yuk Ming Towers,208 Third Street,2,326,--,--,--,3,--,https://hk.centanet.com/estate/en/Yuk-Ming-Towers/2-TTHXIHSJHM,Hong Kong Island,All Hong Kong Island,Sai Ying Pun,HMA056
Richsun Garden,51 Centre Street,1,66,--,--,--,2,1,https://hk.centanet.com/estate/en/Richsun-Garden/2-OOQDQRRYRU,Hong Kong Island,All Hong Kong Island,Sai Ying Pun,HMA056
Hang Fai Building,22-32 Pok Fu Lam Road,1,87,--,--,--,2,1,https://hk.centanet.com/estate/en/Hang-Fai-Building/2-OORFURVYRU,Hong Kong Island,All Hong Kong Island,Sai Ying Pun,HMA056
Fung Shing Building,168 Connaught Road West,1,120,"$12,104/ ft²",21.40%,1,2,1,https://hk.centanet.com/estate/en/Fung-Shing-Building/2-SSDBPPSAPE,Hong Kong Island,All Hong Kong Island,Sai Ying Pun,HMA056
Tung Cheung Building,1-11 Second Street,1,104,--,--,--,2,1,https://hk.centanet.com/estate/en/Tung-Cheung-Building/2-SSEEPPDXPE,Hong Kong Island,All Hong Kong Island,Sai Ying Pun,HMA056
Fung Yu Building,182-190 Third Street,1,123,--,--,--,2,1,https://hk.centanet.com/estate/en/Fung-Yu-Building/2-SSPDGPYXPE,Hong Kong Island,All Hong Kong Island,Sai Ying Pun,HMA056
Kensington Mansion,353 Queen's Road West,1,44,--,--,--,2,1,https://hk.centanet.com/estate/en/Kensington-Mansion/2-SSPKGPBXPE,Hong Kong Island,All Hong Kong Island,Sai Ying Pun,HMA056
Kiu Shing Building,327-333 Queen's Road West,1,56,--,--,--,2,1,https://hk.centanet.com/estate/en/Kiu-Shing-Building/2-SSWDBPBAPE,Hong Kong Island,All Hong Kong Island,Sai Ying Pun,HMA056
Silver Court,100 High Street,1,96,--,--,--,2,1,https://hk.centanet.com/estate/en/Silver-Court/2-TTZSIHDRHM,Hong Kong Island,All Hong Kong Island,Sai Ying Pun,HMA056
Kui Yan Court,3 Kui Yan Lane,1,48,--,--,--,2,--,https://hk.centanet.com/estate/en/Kui-Yan-Court/2-OOJQQRSYRU,Hong Kong Island,All Hong Kong Island,Sai Ying Pun,HMA056
Hang Hing Court,2 Fuk Sau Lane,1,104,"$14,430/ ft²",6.42%,1,2,--,https://hk.centanet.com/estate/en/Hang-Hing-Court/2-OORJURQARU,Hong Kong Island,All Hong Kong Island,Sai Ying Pun,HMA056
Tong Nam Mansion,43-47 Third Street,1,120,"$1,602/ ft²",88.33%,1,2,--,https://hk.centanet.com/estate/en/Tong-Nam-Mansion/2-SSADWPDSPE,Hong Kong Island,All Hong Kong Island,Sai Ying Pun,HMA056
Kong Chian Tower,351 Des Voeux Road West,2,182,--,--,--,2,--,https://hk.centanet.com/estate/en/Kong-Chian-Tower/2-SSDYGPSOPE,Hong Kong Island,All Hong Kong Island,Sai Ying Pun,HMA056
Panview Court,162-164 Third Street,1,46,--,--,--,2,--,https://hk.centanet.com/estate/en/Panview-Court/2-SSESGPYJPE,Hong Kong Island,All Hong Kong Island,Sai Ying Pun,HMA056
Cheung Ling Mansion,162-164A Connaught Road West,1,176,--,--,--,2,--,https://hk.centanet.com/estate/en/Cheung-Ling-Mansion/2-SSGEPPSXPE,Hong Kong Island,All Hong Kong Island,Sai Ying Pun,HMA056
Chung Yin Court,17 Hospital Road,1,24,--,--,--,1,--,https://hk.centanet.com/estate/en/Chung-Yin-Court/2-SSGGPPARPA,Hong Kong Island,All Hong Kong Island,Sai Ying Pun,HMA056
Richwealth Mansion,158 Connaught Road West,1,24,--,--,--,1,--,https://hk.centanet.com/estate/en/Richwealth-Mansion/2-SSWPPPSSPE,Hong Kong Island,All Hong Kong Island,Sai Ying Pun,HMA056
Koon Wah Building,420-424 Queen's Road West,1,91,--,--,--,2,--,https://hk.centanet.com/estate/en/Koon-Wah-Building/2-TTLMZHXOHM,Hong Kong Island,All Hong Kong Island,Sai Ying Pun,HMA056
Fung Sing Mansion,133 Third Street,1,80,"$13,095/ ft²",22.81%,1,2,--,https://hk.centanet.com/estate/en/Fung-Sing-Mansion/2-TTNDTHSSHM,Hong Kong Island,All Hong Kong Island,Sai Ying Pun,HMA056
Tung Wai Garden,419G Queen's Road West,1,63,--,--,--,2,--,https://hk.centanet.com/estate/en/Tung-Wai-Garden/2-TTZSIHNOHM,Hong Kong Island,All Hong Kong Island,Sai Ying Pun,HMA056
Fung Yat Building,38-40 Third Street,1,66,--,--,--,1,1,https://hk.centanet.com/estate/en/Fung-Yat-Building/2-OOCDQRFJRU,Hong Kong Island,All Hong Kong Island,Sai Ying Pun,HMA056
Wing Sing Court,178-180 Third Street,1,48,"$10,031/ ft²",17.99%,1,1,1,https://hk.centanet.com/estate/en/Wing-Sing-Court/2-SSPBGPYXPE,Hong Kong Island,All Hong Kong Island,Sai Ying Pun,HMA056
Tak Lee Building,270-280 Queen's Road West,1,84,--,--,--,1,1,https://hk.centanet.com/estate/en/Tak-Lee-Building/2-SSSWPPGHPE,Hong Kong Island,All Hong Kong Island,Sai Ying Pun,HMA056
Wai Tak Building,196-200 Des Voeux Road West,1,47,"$9,582/ ft²",16.63%,1,1,--,https://hk.centanet.com/estate/en/Wai-Tak-Building/2-OODQFROXRU,Hong Kong Island,All Hong Kong Island,Sai Ying Pun,HMA056
Wing Cheung Building,19-29 Western Street,1,90,--,--,--,1,--,https://hk.centanet.com/estate/en/Wing-Cheung-Building/2-OOJCURCORU,Hong Kong Island,All Hong Kong Island,Sai Ying Pun,HMA056
Imperial Terrace,356 Queen's Road West,1,88,--,--,--,1,--,https://hk.centanet.com/estate/en/Imperial-Terrace/2-OORCURDSRU,Hong Kong Island,All Hong Kong Island,Sai Ying Pun,HMA056
High House,19A-19B High Street,1,46,--,--,--,1,--,https://hk.centanet.com/estate/en/High-House/2-OOSQQRQARU,Hong Kong Island,All Hong Kong Island,Sai Ying Pun,HMA056
Ko Chun Court,11 High Street,1,26,--,--,--,--,--,https://hk.centanet.com/estate/en/Ko-Chun-Court/2-OOUOQRQORU,Hong Kong Island,All Hong Kong Island,Sai Ying Pun,HMA056
226-228 Queen's Road West,226-228 Queen's Road West,1,15,--,--,--,--,--,https://hk.centanet.com/estate/en/226-228-Queen-s-Road-West/2-SSAAPPGYPE,Hong Kong Island,All Hong Kong Island,Sai Ying Pun,HMA056
349 Queen's Road West,349 Queen's Road West,1,8,--,--,--,--,--,https://hk.centanet.com/estate/en/349-Queen-s-Road-West/2-SSBEGPBHPE,Hong Kong Island,All Hong Kong Island,Sai Ying Pun,HMA056
Tai Hing Building,119-127 Des Voeux Road West,1,70,--,--,--,1,--,https://hk.centanet.com/estate/en/Tai-Hing-Building/2-SSBKBPGXPB,Hong Kong Island,All Hong Kong Island,Sai Ying Pun,HMA056
Wing Shing Building,355-359 Queen's Road West,1,20,--,--,--,1,--,https://hk.centanet.com/estate/en/Wing-Shing-Building/2-SSBKGPBYPE,Hong Kong Island,All Hong Kong Island,Sai Ying Pun,HMA056
Hing Tai Building,139-140 Connaught Road West,1,36,--,--,--,1,--,https://hk.centanet.com/estate/en/Hing-Tai-Building/2-SSBKWPPXPE,Hong Kong Island,All Hong Kong Island,Sai Ying Pun,HMA056
Wing Wa Mansion,10-12 Hospital Road,1,26,--,--,--,--,--,https://hk.centanet.com/estate/en/Wing-Wa-Mansion/2-SSBWPPASPA,Hong Kong Island,All Hong Kong Island,Sai Ying Pun,HMA056
Ching Tak Building,260-264 Des Voeux Road West,1,89,--,--,--,1,--,https://hk.centanet.com/estate/en/Ching-Tak-Building/2-SSEAWPSOPE,Hong Kong Island,All Hong Kong Island,Sai Ying Pun,HMA056
Merit Court,294 Des Voeux Road West,1,21,--,--,--,--,--,https://hk.centanet.com/estate/en/Merit-Court/2-SSKSPPEHPE,Hong Kong Island,All Hong Kong Island,Sai Ying Pun,HMA056
Cheong Wing Court,1-5 Water Street,1,46,--,--,--,1,--,https://hk.centanet.com/estate/en/Cheong-Wing-Court/2-SSKSPPWOPE,Hong Kong Island,All Hong Kong Island,Sai Ying Pun,HMA056
Cheong King Court,26-38 High Street,1,84,--,--,--,1,--,https://hk.centanet.com/estate/en/Cheong-King-Court/2-SSKWGPASPE,Hong Kong Island,All Hong Kong Island,Sai Ying Pun,HMA056
Elite Court,33 Centre Street,1,46,--,--,--,1,--,https://hk.centanet.com/estate/en/Elite-Court/2-SSPPWWPEWE,Hong Kong Island,All Hong Kong Island,Sai Ying Pun,HMA056
Chun King Court,83 First Street,1,50,--,--,--,1,--,https://hk.centanet.com/estate/en/Chun-King-Court/2-SSPPWWPYWE,Hong Kong Island,All Hong Kong Island,Sai Ying Pun,HMA056
Jade Court,8 High Street,1,48,--,--,--,1,--,https://hk.centanet.com/estate/en/Jade-Court/2-SSWAGPAVPE,Hong Kong Island,All Hong Kong Island,Sai Ying Pun,HMA056
Fung Yip Building,347-349 Des Voeux Road West,1,132,--,--,--,1,--,https://hk.centanet.com/estate/en/Fung-Yip-Building/2-SSWDGPSYPE,Hong Kong Island,All Hong Kong Island,Sai Ying Pun,HMA056
Lai King Court,138 Third Street,1,50,--,--,--,1,--,https://hk.centanet.com/estate/en/Lai-King-Court/2-SSYKBPYXPE,Hong Kong Island,All Hong Kong Island,Sai Ying Pun,HMA056
Charming Court,55-61 First Street,1,42,--,--,--,1,--,https://hk.centanet.com/estate/en/Charming-Court/2-TTHMIHMXHM,Hong Kong Island,All Hong Kong Island,Sai Ying Pun,HMA056
1E High Street,1E High Street,1,8,--,--,--,--,--,https://hk.centanet.com/estate/en/1E-High-Street/2-TTHMTHMAHD,Hong Kong Island,All Hong Kong Island,Sai Ying Pun,HMA056
Lai Yin Court,80-86 High Street,1,50,--,--,--,1,--,https://hk.centanet.com/estate/en/Lai-Yin-Court/2-TTHNIHDAHM,Hong Kong Island,All Hong Kong Island,Sai Ying Pun,HMA056
Johnson Mansion,428-440 Queen's Road West,1,65,--,--,--,1,--,https://hk.centanet.com/estate/en/Johnson-Mansion/2-TTLZZHXSHM,Hong Kong Island,All Hong Kong Island,Sai Ying Pun,HMA056
Siu Cheung Building,1-7 Siu Cheung Fong,1,68,--,--,--,1,--,https://hk.centanet.com/estate/en/Siu-Cheung-Building/2-TTMHIHIOHM,Hong Kong Island,All Hong Kong Island,Sai Ying Pun,HMA056
Yee Shun Mansion,58-66 Second Street,1,66,--,--,--,1,--,https://hk.centanet.com/estate/en/Yee-Shun-Mansion/2-TTMIZHIOHM,Hong Kong Island,All Hong Kong Island,Sai Ying Pun,HMA056
Lai On Building,2-2C Water Street,1,86,--,--,--,1,--,https://hk.centanet.com/estate/en/Lai-On-Building/2-TTSHTHLHHM,Hong Kong Island,All Hong Kong Island,Sai Ying Pun,HMA056
419L-419Q Queen's Road West,419L-419Q Queen's Road West,1,16,--,--,--,--,--,https://hk.centanet.com/estate/en/419L-419Q-Queen-s-Road-West/2-TTSLIHNVHM,Hong Kong Island,All Hong Kong Island,Sai Ying Pun,HMA056
Aspen Court,46 High Street,1,72,--,--,--,1,--,https://hk.centanet.com/estate/en/Aspen-Court/2-TTSMIHDXHM,Hong Kong Island,All Hong Kong Island,Sai Ying Pun,HMA056
Tung Lee Mansion (Building),1-15 On Ning Lane,1,144,--,--,--,1,--,https://hk.centanet.com/estate/en/Tung-Lee-Mansion-Building/2-TTSSIHZOMM,Hong Kong Island,All Hong Kong Island,Sai Ying Pun,HMA056
Bank Building,259-269 Des Voeux Road West,1,100,--,--,--,1,--,https://hk.centanet.com/estate/en/Bank-Building/2-TTSXZHTSHM,Hong Kong Island,All Hong Kong Island,Sai Ying Pun,HMA056
Lap Poon Building,123-124 Connaught Road West,1,20,--,--,--,--,--,https://hk.centanet.com/estate/en/Lap-Poon-Building/2-TTXTTHDJHN,Hong Kong Island,All Hong Kong Island,Sai Ying Pun,HMA056
64 Centre Street,64 Centre Street,1,7,--,--,--,--,--,https://hk.centanet.com/estate/en/64-Centre-Street/2-TTZLZHHVHM,Hong Kong Island,All Hong Kong Island,Sai Ying Pun,HMA056
10-14 Pok Fu Lam Road,10-14 Pok Fu Lam Road,1,10,--,--,--,--,--,https://hk.centanet.com/estate/en/10-14-Pok-Fu-Lam-Road/2-OOVVURVARU,Hong Kong Island,All Hong Kong Island,Sai Ying Pun,HMA056
Liang Ga Building,296-302 Des Voeux Road West,1,104,"$11,708/ ft²",4.13%,1,--,1,https://hk.centanet.com/estate/en/Liang-Ga-Building/2-SSAEPPEVPE,Hong Kong Island,All Hong Kong Island,Sai Ying Pun,HMA056
Comfort Court,52-54 Third Street,1,21,--,--,--,--,1,https://hk.centanet.com/estate/en/Comfort-Court/2-TTMHZHSSHM,Hong Kong Island,All Hong Kong Island,Sai Ying Pun,HMA056
6-10 Western Street,6-10 Western Street,1,15,--,--,--,--,--,https://hk.centanet.com/estate/en/6-10-Western-Street/2-OOCCQRCHRU,Hong Kong Island,All Hong Kong Island,Sai Ying Pun,HMA056
188-190 Queen's Road West,188-190 Queen's Road West,1,11,--,--,--,--,--,https://hk.centanet.com/estate/en/188-190-Queen-s-Road-West/2-OOCDFRDJRQ,Hong Kong Island,All Hong Kong Island,Sai Ying Pun,HMA056
7 Tak Sing Lane,7 Tak Sing Lane,1,2,--,--,--,--,--,https://hk.centanet.com/estate/en/7-Tak-Sing-Lane/2-OOCDFRJHRU,Hong Kong Island,All Hong Kong Island,Sai Ying Pun,HMA056
2B Second Street,2B Second Street,1,5,--,--,--,--,--,https://hk.centanet.com/estate/en/2B-Second-Street/2-OOCDQRJYRU,Hong Kong Island,All Hong Kong Island,Sai Ying Pun,HMA056
5-7 Third Street,5-7 Third Street,1,5,--,--,--,--,--,https://hk.centanet.com/estate/en/5-7-Third-Street/2-OOCFFRJVRU,Hong Kong Island,All Hong Kong Island,Sai Ying Pun,HMA056
4-4A Western Street,4-4A Western Street,1,10,--,--,--,--,--,https://hk.centanet.com/estate/en/4-4A-Western-Street/2-OOCFQRCERU,Hong Kong Island,All Hong Kong Island,Sai Ying Pun,HMA056
225 Des Voeux Road West,225 Des Voeux Road West,1,4,--,--,--,--,--,https://hk.centanet.com/estate/en/225-Des-Voeux-Road-West/2-OOCFQROVRU,Hong Kong Island,All Hong Kong Island,Sai Ying Pun,HMA056
General Building,6-14 Centre Street,1,38,--,--,--,--,--,https://hk.centanet.com/estate/en/General-Building/2-OOCFQRRHRU,Hong Kong Island,All Hong Kong Island,Sai Ying Pun,HMA056
Po Fung Building,1-7 Centre Street,1,44,--,--,--,--,--,https://hk.centanet.com/estate/en/Po-Fung-Building/2-OOCFURRXRU,Hong Kong Island,All Hong Kong Island,Sai Ying Pun,HMA056
1 Third Street,1 Third Street,1,11,--,--,--,--,--,https://hk.centanet.com/estate/en/1-Third-Street/2-OOCJFRJYRU,Hong Kong Island,All Hong Kong Island,Sai Ying Pun,HMA056
42 Third Street,42 Third Street,1,5,--,--,--,--,--,https://hk.centanet.com/estate/en/42-Third-Street/2-OOCJQRFHRU,Hong Kong Island,All Hong Kong Island,Sai Ying Pun,HMA056
4A Second Street,4A Second Street,1,5,--,--,--,--,--,https://hk.centanet.com/estate/en/4A-Second-Street/2-OOCJQRJVRU,Hong Kong Island,All Hong Kong Island,Sai Ying Pun,HMA056
219 Des Voeux Road West,219 Des Voeux Road West,1,4,--,--,--,--,--,https://hk.centanet.com/estate/en/219-Des-Voeux-Road-West/2-OOCJQROYRU,Hong Kong Island,All Hong Kong Island,Sai Ying Pun,HMA056
147-149 Des Voeux Road West,147-149 Des Voeux Road West,1,10,--,--,--,--,--,https://hk.centanet.com/estate/en/147-149-Des-Voeux-Road-West/2-OOCOURJXRV,Hong Kong Island,All Hong Kong Island,Sai Ying Pun,HMA056
Wah Ming Building,2A-2B Eastern Street,1,15,--,--,--,--,--,https://hk.centanet.com/estate/en/Wah-Ming-Building/2-OOCQFRJXRV,Hong Kong Island,All Hong Kong Island,Sai Ying Pun,HMA056
5 Tak Sing Lane,5 Tak Sing Lane,1,2,--,--,--,--,--,https://hk.centanet.com/estate/en/5-Tak-Sing-Lane/2-OOCVFRJERU,Hong Kong Island,All Hong Kong Island,Sai Ying Pun,HMA056
151 Des Voeux Road West,151 Des Voeux Road West,1,8,--,--,--,--,--,https://hk.centanet.com/estate/en/151-Des-Voeux-Road-West/2-OOCVURJXRV,Hong Kong Island,All Hong Kong Island,Sai Ying Pun,HMA056
380 Des Voeux Road West,380 Des Voeux Road West,1,4,--,--,--,--,--,https://hk.centanet.com/estate/en/380-Des-Voeux-Road-West/2-OOCVURUHRU,Hong Kong Island,All Hong Kong Island,Sai Ying Pun,HMA056
Lee Wah Mansion (Building),111-117 Des Voeux Road West,1,57,--,--,--,--,--,https://hk.centanet.com/estate/en/Lee-Wah-Mansion-Building/2-OODCQRDJRV,Hong Kong Island,All Hong Kong Island,Sai Ying Pun,HMA056
35-37 High Street,35-37 High Street,1,11,--,--,--,--,--,https://hk.centanet.com/estate/en/35-37-High-Street/2-OODCQRQRRU,Hong Kong Island,All Hong Kong Island,Sai Ying Pun,HMA056
Fuk Shing Building,220-222 Des Voeux Road West,1,21,--,--,--,--,--,https://hk.centanet.com/estate/en/Fuk-Shing-Building/2-OODDFRORRU,Hong Kong Island,All Hong Kong Island,Sai Ying Pun,HMA056
109 First Street,109 First Street,1,3,--,--,--,--,--,https://hk.centanet.com/estate/en/109-First-Street/2-OODDFRUJRU,Hong Kong Island,All Hong Kong Island,Sai Ying Pun,HMA056
25A High Street,25A High Street,1,11,--,--,--,--,--,https://hk.centanet.com/estate/en/25A-High-Street/2-OODDQRQXRU,Hong Kong Island,All Hong Kong Island,Sai Ying Pun,HMA056
146 Des Voeux Road West,146 Des Voeux Road West,1,4,--,--,--,--,--,https://hk.centanet.com/estate/en/146-Des-Voeux-Road-West/2-OODFFROVRQ,Hong Kong Island,All Hong Kong Island,Sai Ying Pun,HMA056
119 First Street,119 First Street,1,3,--,--,--,--,--,https://hk.centanet.com/estate/en/119-First-Street/2-OODFFRURRU,Hong Kong Island,All Hong Kong Island,Sai Ying Pun,HMA056
191-193 Queen's Road West,191-193 Queen's Road West,1,5,--,--,--,--,--,https://hk.centanet.com/estate/en/191-193-Queen-s-Road-West/2-OODFQRDXRQ,Hong Kong Island,All Hong Kong Island,Sai Ying Pun,HMA056
Tak Ming Lau,6-8 Second Street,1,9,--,--,--,--,--,https://hk.centanet.com/estate/en/Tak-Ming-Lau/2-OODFQRJYRU,Hong Kong Island,All Hong Kong Island,Sai Ying Pun,HMA056
Ko Wang Court,31-33 High Street,1,24,--,--,--,--,--,https://hk.centanet.com/estate/en/Ko-Wang-Court/2-OODFQRQARU,Hong Kong Island,All Hong Kong Island,Sai Ying Pun,HMA056
115 First Street,115 First Street,1,4,--,--,--,--,--,https://hk.centanet.com/estate/en/115-First-Street/2-OODJFRUARU,Hong Kong Island,All Hong Kong Island,Sai Ying Pun,HMA056
27A High Street,27A High Street,1,5,--,--,--,--,--,https://hk.centanet.com/estate/en/27A-High-Street/2-OODJQRQJRU,Hong Kong Island,All Hong Kong Island,Sai Ying Pun,HMA056
21 Tsz Mi Alley,21 Tsz Mi Alley,1,5,--,--,--,--,--,https://hk.centanet.com/estate/en/21-Tsz-Mi-Alley/2-OODJURFARQ,Hong Kong Island,All Hong Kong Island,Sai Ying Pun,HMA056
203-205 Des Voeux Road West,203-205 Des Voeux Road West,1,12,--,--,--,--,--,https://hk.centanet.com/estate/en/203-205-Des-Voeux-Road-West/2-OODQQROJRU,Hong Kong Island,All Hong Kong Island,Sai Ying Pun,HMA056
Hang Fuk Mansion,1-3 Fuk Sau Lane,1,15,--,--,--,--,--,https://hk.centanet.com/estate/en/Hang-Fuk-Mansion/2-OODQURQJRU,Hong Kong Island,All Hong Kong Island,Sai Ying Pun,HMA056
Yu Yee Building,364-366 Queen's Road West,1,15,--,--,--,--,--,https://hk.centanet.com/estate/en/Yu-Yee-Building/2-OODRQRDERU,Hong Kong Island,All Hong Kong Island,Sai Ying Pun,HMA056
21 Centre Street,21 Centre Street,1,4,--,--,--,--,--,https://hk.centanet.com/estate/en/21-Centre-Street/2-OODRQRRXRU,Hong Kong Island,All Hong Kong Island,Sai Ying Pun,HMA056
328 Queen's Road West,328 Queen's Road West,1,5,--,--,--,--,--,https://hk.centanet.com/estate/en/328-Queen-s-Road-West/2-OODRURDVRU,Hong Kong Island,All Hong Kong Island,Sai Ying Pun,HMA056
216 Des Voeux Road West,216 Des Voeux Road West,1,7,--,--,--,--,--,https://hk.centanet.com/estate/en/216-Des-Voeux-Road-West/2-OODVFROARU,Hong Kong Island,All Hong Kong Island,Sai Ying Pun,HMA056
105 First Street,105 First Street,1,3,--,--,--,--,--,https://hk.centanet.com/estate/en/105-First-Street/2-OODVFRUXRU,Hong Kong Island,All Hong Kong Island,Sai Ying Pun,HMA056
Associated House,209 Des Voeux Road West,1,5,--,--,--,--,--,https://hk.centanet.com/estate/en/Associated-House/2-OODVQROYRU,Hong Kong Island,All Hong Kong Island,Sai Ying Pun,HMA056
Kwai Cheong Building,234-242 Des Voeux Road West,1,72,--,--,--,--,--,https://hk.centanet.com/estate/en/Kwai-Cheong-Building/2-OOFCFROORU,Hong Kong Island,All Hong Kong Island,Sai Ying Pun,HMA056
362 Queen's Road West,362 Queen's Road West,1,3,--,--,--,--,--,https://hk.centanet.com/estate/en/362-Queen-s-Road-West/2-OOFCURDYRU,Hong Kong Island,All Hong Kong Island,Sai Ying Pun,HMA056
394-396 Queen's Road West,394-396 Queen's Road West,1,10,--,--,--,--,--,https://hk.centanet.com/estate/en/394-396-Queen-s-Road-West/2-OOFDQRDXRU,Hong Kong Island,All Hong Kong Island,Sai Ying Pun,HMA056
195 Queen's Road West,195 Queen's Road West,1,1,--,--,--,--,--,https://hk.centanet.com/estate/en/195-Queen-s-Road-West/2-OOFFQRDJRQ,Hong Kong Island,All Hong Kong Island,Sai Ying Pun,HMA056
20 Third Street,20 Third Street,1,3,--,--,--,--,--,https://hk.centanet.com/estate/en/20-Third-Street/2-OOFOQRFERU,Hong Kong Island,All Hong Kong Island,Sai Ying Pun,HMA056
125B-127 Second Street,125B-127 Second Street,1,8,--,--,--,--,--,https://hk.centanet.com/estate/en/125B-127-Second-Street/2-OOFOQRJSRU,Hong Kong Island,All Hong Kong Island,Sai Ying Pun,HMA056
125A Second Street,125A Second Street,1,5,--,--,--,--,--,https://hk.centanet.com/estate/en/125A-Second-Street/2-OOFOQRJYRU,Hong Kong Island,All Hong Kong Island,Sai Ying Pun,HMA056
153 Des Voeux Road West,153 Des Voeux Road West,1,8,--,--,--,--,--,https://hk.centanet.com/estate/en/153-Des-Voeux-Road-West/2-OOFOQRJYRV,Hong Kong Island,All Hong Kong Island,Sai Ying Pun,HMA056
1 Tak Sing Lane,1 Tak Sing Lane,1,2,--,--,--,--,--,https://hk.centanet.com/estate/en/1-Tak-Sing-Lane/2-OOFQFRJVRU,Hong Kong Island,All Hong Kong Island,Sai Ying Pun,HMA056
Lucky Building,370-372 Des Voeux Road West,1,32,--,--,--,--,--,https://hk.centanet.com/estate/en/Lucky-Building/2-OOFQURUORU,Hong Kong Island,All Hong Kong Island,Sai Ying Pun,HMA056
3 Tak Sing Lane,3 Tak Sing Lane,1,2,--,--,--,--,--,https://hk.centanet.com/estate/en/3-Tak-Sing-Lane/2-OOFSFRJORU,Hong Kong Island,All Hong Kong Island,Sai Ying Pun,HMA056
Wah Po Building,2-4 Pok Fu Lam Road,1,10,--,--,--,--,--,https://hk.centanet.com/estate/en/Wah-Po-Building/2-OOFSURVJRU,Hong Kong Island,All Hong Kong Island,Sai Ying Pun,HMA056
24 Third Street,24 Third Street,1,3,--,--,--,--,--,https://hk.centanet.com/estate/en/24-Third-Street/2-OOFUQRFHRU,Hong Kong Island,All Hong Kong Island,Sai Ying Pun,HMA056
139 Second Street,139 Second Street,1,5,--,--,--,--,--,https://hk.centanet.com/estate/en/139-Second-Street/2-OOFUQRJVRU,Hong Kong Island,All Hong Kong Island,Sai Ying Pun,HMA056
16-20 Pok Fu Lam Road,16-20 Pok Fu Lam Road,1,24,--,--,--,--,--,https://hk.centanet.com/estate/en/16-20-Pok-Fu-Lam-Road/2-OOFVURVERU,Hong Kong Island,All Hong Kong Island,Sai Ying Pun,HMA056
204-208 Queen's Road West,204-208 Queen's Road West,1,13,--,--,--,--,--,https://hk.centanet.com/estate/en/204-208-Queen-s-Road-West/2-OOJCFRDXRQ,Hong Kong Island,All Hong Kong Island,Sai Ying Pun,HMA056
130 Connaught Road West,130 Connaught Road West,1,5,--,--,--,--,--,https://hk.centanet.com/estate/en/130-Connaught-Road-West/2-OOJCFRRRRU,Hong Kong Island,All Hong Kong Island,Sai Ying Pun,HMA056
Hong Ming Building,227-233 Des Voeux Road West,1,36,--,--,--,--,--,https://hk.centanet.com/estate/en/Hong-Ming-Building/2-OOJCQROHRU,Hong Kong Island,All Hong Kong Island,Sai Ying Pun,HMA056
12 Third Street,12 Third Street,1,5,--,--,--,--,--,https://hk.centanet.com/estate/en/12-Third-Street/2-OOJCURFVRU,Hong Kong Island,All Hong Kong Island,Sai Ying Pun,HMA056
177 Des Voeux Road West,177 Des Voeux Road West,1,4,--,--,--,--,--,https://hk.centanet.com/estate/en/177-Des-Voeux-Road-West/2-OOJDUROYRU,Hong Kong Island,All Hong Kong Island,Sai Ying Pun,HMA056
228 Des Voeux Road West,228 Des Voeux Road West,1,5,--,--,--,--,--,https://hk.centanet.com/estate/en/228-Des-Voeux-Road-West/2-OOJFFROXRU,Hong Kong Island,All Hong Kong Island,Sai Ying Pun,HMA056
Wing Fong Mansion,107-117 Second Street,1,49,--,--,--,--,--,https://hk.centanet.com/estate/en/Wing-Fong-Mansion/2-OOJFURJORU,Hong Kong Island,All Hong Kong Island,Sai Ying Pun,HMA056
Fulfil Building,196-198 Queen's Road West,1,8,--,--,--,--,--,https://hk.centanet.com/estate/en/Fulfil-Building/2-OOJJFRDHRQ,Hong Kong Island,All Hong Kong Island,Sai Ying Pun,HMA056
217 Des Voeux Road West,217 Des Voeux Road West,1,8,--,--,--,--,--,https://hk.centanet.com/estate/en/217-Des-Voeux-Road-West/2-OOJJQROXRU,Hong Kong Island,All Hong Kong Island,Sai Ying Pun,HMA056
16 Third Street,16 Third Street,1,5,--,--,--,--,--,https://hk.centanet.com/estate/en/16-Third-Street/2-OOJRQRFORU,Hong Kong Island,All Hong Kong Island,Sai Ying Pun,HMA056
218 Des Voeux Road West,218 Des Voeux Road West,1,7,--,--,--,--,--,https://hk.centanet.com/estate/en/218-Des-Voeux-Road-West/2-OOODFROYRU,Hong Kong Island,All Hong Kong Island,Sai Ying Pun,HMA056
107 First Street,107 First Street,1,3,--,--,--,--,--,https://hk.centanet.com/estate/en/107-First-Street/2-OOODFRUERU,Hong Kong Island,All Hong Kong Island,Sai Ying Pun,HMA056
Tone Hing Building,211-213 Des Voeux Road West,1,22,--,--,--,--,--,https://hk.centanet.com/estate/en/Tone-Hing-Building/2-OOODQROVRU,Hong Kong Island,All Hong Kong Island,Sai Ying Pun,HMA056
224-226 Des Voeux Road West,224-226 Des Voeux Road West,1,30,--,--,--,--,--,https://hk.centanet.com/estate/en/224-226-Des-Voeux-Road-West/2-OOOFFROORU,Hong Kong Island,All Hong Kong Island,Sai Ying Pun,HMA056
117 First Street,117 First Street,1,3,--,--,--,--,--,https://hk.centanet.com/estate/en/117-First-Street/2-OOOFFRUYRU,Hong Kong Island,All Hong Kong Island,Sai Ying Pun,HMA056
113 First Street,113 First Street,1,4,--,--,--,--,--,https://hk.centanet.com/estate/en/113-First-Street/2-OOOJFRUHRU,Hong Kong Island,All Hong Kong Island,Sai Ying Pun,HMA056
215 Des Voeux Road West,215 Des Voeux Road West,1,8,--,--,--,--,--,https://hk.centanet.com/estate/en/215-Des-Voeux-Road-West/2-OOOJQROORU,Hong Kong Island,All Hong Kong Island,Sai Ying Pun,HMA056
27 High Street,27 High Street,1,5,--,--,--,--,--,https://hk.centanet.com/estate/en/27-High-Street/2-OOOJQRQERU,Hong Kong Island,All Hong Kong Island,Sai Ying Pun,HMA056
28 Sai Woo Lane,28 Sai Woo Lane,1,5,--,--,--,--,--,https://hk.centanet.com/estate/en/28-Sai-Woo-Lane/2-OOOJURJORQ,Hong Kong Island,All Hong Kong Island,Sai Ying Pun,HMA056
Wing Fat Mansion,179-181 Des Voeux Road West,1,16,"$9,182/ ft²",--,1,--,--,https://hk.centanet.com/estate/en/Wing-Fat-Mansion/2-OOOJURORRU,Hong Kong Island,All Hong Kong Island,Sai Ying Pun,HMA056
201 Des Voeux Road West,201 Des Voeux Road West,1,6,--,--,--,--,--,https://hk.centanet.com/estate/en/201-Des-Voeux-Road-West/2-OOOQQROERU,Hong Kong Island,All Hong Kong Island,Sai Ying Pun,HMA056
13-15 Centre Street,13-15 Centre Street,1,10,--,--,--,--,--,https://hk.centanet.com/estate/en/13-15-Centre-Street/2-OOORQRRORU,Hong Kong Island,All Hong Kong Island,Sai Ying Pun,HMA056
326 Queen's Road West,326 Queen's Road West,1,5,--,--,--,--,--,https://hk.centanet.com/estate/en/326-Queen-s-Road-West/2-OOORURDRRU,Hong Kong Island,All Hong Kong Island,Sai Ying Pun,HMA056
207 Des Voeux Road West,207 Des Voeux Road West,1,3,--,--,--,--,--,https://hk.centanet.com/estate/en/207-Des-Voeux-Road-West/2-OOOVQROYRU,Hong Kong Island,All Hong Kong Island,Sai Ying Pun,HMA056
Golden Court,10 Second Street,1,5,--,--,--,--,--,https://hk.centanet.com/estate/en/Golden-Court/2-OOQCQRJHRU,Hong Kong Island,All Hong Kong Island,Sai Ying Pun,HMA056
360 Queen's Road West,360 Queen's Road West,1,3,--,--,--,--,--,https://hk.centanet.com/estate/en/360-Queen-s-Road-West/2-OOQCURDARU,Hong Kong Island,All Hong Kong Island,Sai Ying Pun,HMA056
175 Des Voeux Road West,175 Des Voeux Road West,1,4,--,--,--,--,--,https://hk.centanet.com/estate/en/175-Des-Voeux-Road-West/2-OOQDURORRU,Hong Kong Island,All Hong Kong Island,Sai Ying Pun,HMA056
192-194 Queen's Road West,192-194 Queen's Road West,1,7,--,--,--,--,--,https://hk.centanet.com/estate/en/192-194-Queen-s-Road-West/2-OOQJFRDXRQ,Hong Kong Island,All Hong Kong Island,Sai Ying Pun,HMA056
Po Fung Mansion,128-128A Connaught Road West,1,14,--,--,--,--,--,https://hk.centanet.com/estate/en/Po-Fung-Mansion/2-OOQJURQXRV,Hong Kong Island,All Hong Kong Island,Sai Ying Pun,HMA056
368-370 Queen's Road West,368-370 Queen's Road West,1,10,--,--,--,--,--,https://hk.centanet.com/estate/en/368-370-Queen-s-Road-West/2-OOQOQRDVRU,Hong Kong Island,All Hong Kong Island,Sai Ying Pun,HMA056
18 Third Street,18 Third Street,1,3,--,--,--,--,--,https://hk.centanet.com/estate/en/18-Third-Street/2-OOQOQRFXRU,Hong Kong Island,All Hong Kong Island,Sai Ying Pun,HMA056
119-121B Second Street,119-121B Second Street,1,30,--,--,--,--,--,https://hk.centanet.com/estate/en/119-121B-Second-Street/2-OOQOQRJORU,Hong Kong Island,All Hong Kong Island,Sai Ying Pun,HMA056
114-116 First Street,114-116 First Street,1,10,--,--,--,--,--,https://hk.centanet.com/estate/en/114-116-First-Street/2-OOQOURQXRU,Hong Kong Island,All Hong Kong Island,Sai Ying Pun,HMA056
17-19 Centre Street,17-19 Centre Street,1,8,--,--,--,--,--,https://hk.centanet.com/estate/en/17-19-Centre-Street/2-OOQRQRRORU,Hong Kong Island,All Hong Kong Island,Sai Ying Pun,HMA056
2 Tak Sing Lane,2 Tak Sing Lane,1,2,--,--,--,--,--,https://hk.centanet.com/estate/en/2-Tak-Sing-Lane/2-OOQSFRJSRU,Hong Kong Island,All Hong Kong Island,Sai Ying Pun,HMA056
206-208 Des Voeux Road West,206-208 Des Voeux Road West,1,6,--,--,--,--,--,https://hk.centanet.com/estate/en/206-208-Des-Voeux-Road-West/2-OOQSFROARU,Hong Kong Island,All Hong Kong Island,Sai Ying Pun,HMA056
Fu Wah Building,7-13 Fuk Sau Lane,1,20,--,--,--,--,--,https://hk.centanet.com/estate/en/Fu-Wah-Building/2-OOQSURQRRU,Hong Kong Island,All Hong Kong Island,Sai Ying Pun,HMA056
22 Third Street,22 Third Street,1,3,--,--,--,--,--,https://hk.centanet.com/estate/en/22-Third-Street/2-OOQUQRFJRU,Hong Kong Island,All Hong Kong Island,Sai Ying Pun,HMA056
137 Second Street,137 Second Street,1,5,--,--,--,--,--,https://hk.centanet.com/estate/en/137-Second-Street/2-OOQUQRJRRU,Hong Kong Island,All Hong Kong Island,Sai Ying Pun,HMA056
Yuet Sum Mansion,2-2E Western Street,1,53,--,--,--,--,--,https://hk.centanet.com/estate/en/Yuet-Sum-Mansion/2-OOQVQRCARU,Hong Kong Island,All Hong Kong Island,Sai Ying Pun,HMA056
25 High Street,25 High Street,1,11,--,--,--,--,--,https://hk.centanet.com/estate/en/25-High-Street/2-OORDQRQORU,Hong Kong Island,All Hong Kong Island,Sai Ying Pun,HMA056
185 Des Voeux Road West,185 Des Voeux Road West,1,5,--,--,--,--,--,https://hk.centanet.com/estate/en/185-Des-Voeux-Road-West/2-OORFUROERU,Hong Kong Island,All Hong Kong Island,Sai Ying Pun,HMA056
19 Tsz Mi Alley,19 Tsz Mi Alley,1,5,--,--,--,--,--,https://hk.centanet.com/estate/en/19-Tsz-Mi-Alley/2-OORJURFVRQ,Hong Kong Island,All Hong Kong Island,Sai Ying Pun,HMA056
197-199 Des Voeux Road West,197-199 Des Voeux Road West,1,12,--,--,--,--,--,https://hk.centanet.com/estate/en/197-199-Des-Voeux-Road-West/2-OOROQROVRU,Hong Kong Island,All Hong Kong Island,Sai Ying Pun,HMA056
Mui Fung Apartments,26 Mui Fong Street,1,51,--,--,--,--,--,https://hk.centanet.com/estate/en/Mui-Fung-Apartments/2-OORRFROHRU,Hong Kong Island,All Hong Kong Island,Sai Ying Pun,HMA056
193 Des Voeux Road West,193 Des Voeux Road West,1,8,--,--,--,--,--,https://hk.centanet.com/estate/en/193-Des-Voeux-Road-West/2-OORRQROYRU,Hong Kong Island,All Hong Kong Island,Sai Ying Pun,HMA056
11 Centre Street,11 Centre Street,1,5,--,--,--,--,--,https://hk.centanet.com/estate/en/11-Centre-Street/2-OORRQRRORU,Hong Kong Island,All Hong Kong Island,Sai Ying Pun,HMA056
153 Third Street,153 Third Street,1,4,--,--,--,--,--,https://hk.centanet.com/estate/en/153-Third-Street/2-OORRURFSRU,Hong Kong Island,All Hong Kong Island,Sai Ying Pun,HMA056
99 First Street,99 First Street,1,3,--,--,--,--,--,https://hk.centanet.com/estate/en/99-First-Street/2-OORSFRUVRU,Hong Kong Island,All Hong Kong Island,Sai Ying Pun,HMA056
15 High Street,15 High Street,1,5,--,--,--,--,--,https://hk.centanet.com/estate/en/15-High-Street/2-OORUQRQERU,Hong Kong Island,All Hong Kong Island,Sai Ying Pun,HMA056
103 First Street,103 First Street,1,3,--,--,--,--,--,https://hk.centanet.com/estate/en/103-First-Street/2-OORVFRUORU,Hong Kong Island,All Hong Kong Island,Sai Ying Pun,HMA056
23 High Street,23 High Street,1,11,--,--,--,--,--,https://hk.centanet.com/estate/en/23-High-Street/2-OORVQRQVRU,Hong Kong Island,All Hong Kong Island,Sai Ying Pun,HMA056
152-154 Des Voeux Road West,152-154 Des Voeux Road West,1,8,--,--,--,--,--,https://hk.centanet.com/estate/en/152-154-Des-Voeux-Road-West/2-OOSCFROHRQ,Hong Kong Island,All Hong Kong Island,Sai Ying Pun,HMA056
6 Tak Sing Lane,6 Tak Sing Lane,1,2,--,--,--,--,--,https://hk.centanet.com/estate/en/6-Tak-Sing-Lane/2-OOSDFRJJRU,Hong Kong Island,All Hong Kong Island,Sai Ying Pun,HMA056
Samtoh Building,384-386 Queen's Road West,1,128,--,--,--,--,--,https://hk.centanet.com/estate/en/Samtoh-Building/2-OOSDQRDSRU,Hong Kong Island,All Hong Kong Island,Sai Ying Pun,HMA056
200-202 Queen's Road West,200-202 Queen's Road West,1,10,--,--,--,--,--,https://hk.centanet.com/estate/en/200-202-Queen-s-Road-West/2-OOSFFRDARQ,Hong Kong Island,All Hong Kong Island,Sai Ying Pun,HMA056
Fu Moon Building,398-400 Queen's Road West,1,38,--,--,--,--,--,https://hk.centanet.com/estate/en/Fu-Moon-Building/2-OOSJQRDARU,Hong Kong Island,All Hong Kong Island,Sai Ying Pun,HMA056
4 Second Street,4 Second Street,1,5,--,--,--,--,--,https://hk.centanet.com/estate/en/4-Second-Street/2-OOSJQRJRRU,Hong Kong Island,All Hong Kong Island,Sai Ying Pun,HMA056
Tung Tat Building,390-392 Des Voeux Road West,1,39,--,--,--,--,--,https://hk.centanet.com/estate/en/Tung-Tat-Building/2-OOSJURURRU,Hong Kong Island,All Hong Kong Island,Sai Ying Pun,HMA056
New Start Building,330-336 Queen's Road West,1,40,--,--,--,--,--,https://hk.centanet.com/estate/en/New-Start-Building/2-OOSOURDYRU,Hong Kong Island,All Hong Kong Island,Sai Ying Pun,HMA056
376-378 Queen's Road West,376-378 Queen's Road West,1,10,--,--,--,--,--,https://hk.centanet.com/estate/en/376-378-Queen-s-Road-West/2-OOSQQRDJRU,Hong Kong Island,All Hong Kong Island,Sai Ying Pun,HMA056
380-382 Queen's Road West,380-382 Queen's Road West,1,10,--,--,--,--,--,https://hk.centanet.com/estate/en/380-382-Queen-s-Road-West/2-OOSSQRDARU,Hong Kong Island,All Hong Kong Island,Sai Ying Pun,HMA056
372-374 Queen's Road West,372-374 Queen's Road West,1,10,--,--,--,--,--,https://hk.centanet.com/estate/en/372-374-Queen-s-Road-West/2-OOSUQRDXRU,Hong Kong Island,All Hong Kong Island,Sai Ying Pun,HMA056
4 Tak Sing Lane,4 Tak Sing Lane,1,2,--,--,--,--,--,https://hk.centanet.com/estate/en/4-Tak-Sing-Lane/2-OOSVFRJXRU,Hong Kong Island,All Hong Kong Island,Sai Ying Pun,HMA056
San Hey Lou,32-36 Third Street,1,15,--,--,--,--,--,https://hk.centanet.com/estate/en/San-Hey-Lou/2-OOSVQRFYRU,Hong Kong Island,All Hong Kong Island,Sai Ying Pun,HMA056
230-232 Des Voeux Road West,230-232 Des Voeux Road West,1,16,--,--,--,--,--,https://hk.centanet.com/estate/en/230-232-Des-Voeux-Road-West/2-OOUCFROERU,Hong Kong Island,All Hong Kong Island,Sai Ying Pun,HMA056
129 Connaught Road West,129 Connaught Road West,1,5,--,--,--,--,--,https://hk.centanet.com/estate/en/129-Connaught-Road-West/2-OOUCFRRYRU,Hong Kong Island,All Hong Kong Island,Sai Ying Pun,HMA056
Tat Hing Building,182-186 Queen's Road West,1,15,--,--,--,--,--,https://hk.centanet.com/estate/en/Tat-Hing-Building/2-OOUDFRDORQ,Hong Kong Island,All Hong Kong Island,Sai Ying Pun,HMA056
Tak On Lau,221-223 Des Voeux Road West,1,10,"$6,133/ ft²",0.34%,1,--,--,https://hk.centanet.com/estate/en/Tak-On-Lau/2-OOUFQROERU,Hong Kong Island,All Hong Kong Island,Sai Ying Pun,HMA056
23 Tsz Mi Alley,23 Tsz Mi Alley,1,5,--,--,--,--,--,https://hk.centanet.com/estate/en/23-Tsz-Mi-Alley/2-OOUFURFERQ,Hong Kong Island,All Hong Kong Island,Sai Ying Pun,HMA056
140 Des Voeux Road West,140 Des Voeux Road West,1,3,--,--,--,--,--,https://hk.centanet.com/estate/en/140-Des-Voeux-Road-West/2-OOUJFROARQ,Hong Kong Island,All Hong Kong Island,Sai Ying Pun,HMA056
Tak Yan Building,132-136 Des Voeux Road West,1,30,--,--,--,--,--,https://hk.centanet.com/estate/en/Tak-Yan-Building/2-OOUOFRORRQ,Hong Kong Island,All Hong Kong Island,Sai Ying Pun,HMA056
Orlins Court,419R-419T Queen's Road West,1,40,--,--,--,--,--,https://hk.centanet.com/estate/en/Orlins-Court/2-OOUOFRVHRU,Hong Kong Island,All Hong Kong Island,Sai Ying Pun,HMA056
14 Third Street,14 Third Street,1,5,--,--,--,--,--,https://hk.centanet.com/estate/en/14-Third-Street/2-OOURQRFSRU,Hong Kong Island,All Hong Kong Island,Sai Ying Pun,HMA056
Nam Cheong House,129-135 Second Street,1,25,--,--,--,--,--,https://hk.centanet.com/estate/en/Nam-Cheong-House/2-OOUUQRJYRU,Hong Kong Island,All Hong Kong Island,Sai Ying Pun,HMA056
404 Queen's Road West,404 Queen's Road West,1,4,--,--,--,--,--,https://hk.centanet.com/estate/en/404-Queen-s-Road-West/2-OOVCQRDARU,Hong Kong Island,All Hong Kong Island,Sai Ying Pun,HMA056
191 Des Voeux Road West,191 Des Voeux Road West,1,8,--,--,--,--,--,https://hk.centanet.com/estate/en/191-Des-Voeux-Road-West/2-OOVCUROARU,Hong Kong Island,All Hong Kong Island,Sai Ying Pun,HMA056
9 Centre Street,9 Centre Street,1,5,--,--,--,--,--,https://hk.centanet.com/estate/en/9-Centre-Street/2-OOVCURRSRU,Hong Kong Island,All Hong Kong Island,Sai Ying Pun,HMA056
388-390 Queen's Road West,388-390 Queen's Road West,1,10,--,--,--,--,--,https://hk.centanet.com/estate/en/388-390-Queen-s-Road-West/2-OOVDQRDRRU,Hong Kong Island,All Hong Kong Island,Sai Ying Pun,HMA056
2-2A Second Street,2-2A Second Street,1,8,--,--,--,--,--,https://hk.centanet.com/estate/en/2-2A-Second-Street/2-OOVDQRJYRU,Hong Kong Island,All Hong Kong Island,Sai Ying Pun,HMA056
17 Tsz Mi Alley,17 Tsz Mi Alley,1,5,--,--,--,--,--,https://hk.centanet.com/estate/en/17-Tsz-Mi-Alley/2-OOVDURFXRQ,Hong Kong Island,All Hong Kong Island,Sai Ying Pun,HMA056
402 Queen's Road West,402 Queen's Road West,1,5,--,--,--,--,--,https://hk.centanet.com/estate/en/402-Queen-s-Road-West/2-OOVFQRDJRU,Hong Kong Island,All Hong Kong Island,Sai Ying Pun,HMA056
142 Des Voeux Road West,142 Des Voeux Road West,1,3,--,--,--,--,--,https://hk.centanet.com/estate/en/142-Des-Voeux-Road-West/2-OOVJFROHRQ,Hong Kong Island,All Hong Kong Island,Sai Ying Pun,HMA056
183 Des Voeux Road West,183 Des Voeux Road West,1,5,--,--,--,--,--,https://hk.centanet.com/estate/en/183-Des-Voeux-Road-West/2-OOVJUROXRU,Hong Kong Island,All Hong Kong Island,Sai Ying Pun,HMA056
97 First Street,97 First Street,1,3,--,--,--,--,--,https://hk.centanet.com/estate/en/97-First-Street/2-OOVQFRURRU,Hong Kong Island,All Hong Kong Island,Sai Ying Pun,HMA056
Fortune Court,10-11 Sai On Lane,1,30,--,--,--,--,--,https://hk.centanet.com/estate/en/Fortune-Court/2-OOVRFRDXRU,Hong Kong Island,All Hong Kong Island,Sai Ying Pun,HMA056
155 Third Street,155 Third Street,1,4,--,--,--,--,--,https://hk.centanet.com/estate/en/155-Third-Street/2-OOVRURFORU,Hong Kong Island,All Hong Kong Island,Sai Ying Pun,HMA056
101 First Street,101 First Street,1,3,--,--,--,--,--,https://hk.centanet.com/estate/en/101-First-Street/2-OOVSFRUSRU,Hong Kong Island,All Hong Kong Island,Sai Ying Pun,HMA056
21 High Street,21 High Street,1,9,--,--,--,--,--,https://hk.centanet.com/estate/en/21-High-Street/2-OOVSQRQRRU,Hong Kong Island,All Hong Kong Island,Sai Ying Pun,HMA056
17 High Street,17 High Street,1,5,--,--,--,--,--,https://hk.centanet.com/estate/en/17-High-Street/2-OOVUQRQJRU,Hong Kong Island,All Hong Kong Island,Sai Ying Pun,HMA056
23A High Street,23A High Street,1,11,--,--,--,--,--,https://hk.centanet.com/estate/en/23A-High-Street/2-OOVVQRQSRU,Hong Kong Island,All Hong Kong Island,Sai Ying Pun,HMA056
108 Second Street,108 Second Street,1,5,--,--,--,--,--,https://hk.centanet.com/estate/en/108-Second-Street/2-SSABBPDEPE,Hong Kong Island,All Hong Kong Island,Sai Ying Pun,HMA056
272 Des Voeux Road West,272 Des Voeux Road West,1,5,--,--,--,--,--,https://hk.centanet.com/estate/en/272-Des-Voeux-Road-West/2-SSABWPSHPE,Hong Kong Island,All Hong Kong Island,Sai Ying Pun,HMA056
99C High Street,99C High Street,1,5,--,--,--,--,--,https://hk.centanet.com/estate/en/99C-High-Street/2-SSADBPAOPE,Hong Kong Island,All Hong Kong Island,Sai Ying Pun,HMA056
Sei Li Building,21-24 Chiu Kwong Street,1,16,--,--,--,--,--,https://hk.centanet.com/estate/en/Sei-Li-Building/2-SSADBPPXPE,Hong Kong Island,All Hong Kong Island,Sai Ying Pun,HMA056
224 Queen's Road West,224 Queen's Road West,1,10,--,--,--,--,--,https://hk.centanet.com/estate/en/224-Queen-s-Road-West/2-SSAEWPGYPA,Hong Kong Island,All Hong Kong Island,Sai Ying Pun,HMA056
276-278 Des Voeux Road West,276-278 Des Voeux Road West,1,22,--,--,--,--,--,https://hk.centanet.com/estate/en/276-278-Des-Voeux-Road-West/2-SSAGWPSYPE,Hong Kong Island,All Hong Kong Island,Sai Ying Pun,HMA056
Tai Yik House,27-29 First Street,1,10,--,--,--,--,--,https://hk.centanet.com/estate/en/Tai-Yik-House/2-SSAKGPEYPE,Hong Kong Island,All Hong Kong Island,Sai Ying Pun,HMA056
College View Mansion,11A-11C Hospital Road,1,18,--,--,--,--,--,https://hk.centanet.com/estate/en/College-View-Mansion/2-SSAKPPASPA,Hong Kong Island,All Hong Kong Island,Sai Ying Pun,HMA056
235-237 Queen's Road West,235-237 Queen's Road West,1,9,--,--,--,--,--,https://hk.centanet.com/estate/en/235-237-Queen-s-Road-West/2-SSAPBPGSPA,Hong Kong Island,All Hong Kong Island,Sai Ying Pun,HMA056
Des Voeux W Residence,328 Des Voeux Road West,1,161,--,--,--,--,--,https://hk.centanet.com/estate/en/Des-Voeux-W-Residence/2-SSAPWWPJWE,Hong Kong Island,All Hong Kong Island,Sai Ying Pun,HMA056
345A Queen's Road West,345A Queen's Road West,1,6,--,--,--,--,--,https://hk.centanet.com/estate/en/345A-Queen-s-Road-West/2-SSASGPBRPE,Hong Kong Island,All Hong Kong Island,Sai Ying Pun,HMA056
174 Des Voeux Road West,174 Des Voeux Road West,1,5,--,--,--,--,--,https://hk.centanet.com/estate/en/174-Des-Voeux-Road-West/2-SSASWPSXPA,Hong Kong Island,All Hong Kong Island,Sai Ying Pun,HMA056
47 Water Street,47 Water Street,1,5,--,--,--,--,--,https://hk.centanet.com/estate/en/47-Water-Street/2-SSAWPPWHPE,Hong Kong Island,All Hong Kong Island,Sai Ying Pun,HMA056
43-45 First Street,43-45 First Street,1,10,--,--,--,--,--,https://hk.centanet.com/estate/en/43-45-First-Street/2-SSAYGPESPE,Hong Kong Island,All Hong Kong Island,Sai Ying Pun,HMA056
35 Eastern Street,35 Eastern Street,1,5,--,--,--,--,--,https://hk.centanet.com/estate/en/35-Eastern-Street/2-SSBBBPEEPE,Hong Kong Island,All Hong Kong Island,Sai Ying Pun,HMA056
101 High Street,101 High Street,1,5,--,--,--,--,--,https://hk.centanet.com/estate/en/101-High-Street/2-SSBDBPAEPE,Hong Kong Island,All Hong Kong Island,Sai Ying Pun,HMA056
335 Des Voeux Road West,335 Des Voeux Road West,1,5,--,--,--,--,--,https://hk.centanet.com/estate/en/335-Des-Voeux-Road-West/2-SSBDBPSOPE,Hong Kong Island,All Hong Kong Island,Sai Ying Pun,HMA056
9 Leung I Fong,9 Leung I Fong,1,1,--,--,--,--,--,https://hk.centanet.com/estate/en/9-Leung-I-Fong/2-SSBEGPKVPE,Hong Kong Island,All Hong Kong Island,Sai Ying Pun,HMA056
331 Des Voeux Road West,331 Des Voeux Road West,1,6,--,--,--,--,--,https://hk.centanet.com/estate/en/331-Des-Voeux-Road-West/2-SSBGBPSVPE,Hong Kong Island,All Hong Kong Island,Sai Ying Pun,HMA056
2 Chiu Kwong Street,2 Chiu Kwong Street,1,7,--,--,--,--,--,https://hk.centanet.com/estate/en/2-Chiu-Kwong-Street/2-SSBKBPPVPE,Hong Kong Island,All Hong Kong Island,Sai Ying Pun,HMA056
21 Sai Yuen Lane,21 Sai Yuen Lane,1,5,--,--,--,--,--,https://hk.centanet.com/estate/en/21-Sai-Yuen-Lane/2-SSBPWPGJPE,Hong Kong Island,All Hong Kong Island,Sai Ying Pun,HMA056
105-107 High Street,105-107 High Street,1,10,--,--,--,--,--,https://hk.centanet.com/estate/en/105-107-High-Street/2-SSBYBPAHPE,Hong Kong Island,All Hong Kong Island,Sai Ying Pun,HMA056
Hing Yip Building,5-23 First Street,1,44,--,--,--,--,--,https://hk.centanet.com/estate/en/Hing-Yip-Building/2-SSBYBPEVPE,Hong Kong Island,All Hong Kong Island,Sai Ying Pun,HMA056
Wah Tat Court,152-158 Third Street,1,22,--,--,--,--,--,https://hk.centanet.com/estate/en/Wah-Tat-Court/2-SSBYBPYSPE,Hong Kong Island,All Hong Kong Island,Sai Ying Pun,HMA056
Wai On House,39-43 Water Street,1,26,--,--,--,--,--,https://hk.centanet.com/estate/en/Wai-On-House/2-SSBYPPWSPE,Hong Kong Island,All Hong Kong Island,Sai Ying Pun,HMA056
102-106 Second Street,102-106 Second Street,1,15,--,--,--,--,--,https://hk.centanet.com/estate/en/102-106-Second-Street/2-SSDABPDSPE,Hong Kong Island,All Hong Kong Island,Sai Ying Pun,HMA056
31-33 First Street,31-33 First Street,1,10,"$9,868/ ft²",46.91%,1,--,--,https://hk.centanet.com/estate/en/31-33-First-Street/2-SSDBGPEEPE,Hong Kong Island,All Hong Kong Island,Sai Ying Pun,HMA056
20 High Street,20 High Street,1,3,--,--,--,--,--,https://hk.centanet.com/estate/en/20-High-Street/2-SSDDGPAEPE,Hong Kong Island,All Hong Kong Island,Sai Ying Pun,HMA056
39-41 First Street,39-41 First Street,1,10,--,--,--,--,--,https://hk.centanet.com/estate/en/39-41-First-Street/2-SSDDGPEYPE,Hong Kong Island,All Hong Kong Island,Sai Ying Pun,HMA056
98 Second Street,98 Second Street,1,5,--,--,--,--,--,https://hk.centanet.com/estate/en/98-Second-Street/2-SSDEBPDRPE,Hong Kong Island,All Hong Kong Island,Sai Ying Pun,HMA056
19-21 Eastern Street,19-21 Eastern Street,1,18,--,--,--,--,--,https://hk.centanet.com/estate/en/19-21-Eastern-Street/2-SSDEBPEXPE,Hong Kong Island,All Hong Kong Island,Sai Ying Pun,HMA056
On Lok House,35-37 First Street,1,10,--,--,--,--,--,https://hk.centanet.com/estate/en/On-Lok-House/2-SSDGGPEHPE,Hong Kong Island,All Hong Kong Island,Sai Ying Pun,HMA056
6-8 Eastern Street,6-8 Eastern Street,1,10,--,--,--,--,--,https://hk.centanet.com/estate/en/6-8-Eastern-Street/2-SSDSWPSJPA,Hong Kong Island,All Hong Kong Island,Sai Ying Pun,HMA056
1A High Street,1A High Street,1,9,--,--,--,--,--,https://hk.centanet.com/estate/en/1A-High-Street/2-SSDWPPERPA,Hong Kong Island,All Hong Kong Island,Sai Ying Pun,HMA056
24 High Street,24 High Street,1,3,--,--,--,--,--,https://hk.centanet.com/estate/en/24-High-Street/2-SSDYGPAHPE,Hong Kong Island,All Hong Kong Island,Sai Ying Pun,HMA056
Fook On Building,192 Third Street,1,10,--,--,--,--,--,https://hk.centanet.com/estate/en/Fook-On-Building/2-SSDYGPYSPE,Hong Kong Island,All Hong Kong Island,Sai Ying Pun,HMA056
246 Queen's Road West,246 Queen's Road West,1,10,--,--,--,--,--,https://hk.centanet.com/estate/en/246-Queen-s-Road-West/2-SSEBPPGRPE,Hong Kong Island,All Hong Kong Island,Sai Ying Pun,HMA056
96 Second Street,96 Second Street,1,5,--,--,--,--,--,https://hk.centanet.com/estate/en/96-Second-Street/2-SSEEBPDYPE,Hong Kong Island,All Hong Kong Island,Sai Ying Pun,HMA056
15 Pok Fu Lam Road,15 Pok Fu Lam Road,1,5,--,--,--,--,--,https://hk.centanet.com/estate/en/15-Pok-Fu-Lam-Road/2-SSEGPPBRPE,Hong Kong Island,All Hong Kong Island,Sai Ying Pun,HMA056
309 Queen's Road West,309 Queen's Road West,1,5,--,--,--,--,--,https://hk.centanet.com/estate/en/309-Queen-s-Road-West/2-SSEPBPBXPE,Hong Kong Island,All Hong Kong Island,Sai Ying Pun,HMA056
Wai Yuen Mansion,341-343 Queen's Road West,1,31,--,--,--,--,--,https://hk.centanet.com/estate/en/Wai-Yuen-Mansion/2-SSEPGPBOPE,Hong Kong Island,All Hong Kong Island,Sai Ying Pun,HMA056
No. 30 Eastern Street,30 Eastern Street,1,5,--,--,--,--,--,https://hk.centanet.com/estate/en/No-30-Eastern-Street/2-SSEPWWPVWE,Hong Kong Island,All Hong Kong Island,Sai Ying Pun,HMA056
Hing Wah House,69-73 Third Street,1,15,--,--,--,--,--,https://hk.centanet.com/estate/en/Hing-Wah-House/2-SSESPPYEPE,Hong Kong Island,All Hong Kong Island,Sai Ying Pun,HMA056
Shun Tai Building,129 First Street,1,66,--,--,--,--,--,https://hk.centanet.com/estate/en/Shun-Tai-Building/2-SSESWPEYPE,Hong Kong Island,All Hong Kong Island,Sai Ying Pun,HMA056
25 Sai Yuen Lane,25 Sai Yuen Lane,1,5,--,--,--,--,--,https://hk.centanet.com/estate/en/25-Sai-Yuen-Lane/2-SSESWPGJPE,Hong Kong Island,All Hong Kong Island,Sai Ying Pun,HMA056
The First Building,47-53 First Street,1,20,--,--,--,--,--,https://hk.centanet.com/estate/en/The-First-Building/2-SSEWGPESPE,Hong Kong Island,All Hong Kong Island,Sai Ying Pun,HMA056
Mier,8 Hospital Road,1,48,--,--,--,--,--,https://hk.centanet.com/estate/en/Mier/2-SSEWPPAJPA,Hong Kong Island,All Hong Kong Island,Sai Ying Pun,HMA056
286 Des Voeux Road West,286 Des Voeux Road West,1,5,--,--,--,--,--,https://hk.centanet.com/estate/en/286-Des-Voeux-Road-West/2-SSEWWPSAPE,Hong Kong Island,All Hong Kong Island,Sai Ying Pun,HMA056
22 High Street,22 High Street,1,3,--,--,--,--,--,https://hk.centanet.com/estate/en/22-High-Street/2-SSEYGPAJPE,Hong Kong Island,All Hong Kong Island,Sai Ying Pun,HMA056
25 First Street,25 First Street,1,3,--,--,--,--,--,https://hk.centanet.com/estate/en/25-First-Street/2-SSGAGPEVPE,Hong Kong Island,All Hong Kong Island,Sai Ying Pun,HMA056
Viking Court,165-166 Connaught Road West,1,149,--,--,--,--,--,https://hk.centanet.com/estate/en/Viking-Court/2-SSGAPPSXPE,Hong Kong Island,All Hong Kong Island,Sai Ying Pun,HMA056
18 Sai Yuen Lane,18 Sai Yuen Lane,1,6,--,--,--,--,--,https://hk.centanet.com/estate/en/18-Sai-Yuen-Lane/2-SSGBWPGAPE,Hong Kong Island,All Hong Kong Island,Sai Ying Pun,HMA056
369 Queen's Road West,369 Queen's Road West,1,5,--,--,--,--,--,https://hk.centanet.com/estate/en/369-Queen-s-Road-West/2-SSGDGPBHPE,Hong Kong Island,All Hong Kong Island,Sai Ying Pun,HMA056
16-18 High Street,16-18 High Street,1,10,--,--,--,--,--,https://hk.centanet.com/estate/en/16-18-High-Street/2-SSGGGPAOPE,Hong Kong Island,All Hong Kong Island,Sai Ying Pun,HMA056
Zion Court,95A-95B High Street,1,10,--,--,--,--,--,https://hk.centanet.com/estate/en/Zion-Court/2-SSGKBPAXPE,Hong Kong Island,All Hong Kong Island,Sai Ying Pun,HMA056
2-4 Eastern Street,2-4 Eastern Street,1,10,--,--,--,--,--,https://hk.centanet.com/estate/en/2-4-Eastern-Street/2-SSGSWPSJPA,Hong Kong Island,All Hong Kong Island,Sai Ying Pun,HMA056
339 Des Voeux Road West,339 Des Voeux Road West,1,5,--,--,--,--,--,https://hk.centanet.com/estate/en/339-Des-Voeux-Road-West/2-SSGWBPSHPE,Hong Kong Island,All Hong Kong Island,Sai Ying Pun,HMA056
65 Third Street,65 Third Street,1,5,--,--,--,--,--,https://hk.centanet.com/estate/en/65-Third-Street/2-SSGWWPDSPE,Hong Kong Island,All Hong Kong Island,Sai Ying Pun,HMA056
91 High Street,91 High Street,1,3,--,--,--,--,--,https://hk.centanet.com/estate/en/91-High-Street/2-SSKABPAHPE,Hong Kong Island,All Hong Kong Island,Sai Ying Pun,HMA056
23 Eastern Street,23 Eastern Street,1,5,--,--,--,--,--,https://hk.centanet.com/estate/en/23-Eastern-Street/2-SSKABPEVPE,Hong Kong Island,All Hong Kong Island,Sai Ying Pun,HMA056
19 Pok Fu Lam Road,19 Pok Fu Lam Road,1,3,--,--,--,--,--,https://hk.centanet.com/estate/en/19-Pok-Fu-Lam-Road/2-SSKDPPBYPE,Hong Kong Island,All Hong Kong Island,Sai Ying Pun,HMA056
260-262 Queen's Road West,260-262 Queen's Road West,1,10,"$15,600/ ft²",836.94%,1,--,--,https://hk.centanet.com/estate/en/260-262-Queen-s-Road-West/2-SSKDPPGVPE,Hong Kong Island,All Hong Kong Island,Sai Ying Pun,HMA056
21-25 Third Street,21-25 Third Street,1,10,--,--,--,--,--,https://hk.centanet.com/estate/en/21-25-Third-Street/2-SSKEWPDHPE,Hong Kong Island,All Hong Kong Island,Sai Ying Pun,HMA056
17 Pok Fu Lam Road,17 Pok Fu Lam Road,1,4,--,--,--,--,--,https://hk.centanet.com/estate/en/17-Pok-Fu-Lam-Road/2-SSKGPPBHPE,Hong Kong Island,All Hong Kong Island,Sai Ying Pun,HMA056
95 High Street,95 High Street,1,4,--,--,--,--,--,https://hk.centanet.com/estate/en/95-High-Street/2-SSKKBPAYPE,Hong Kong Island,All Hong Kong Island,Sai Ying Pun,HMA056
27 Eastern Street,27 Eastern Street,1,5,--,--,--,--,--,https://hk.centanet.com/estate/en/27-Eastern-Street/2-SSKKBPEOPE,Hong Kong Island,All Hong Kong Island,Sai Ying Pun,HMA056
Highlight House,75-79 High Street,1,15,--,--,--,--,--,https://hk.centanet.com/estate/en/Highlight-House/2-SSKPBPAXPE,Hong Kong Island,All Hong Kong Island,Sai Ying Pun,HMA056
5-7 Leung I Fong,5-7 Leung I Fong,1,7,--,--,--,--,--,https://hk.centanet.com/estate/en/5-7-Leung-I-Fong/2-SSKSGPKJPE,Hong Kong Island,All Hong Kong Island,Sai Ying Pun,HMA056
220 Queen's Road West,220 Queen's Road West,1,5,--,--,--,--,--,https://hk.centanet.com/estate/en/220-Queen-s-Road-West/2-SSKSWPGOPA,Hong Kong Island,All Hong Kong Island,Sai Ying Pun,HMA056
Tang Wong Court,63 Third Street,1,5,--,--,--,--,--,https://hk.centanet.com/estate/en/Tang-Wong-Court/2-SSKWWPDOPE,Hong Kong Island,All Hong Kong Island,Sai Ying Pun,HMA056
288 Des Voeux Road West,288 Des Voeux Road West,1,5,--,--,--,--,--,https://hk.centanet.com/estate/en/288-Des-Voeux-Road-West/2-SSKWWPSEPE,Hong Kong Island,All Hong Kong Island,Sai Ying Pun,HMA056
168-172 Third Street,168-172 Third Street,1,15,--,--,--,--,--,https://hk.centanet.com/estate/en/168-172-Third-Street/2-SSPAGPYAPE,Hong Kong Island,All Hong Kong Island,Sai Ying Pun,HMA056
29 Eastern Street,29 Eastern Street,1,5,--,--,--,--,--,https://hk.centanet.com/estate/en/29-Eastern-Street/2-SSPBBPEXPE,Hong Kong Island,All Hong Kong Island,Sai Ying Pun,HMA056
Siu Cheung Building,3-4 Chiu Kwong Street,1,20,--,--,--,--,--,https://hk.centanet.com/estate/en/Siu-Cheung-Building/2-SSPBBPPSPE,Hong Kong Island,All Hong Kong Island,Sai Ying Pun,HMA056
Wing Wah Building,29-33 Third Street,1,30,--,--,--,--,--,https://hk.centanet.com/estate/en/Wing-Wah-Building/2-SSPBWPDAPE,Hong Kong Island,All Hong Kong Island,Sai Ying Pun,HMA056
333 Des Voeux Road West,333 Des Voeux Road West,1,5,--,--,--,--,--,https://hk.centanet.com/estate/en/333-Des-Voeux-Road-West/2-SSPDBPSSPE,Hong Kong Island,All Hong Kong Island,Sai Ying Pun,HMA056
Piu Chun Building,316-320 Des Voeux Road West,1,27,--,--,--,--,--,https://hk.centanet.com/estate/en/Piu-Chun-Building/2-SSPDPPERPE,Hong Kong Island,All Hong Kong Island,Sai Ying Pun,HMA056
347 Queen's Road West,347 Queen's Road West,1,8,--,--,--,--,--,https://hk.centanet.com/estate/en/347-Queen-s-Road-West/2-SSPEGPBJPE,Hong Kong Island,All Hong Kong Island,Sai Ying Pun,HMA056
36 Eastern Street,36 Eastern Street,1,3,--,--,--,--,--,https://hk.centanet.com/estate/en/36-Eastern-Street/2-SSPEWPSOPA,Hong Kong Island,All Hong Kong Island,Sai Ying Pun,HMA056
37 Eastern Street,37 Eastern Street,1,5,--,--,--,--,--,https://hk.centanet.com/estate/en/37-Eastern-Street/2-SSPGBPEJPE,Hong Kong Island,All Hong Kong Island,Sai Ying Pun,HMA056
Yue Tak House,7-11 Pok Fu Lam Road,1,15,--,--,--,--,--,https://hk.centanet.com/estate/en/Yue-Tak-House/2-SSPGPPBJPE,Hong Kong Island,All Hong Kong Island,Sai Ying Pun,HMA056
13 Pok Fu Lam Road,13 Pok Fu Lam Road,1,5,--,--,--,--,--,https://hk.centanet.com/estate/en/13-Pok-Fu-Lam-Road/2-SSPGPPBOPE,Hong Kong Island,All Hong Kong Island,Sai Ying Pun,HMA056
Chiu Kwong Mansion,1 Chiu Kwong Street,1,16,--,--,--,--,--,https://hk.centanet.com/estate/en/Chiu-Kwong-Mansion/2-SSPKBPPRPE,Hong Kong Island,All Hong Kong Island,Sai Ying Pun,HMA056
Ovolo,111 High Street,1,22,--,--,--,--,--,https://hk.centanet.com/estate/en/Ovolo/2-SSPPGPARPE,Hong Kong Island,All Hong Kong Island,Sai Ying Pun,HMA056
Topworth Court,9-11 Third Street,1,10,--,--,--,--,--,https://hk.centanet.com/estate/en/Topworth-Court/2-SSPPWPDSPE,Hong Kong Island,All Hong Kong Island,Sai Ying Pun,HMA056
Louis Heights,419E Queen's Road West,1,48,--,--,--,--,--,https://hk.centanet.com/estate/en/Louis-Heights/2-SSPPWWPHWE,Hong Kong Island,All Hong Kong Island,Sai Ying Pun,HMA056
2B-2C High Street,2B-2C High Street,1,10,--,--,--,--,--,https://hk.centanet.com/estate/en/2B-2C-High-Street/2-SSPSGPASPE,Hong Kong Island,All Hong Kong Island,Sai Ying Pun,HMA056
23 Sai Yuen Lane,23 Sai Yuen Lane,1,4,--,--,--,--,--,https://hk.centanet.com/estate/en/23-Sai-Yuen-Lane/2-SSPSWPGYPE,Hong Kong Island,All Hong Kong Island,Sai Ying Pun,HMA056
Yen Fook Building (Mansion),120-126 Second Street,1,59,--,--,--,--,--,https://hk.centanet.com/estate/en/Yen-Fook-Building-Mansion/2-SSPWBPDYPE,Hong Kong Island,All Hong Kong Island,Sai Ying Pun,HMA056
284 Des Voeux Road West,284 Des Voeux Road West,1,5,--,--,--,--,--,https://hk.centanet.com/estate/en/284-Des-Voeux-Road-West/2-SSPWWPSVPE,Hong Kong Island,All Hong Kong Island,Sai Ying Pun,HMA056
103 High Street,103 High Street,1,5,--,--,--,--,--,https://hk.centanet.com/estate/en/103-High-Street/2-SSPYBPAJPE,Hong Kong Island,All Hong Kong Island,Sai Ying Pun,HMA056
Yuen Fai Court,6-10 Sai Yuen Lane,1,56,--,--,--,--,--,https://hk.centanet.com/estate/en/Yuen-Fai-Court/2-SSSAWPGJPE,Hong Kong Island,All Hong Kong Island,Sai Ying Pun,HMA056
31 Eastern Street,31 Eastern Street,1,5,--,--,--,--,--,https://hk.centanet.com/estate/en/31-Eastern-Street/2-SSSBBPEVPE,Hong Kong Island,All Hong Kong Island,Sai Ying Pun,HMA056
16 Sai Yuen Lane,16 Sai Yuen Lane,1,1,--,--,--,--,--,https://hk.centanet.com/estate/en/16-Sai-Yuen-Lane/2-SSSBWPGHPE,Hong Kong Island,All Hong Kong Island,Sai Ying Pun,HMA056
99A-99B High Street,99A-99B High Street,1,10,--,--,--,--,--,https://hk.centanet.com/estate/en/99A-99B-High-Street/2-SSSDBPAVPE,Hong Kong Island,All Hong Kong Island,Sai Ying Pun,HMA056
367 Queen's Road West,367 Queen's Road West,1,5,--,--,--,--,--,https://hk.centanet.com/estate/en/367-Queen-s-Road-West/2-SSSDGPBJPE,Hong Kong Island,All Hong Kong Island,Sai Ying Pun,HMA056
256-258 Queen's Road West,256-258 Queen's Road West,1,10,"$3,175/ ft²",78.32%,1,--,--,https://hk.centanet.com/estate/en/256-258-Queen-s-Road-West/2-SSSDPPGJPE,Hong Kong Island,All Hong Kong Island,Sai Ying Pun,HMA056
Rockson Mansion,25-35 Water Street,1,44,--,--,--,--,--,https://hk.centanet.com/estate/en/Rockson-Mansion/2-SSSDPPWVPE,Hong Kong Island,All Hong Kong Island,Sai Ying Pun,HMA056
Hing Fat Mansion,24-26 Sai Yuen Lane,1,6,--,--,--,--,--,https://hk.centanet.com/estate/en/Hing-Fat-Mansion/2-SSSDWPGVPE,Hong Kong Island,All Hong Kong Island,Sai Ying Pun,HMA056
81-85 High Street,81-85 High Street,1,15,--,--,--,--,--,https://hk.centanet.com/estate/en/81-85-High-Street/2-SSSEBPAAPE,Hong Kong Island,All Hong Kong Island,Sai Ying Pun,HMA056
4-6A High Street,4-6A High Street,1,20,--,--,--,--,--,https://hk.centanet.com/estate/en/4-6A-High-Street/2-SSSEGPAXPE,Hong Kong Island,All Hong Kong Island,Sai Ying Pun,HMA056
35-39 Third Street,35-39 Third Street,1,15,--,--,--,--,--,https://hk.centanet.com/estate/en/35-39-Third-Street/2-SSSGWPDEPE,Hong Kong Island,All Hong Kong Island,Sai Ying Pun,HMA056
20-22 Sai Yuen Lane,20-22 Sai Yuen Lane,1,10,--,--,--,--,--,https://hk.centanet.com/estate/en/20-22-Sai-Yuen-Lane/2-SSSGWPGYPE,Hong Kong Island,All Hong Kong Island,Sai Ying Pun,HMA056
238-240 Queen's Road West,238-240 Queen's Road West,1,10,--,--,--,--,--,https://hk.centanet.com/estate/en/238-240-Queen-s-Road-West/2-SSSKPPGYPE,Hong Kong Island,All Hong Kong Island,Sai Ying Pun,HMA056
12-14 Sai Yuen Lane,12-14 Sai Yuen Lane,1,10,--,--,--,--,--,https://hk.centanet.com/estate/en/12-14-Sai-Yuen-Lane/2-SSSKWPGEPE,Hong Kong Island,All Hong Kong Island,Sai Ying Pun,HMA056
307 Queen's Road West,307 Queen's Road West,1,5,--,--,--,--,--,https://hk.centanet.com/estate/en/307-Queen-s-Road-West/2-SSSPBPBJPE,Hong Kong Island,All Hong Kong Island,Sai Ying Pun,HMA056
341 Des Voeux Road West,341 Des Voeux Road West,1,6,--,--,--,--,--,https://hk.centanet.com/estate/en/341-Des-Voeux-Road-West/2-SSSPGPSAPE,Hong Kong Island,All Hong Kong Island,Sai Ying Pun,HMA056
High Park 99,99 High Street,1,25,--,--,--,--,--,https://hk.centanet.com/estate/en/High-Park-99/2-SSSPWWPVWE,Hong Kong Island,All Hong Kong Island,Sai Ying Pun,HMA056
345 Queen's Road West,345 Queen's Road West,1,7,--,--,--,--,--,https://hk.centanet.com/estate/en/345-Queen-s-Road-West/2-SSSSGPBJPE,Hong Kong Island,All Hong Kong Island,Sai Ying Pun,HMA056
1-3 Leung I Fong,1-3 Leung I Fong,1,6,--,--,--,--,--,https://hk.centanet.com/estate/en/1-3-Leung-I-Fong/2-SSSSGPKXPE,Hong Kong Island,All Hong Kong Island,Sai Ying Pun,HMA056
Western House,164-170 Des Voeux Road West,1,51,--,--,--,--,--,https://hk.centanet.com/estate/en/Western-House/2-SSSSWPSXPA,Hong Kong Island,All Hong Kong Island,Sai Ying Pun,HMA056
Rockson Mansion,371-379 Queen's Road West,1,51,--,--,--,--,--,https://hk.centanet.com/estate/en/Rockson-Mansion/2-SSSWGPBRPE,Hong Kong Island,All Hong Kong Island,Sai Ying Pun,HMA056
337 Des Voeux Road West,337 Des Voeux Road West,1,6,--,--,--,--,--,https://hk.centanet.com/estate/en/337-Des-Voeux-Road-West/2-SSSYBPSXPE,Hong Kong Island,All Hong Kong Island,Sai Ying Pun,HMA056
264-268 Queen's Road West,264-268 Queen's Road West,1,15,--,--,--,--,--,https://hk.centanet.com/estate/en/264-268-Queen-s-Road-West/2-SSSYPPGVPE,Hong Kong Island,All Hong Kong Island,Sai Ying Pun,HMA056
93 High Street,93 High Street,1,3,--,--,--,--,--,https://hk.centanet.com/estate/en/93-High-Street/2-SSWABPAAPE,Hong Kong Island,All Hong Kong Island,Sai Ying Pun,HMA056
25 Eastern Street,25 Eastern Street,1,5,--,--,--,--,--,https://hk.centanet.com/estate/en/25-Eastern-Street/2-SSWABPESPE,Hong Kong Island,All Hong Kong Island,Sai Ying Pun,HMA056
3-5 Pok Fu Lam Road,3-5 Pok Fu Lam Road,1,5,--,--,--,--,--,https://hk.centanet.com/estate/en/3-5-Pok-Fu-Lam-Road/2-SSWBPPBYPE,Hong Kong Island,All Hong Kong Island,Sai Ying Pun,HMA056
Yau Yu House,21-23 Pok Fu Lam Road,1,8,--,--,--,--,--,https://hk.centanet.com/estate/en/Yau-Yu-House/2-SSWDPPBRPE,Hong Kong Island,All Hong Kong Island,Sai Ying Pun,HMA056
89 High Street,89 High Street,1,3,--,--,--,--,--,https://hk.centanet.com/estate/en/89-High-Street/2-SSWEBPAJPE,Hong Kong Island,All Hong Kong Island,Sai Ying Pun,HMA056
Kam Shek House,38-42 Eastern Street,1,10,--,--,--,--,--,https://hk.centanet.com/estate/en/Kam-Shek-House/2-SSWEWPSOPA,Hong Kong Island,All Hong Kong Island,Sai Ying Pun,HMA056
Lee On Mansion,7-13 Lai On Lane,1,16,--,--,--,--,--,https://hk.centanet.com/estate/en/Lee-On-Mansion/2-SSWKBPKJPE,Hong Kong Island,All Hong Kong Island,Sai Ying Pun,HMA056
Ming Hing Building,268-270 Des Voeux Road West,1,22,--,--,--,--,--,https://hk.centanet.com/estate/en/Ming-Hing-Building/2-SSWKWPSOPE,Hong Kong Island,All Hong Kong Island,Sai Ying Pun,HMA056
15 Eastern Street,15 Eastern Street,1,4,--,--,--,--,--,https://hk.centanet.com/estate/en/15-Eastern-Street/2-SSWSBPEAPE,Hong Kong Island,All Hong Kong Island,Sai Ying Pun,HMA056
Hong Yue Court,9 Water Street,1,20,--,--,--,--,--,https://hk.centanet.com/estate/en/Hong-Yue-Court/2-SSWSPPWAPE,Hong Kong Island,All Hong Kong Island,Sai Ying Pun,HMA056
22-24 Eastern Street,22-24 Eastern Street,1,8,--,--,--,--,--,https://hk.centanet.com/estate/en/22-24-Eastern-Street/2-SSWSWPSAPA,Hong Kong Island,All Hong Kong Island,Sai Ying Pun,HMA056
26-28 Eastern Street,26-28 Eastern Street,1,8,--,--,--,--,--,https://hk.centanet.com/estate/en/26-28-Eastern-Street/2-SSWSWPSSPA,Hong Kong Island,All Hong Kong Island,Sai Ying Pun,HMA056
18-20 Eastern Street,18-20 Eastern Street,1,8,--,--,--,--,--,https://hk.centanet.com/estate/en/18-20-Eastern-Street/2-SSWSWPSXPA,Hong Kong Island,All Hong Kong Island,Sai Ying Pun,HMA056
290 Des Voeux Road West,290 Des Voeux Road West,1,5,--,--,--,--,--,https://hk.centanet.com/estate/en/290-Des-Voeux-Road-West/2-SSWWWPSJPE,Hong Kong Island,All Hong Kong Island,Sai Ying Pun,HMA056
25 Pok Fu Lam Road,25 Pok Fu Lam Road,1,5,--,--,--,--,--,https://hk.centanet.com/estate/en/25-Pok-Fu-Lam-Road/2-SSWYPPBSPE,Hong Kong Island,All Hong Kong Island,Sai Ying Pun,HMA056
282 Des Voeux Road West,282 Des Voeux Road West,1,5,--,--,--,--,--,https://hk.centanet.com/estate/en/282-Des-Voeux-Road-West/2-SSWYWPSXPE,Hong Kong Island,All Hong Kong Island,Sai Ying Pun,HMA056
Andes Plaza,311-325 Queen's Road West,1,70,--,--,--,--,--,https://hk.centanet.com/estate/en/Andes-Plaza/2-SSYABPBAPE,Hong Kong Island,All Hong Kong Island,Sai Ying Pun,HMA056
Good Times Building,230-236 Queen's Road West,1,46,--,--,--,--,--,https://hk.centanet.com/estate/en/Good-Times-Building/2-SSYAPPGYPE,Hong Kong Island,All Hong Kong Island,Sai Ying Pun,HMA056
248-254 Queen's Road West,248-254 Queen's Road West,1,15,--,--,--,--,--,https://hk.centanet.com/estate/en/248-254-Queen-s-Road-West/2-SSYBPPGOPE,Hong Kong Island,All Hong Kong Island,Sai Ying Pun,HMA056
274 Des Voeux Road West,274 Des Voeux Road West,1,5,--,--,--,--,--,https://hk.centanet.com/estate/en/274-Des-Voeux-Road-West/2-SSYBWPSAPE,Hong Kong Island,All Hong Kong Island,Sai Ying Pun,HMA056
242-244 Queen's Road West,242-244 Queen's Road West,1,15,--,--,--,--,--,https://hk.centanet.com/estate/en/242-244-Queen-s-Road-West/2-SSYKPPGOPE,Hong Kong Island,All Hong Kong Island,Sai Ying Pun,HMA056
117 High Street,117 High Street,1,4,--,--,--,--,--,https://hk.centanet.com/estate/en/117-High-Street/2-SSYPGPAJPE,Hong Kong Island,All Hong Kong Island,Sai Ying Pun,HMA056
160 Third Street,160 Third Street,1,3,--,--,--,--,--,https://hk.centanet.com/estate/en/160-Third-Street/2-SSYPGPYSPE,Hong Kong Island,All Hong Kong Island,Sai Ying Pun,HMA056
Lee Wang Building,133-134 Connaught Road West,1,28,--,--,--,--,--,https://hk.centanet.com/estate/en/Lee-Wang-Building/2-SSYSWPPXPE,Hong Kong Island,All Hong Kong Island,Sai Ying Pun,HMA056
14-16 Eastern Street,14-16 Eastern Street,1,9,--,--,--,--,--,https://hk.centanet.com/estate/en/14-16-Eastern-Street/2-SSYSWPSAPA,Hong Kong Island,All Hong Kong Island,Sai Ying Pun,HMA056
10-12 Eastern Street,10-12 Eastern Street,1,6,--,--,--,--,--,https://hk.centanet.com/estate/en/10-12-Eastern-Street/2-SSYSWPSXPA,Hong Kong Island,All Hong Kong Island,Sai Ying Pun,HMA056
45 Water Street,45 Water Street,1,5,--,--,--,--,--,https://hk.centanet.com/estate/en/45-Water-Street/2-SSYYPPWJPE,Hong Kong Island,All Hong Kong Island,Sai Ying Pun,HMA056
1B High Street,1B High Street,1,9,--,--,--,--,--,https://hk.centanet.com/estate/en/1B-High-Street/2-TTDHTHMHHD,Hong Kong Island,All Hong Kong Island,Sai Ying Pun,HMA056
2 David Lane,2 David Lane,1,1,--,--,--,--,--,https://hk.centanet.com/estate/en/2-David-Lane/2-TTDITHTXHM,Hong Kong Island,All Hong Kong Island,Sai Ying Pun,HMA056
Tak Tung House,155-161 Des Voeux Road West,1,52,--,--,--,--,--,https://hk.centanet.com/estate/en/Tak-Tung-House/2-TTDLTHTAHM,Hong Kong Island,All Hong Kong Island,Sai Ying Pun,HMA056
Wing To Building,4 Water Street,1,10,--,--,--,--,--,https://hk.centanet.com/estate/en/Wing-To-Building/2-TTDMTHLOHM,Hong Kong Island,All Hong Kong Island,Sai Ying Pun,HMA056
24 Second Street,24 Second Street,1,4,--,--,--,--,--,https://hk.centanet.com/estate/en/24-Second-Street/2-TTDMZHIXHM,Hong Kong Island,All Hong Kong Island,Sai Ying Pun,HMA056
16 Western Street,16 Western Street,1,5,--,--,--,--,--,https://hk.centanet.com/estate/en/16-Western-Street/2-TTDMZHLVHM,Hong Kong Island,All Hong Kong Island,Sai Ying Pun,HMA056
34 Centre Street,34 Centre Street,1,5,--,--,--,--,--,https://hk.centanet.com/estate/en/34-Centre-Street/2-TTDNZHHOHM,Hong Kong Island,All Hong Kong Island,Sai Ying Pun,HMA056
4 David Lane,4 David Lane,1,1,--,--,--,--,--,https://hk.centanet.com/estate/en/4-David-Lane/2-TTDSTHTJHM,Hong Kong Island,All Hong Kong Island,Sai Ying Pun,HMA056
Yin Tak Building,69-73 High Street,1,18,--,--,--,--,--,https://hk.centanet.com/estate/en/Yin-Tak-Building/2-TTDSZHDSHM,Hong Kong Island,All Hong Kong Island,Sai Ying Pun,HMA056
28 Centre Street,28 Centre Street,1,5,--,--,--,--,--,https://hk.centanet.com/estate/en/28-Centre-Street/2-TTDZZHHVHM,Hong Kong Island,All Hong Kong Island,Sai Ying Pun,HMA056
249 Des Voeux Road West,249 Des Voeux Road West,1,5,--,--,--,--,--,https://hk.centanet.com/estate/en/249-Des-Voeux-Road-West/2-TTDZZHTHHM,Hong Kong Island,All Hong Kong Island,Sai Ying Pun,HMA056
Federate Building,292-298 Queen's Road West,1,123,"$13,031/ ft²",4.97%,1,--,--,https://hk.centanet.com/estate/en/Federate-Building/2-TTHDTHXXHM,Hong Kong Island,All Hong Kong Island,Sai Ying Pun,HMA056
30 Second Street,30 Second Street,1,4,--,--,--,--,--,https://hk.centanet.com/estate/en/30-Second-Street/2-TTHDZHIVHM,Hong Kong Island,All Hong Kong Island,Sai Ying Pun,HMA056
Flora Court,265-267 Queen's Road West,1,23,--,--,1,--,--,https://hk.centanet.com/estate/en/Flora-Court/2-TTHDZHNXHM,Hong Kong Island,All Hong Kong Island,Sai Ying Pun,HMA056
14 Second Street,14 Second Street,1,5,--,--,--,--,--,https://hk.centanet.com/estate/en/14-Second-Street/2-TTHHZHIEHM,Hong Kong Island,All Hong Kong Island,Sai Ying Pun,HMA056
406-412 Queen's Road West,406-412 Queen's Road West,1,16,--,--,--,--,--,https://hk.centanet.com/estate/en/406-412-Queen-s-Road-West/2-TTHHZHXYHM,Hong Kong Island,All Hong Kong Island,Sai Ying Pun,HMA056
149 Third Street,149 Third Street,1,4,--,--,--,--,--,https://hk.centanet.com/estate/en/149-Third-Street/2-TTHLTHSRHM,Hong Kong Island,All Hong Kong Island,Sai Ying Pun,HMA056
306 Queen's Road West,306 Queen's Road West,1,5,--,--,--,--,--,https://hk.centanet.com/estate/en/306-Queen-s-Road-West/2-TTHNTHXRHM,Hong Kong Island,All Hong Kong Island,Sai Ying Pun,HMA056
145 Third Street,145 Third Street,1,4,--,--,--,--,--,https://hk.centanet.com/estate/en/145-Third-Street/2-TTHSTHSAHM,Hong Kong Island,All Hong Kong Island,Sai Ying Pun,HMA056
310 Queen's Road West,310 Queen's Road West,1,5,--,--,--,--,--,https://hk.centanet.com/estate/en/310-Queen-s-Road-West/2-TTHXTHXSHM,Hong Kong Island,All Hong Kong Island,Sai Ying Pun,HMA056
40 Centre Street,40 Centre Street,1,5,--,--,--,--,--,https://hk.centanet.com/estate/en/40-Centre-Street/2-TTHXZHHVHM,Hong Kong Island,All Hong Kong Island,Sai Ying Pun,HMA056
28 Western Street,28 Western Street,1,6,--,--,--,--,--,https://hk.centanet.com/estate/en/28-Western-Street/2-TTHZZHLAHM,Hong Kong Island,All Hong Kong Island,Sai Ying Pun,HMA056
26 Western Street,26 Western Street,1,6,--,--,--,--,--,https://hk.centanet.com/estate/en/26-Western-Street/2-TTHZZHLHHM,Hong Kong Island,All Hong Kong Island,Sai Ying Pun,HMA056
24 Western Street,24 Western Street,1,14,--,--,--,--,--,https://hk.centanet.com/estate/en/24-Western-Street/2-TTHZZHLJHM,Hong Kong Island,All Hong Kong Island,Sai Ying Pun,HMA056
397 Queen's Road West,397 Queen's Road West,1,5,--,--,--,--,--,https://hk.centanet.com/estate/en/397-Queen-s-Road-West/2-TTIDIHNYHM,Hong Kong Island,All Hong Kong Island,Sai Ying Pun,HMA056
Yuen Fat Mansion,22 Western Street,1,5,--,--,--,--,--,https://hk.centanet.com/estate/en/Yuen-Fat-Mansion/2-TTIDZHLYHM,Hong Kong Island,All Hong Kong Island,Sai Ying Pun,HMA056
Wing Kwai House,6-8 Kwai Heung Street,1,8,--,--,--,--,--,https://hk.centanet.com/estate/en/Wing-Kwai-House/2-TTIDZHZXHM,Hong Kong Island,All Hong Kong Island,Sai Ying Pun,HMA056
21 Mui Fong Street,21 Mui Fong Street,1,5,--,--,--,--,--,https://hk.centanet.com/estate/en/21-Mui-Fong-Street/2-TTIHIHZHHM,Hong Kong Island,All Hong Kong Island,Sai Ying Pun,HMA056
Sung Hing Building,2-4A Sung Hing Lane,1,19,--,--,--,--,--,https://hk.centanet.com/estate/en/Sung-Hing-Building/2-TTIIIHIYHM,Hong Kong Island,All Hong Kong Island,Sai Ying Pun,HMA056
291-293 Queen's Road West,291-293 Queen's Road West,1,10,--,--,--,--,--,https://hk.centanet.com/estate/en/291-293-Queen-s-Road-West/2-TTIIZHNAHM,Hong Kong Island,All Hong Kong Island,Sai Ying Pun,HMA056
303 Queen's Road West,303 Queen's Road West,1,4,--,--,--,--,--,https://hk.centanet.com/estate/en/303-Queen-s-Road-West/2-TTILZHNSHM,Hong Kong Island,All Hong Kong Island,Sai Ying Pun,HMA056
227 Queen's Road West,227 Queen's Road West,1,5,--,--,--,--,--,https://hk.centanet.com/estate/en/227-Queen-s-Road-West/2-TTILZHXSHD,Hong Kong Island,All Hong Kong Island,Sai Ying Pun,HMA056
2-4 Chung Ching Street,2-4 Chung Ching Street,1,15,--,--,--,--,--,https://hk.centanet.com/estate/en/2-4-Chung-Ching-Street/2-TTIMIHHSHM,Hong Kong Island,All Hong Kong Island,Sai Ying Pun,HMA056
393 Queen's Road West,393 Queen's Road West,1,6,--,--,--,--,--,https://hk.centanet.com/estate/en/393-Queen-s-Road-West/2-TTIMIHNRHM,Hong Kong Island,All Hong Kong Island,Sai Ying Pun,HMA056
Lai Wah House,12-16 Kwai Heung Street,1,20,--,--,--,--,--,https://hk.centanet.com/estate/en/Lai-Wah-House/2-TTINZHZHHM,Hong Kong Island,All Hong Kong Island,Sai Ying Pun,HMA056
104 First Street,104 First Street,1,5,--,--,--,--,--,https://hk.centanet.com/estate/en/104-First-Street/2-TTISTHDYHM,Hong Kong Island,All Hong Kong Island,Sai Ying Pun,HMA056
295 Queen's Road West,295 Queen's Road West,1,3,--,--,--,--,--,https://hk.centanet.com/estate/en/295-Queen-s-Road-West/2-TTISZHNSHM,Hong Kong Island,All Hong Kong Island,Sai Ying Pun,HMA056
237 Des Voeux Road West,237 Des Voeux Road West,1,7,--,--,--,--,--,https://hk.centanet.com/estate/en/237-Des-Voeux-Road-West/2-TTITZHTSHM,Hong Kong Island,All Hong Kong Island,Sai Ying Pun,HMA056
Chung Ah Mansion,352-366 Des Voeux Road West,1,139,--,--,--,--,--,https://hk.centanet.com/estate/en/Chung-Ah-Mansion/2-TTIXTHMYHM,Hong Kong Island,All Hong Kong Island,Sai Ying Pun,HMA056
1 David Lane,1 David Lane,1,1,--,--,--,--,--,https://hk.centanet.com/estate/en/1-David-Lane/2-TTIXTHTOHM,Hong Kong Island,All Hong Kong Island,Sai Ying Pun,HMA056
287 Queen's Road West,287 Queen's Road West,1,4,--,--,--,--,--,https://hk.centanet.com/estate/en/287-Queen-s-Road-West/2-TTIXZHNJHM,Hong Kong Island,All Hong Kong Island,Sai Ying Pun,HMA056
52 Second Street,52 Second Street,1,4,--,--,--,--,--,https://hk.centanet.com/estate/en/52-Second-Street/2-TTIZZHIJHM,Hong Kong Island,All Hong Kong Island,Sai Ying Pun,HMA056
Empire Building,176-178 Des Voeux Road West,1,15,--,--,--,--,--,https://hk.centanet.com/estate/en/Empire-Building/2-TTLDIHTEHM,Hong Kong Island,All Hong Kong Island,Sai Ying Pun,HMA056
1C High Street,1C High Street,1,9,--,--,--,--,--,https://hk.centanet.com/estate/en/1C-High-Street/2-TTLHTHMXHD,Hong Kong Island,All Hong Kong Island,Sai Ying Pun,HMA056
75 First Street,75 First Street,1,4,--,--,--,--,--,https://hk.centanet.com/estate/en/75-First-Street/2-TTLIIHMYHM,Hong Kong Island,All Hong Kong Island,Sai Ying Pun,HMA056
305 Queen's Road West,305 Queen's Road West,1,5,--,--,--,--,--,https://hk.centanet.com/estate/en/305-Queen-s-Road-West/2-TTLLZHNYHM,Hong Kong Island,All Hong Kong Island,Sai Ying Pun,HMA056
Tin Hing Building (Mansion),295-305 Des Voeux Road West,1,132,--,--,--,--,--,https://hk.centanet.com/estate/en/Tin-Hing-Building-Mansion/2-TTLLZHTAHM,Hong Kong Island,All Hong Kong Island,Sai Ying Pun,HMA056
1-1A Sung Hing Lane,1-1A Sung Hing Lane,1,10,--,--,--,--,--,https://hk.centanet.com/estate/en/1-1A-Sung-Hing-Lane/2-TTLNIHIRHM,Hong Kong Island,All Hong Kong Island,Sai Ying Pun,HMA056
Tsui Wah Building,120-122 High Street,1,44,--,--,--,--,--,https://hk.centanet.com/estate/en/Tsui-Wah-Building/2-TTLSIHDHHM,Hong Kong Island,All Hong Kong Island,Sai Ying Pun,HMA056
81 First Street,81 First Street,1,5,--,--,--,--,--,https://hk.centanet.com/estate/en/81-First-Street/2-TTLSIHMVMM,Hong Kong Island,All Hong Kong Island,Sai Ying Pun,HMA056
79 First Street,79 First Street,1,5,--,--,--,--,--,https://hk.centanet.com/estate/en/79-First-Street/2-TTLSIHMVTM,Hong Kong Island,All Hong Kong Island,Sai Ying Pun,HMA056
62 Centre Street,62 Centre Street,1,13,--,--,--,--,--,https://hk.centanet.com/estate/en/62-Centre-Street/2-TTLSZHHRHM,Hong Kong Island,All Hong Kong Island,Sai Ying Pun,HMA056
14 Western Street,14 Western Street,1,5,--,--,--,--,--,https://hk.centanet.com/estate/en/14-Western-Street/2-TTLTZHLVHM,Hong Kong Island,All Hong Kong Island,Sai Ying Pun,HMA056
71-73 First Street,71-73 First Street,1,10,--,--,--,--,--,https://hk.centanet.com/estate/en/71-73-First-Street/2-TTLXIHMHHM,Hong Kong Island,All Hong Kong Island,Sai Ying Pun,HMA056
Luen Tak Building,180-188A Des Voeux Road West,1,65,"$6,823/ ft²",11.69%,1,--,--,https://hk.centanet.com/estate/en/Luen-Tak-Building/2-TTLZIHTHHM,Hong Kong Island,All Hong Kong Island,Sai Ying Pun,HMA056
56 Second Street,56 Second Street,1,5,--,--,--,--,--,https://hk.centanet.com/estate/en/56-Second-Street/2-TTLZZHISHM,Hong Kong Island,All Hong Kong Island,Sai Ying Pun,HMA056
395 Queen's Road West,395 Queen's Road West,1,5,--,--,--,--,--,https://hk.centanet.com/estate/en/395-Queen-s-Road-West/2-TTMDIHNAHM,Hong Kong Island,All Hong Kong Island,Sai Ying Pun,HMA056
47-49 High Street,47-49 High Street,1,10,--,--,--,--,--,https://hk.centanet.com/estate/en/47-49-High-Street/2-TTMDZHDHHM,Hong Kong Island,All Hong Kong Island,Sai Ying Pun,HMA056
Herein,50 Third Street,1,42,--,--,--,--,--,https://hk.centanet.com/estate/en/Herein/2-TTMHZHSVHM,Hong Kong Island,All Hong Kong Island,Sai Ying Pun,HMA056
289 Queen's Road West,289 Queen's Road West,1,4,--,--,--,--,--,https://hk.centanet.com/estate/en/289-Queen-s-Road-West/2-TTMIZHNHHM,Hong Kong Island,All Hong Kong Island,Sai Ying Pun,HMA056
106-112 First Street,106-112 First Street,1,20,--,--,--,--,--,https://hk.centanet.com/estate/en/106-112-First-Street/2-TTMLTHDRTM,Hong Kong Island,All Hong Kong Island,Sai Ying Pun,HMA056
297 Queen's Road West,297 Queen's Road West,1,5,--,--,--,--,--,https://hk.centanet.com/estate/en/297-Queen-s-Road-West/2-TTMLZHNVHM,Hong Kong Island,All Hong Kong Island,Sai Ying Pun,HMA056
416-418 Queen's Road West,416-418 Queen's Road West,1,28,--,--,--,--,--,https://hk.centanet.com/estate/en/416-418-Queen-s-Road-West/2-TTMMZHXOHM,Hong Kong Island,All Hong Kong Island,Sai Ying Pun,HMA056
Borita Building,135-143 Third Street,1,92,--,--,--,--,--,https://hk.centanet.com/estate/en/Borita-Building/2-TTMNTHSSHM,Hong Kong Island,All Hong Kong Island,Sai Ying Pun,HMA056
102 First Street,102 First Street,1,5,--,--,--,--,--,https://hk.centanet.com/estate/en/102-First-Street/2-TTMSTHDAHM,Hong Kong Island,All Hong Kong Island,Sai Ying Pun,HMA056
23 Mui Fong Street,23 Mui Fong Street,1,3,--,--,--,--,--,https://hk.centanet.com/estate/en/23-Mui-Fong-Street/2-TTMTIHZAHM,Hong Kong Island,All Hong Kong Island,Sai Ying Pun,HMA056
235 Des Voeux Road West,235 Des Voeux Road West,1,7,--,--,--,--,--,https://hk.centanet.com/estate/en/235-Des-Voeux-Road-West/2-TTMTZHTVHM,Hong Kong Island,All Hong Kong Island,Sai Ying Pun,HMA056
32 Second Street,32 Second Street,1,4,--,--,--,--,--,https://hk.centanet.com/estate/en/32-Second-Street/2-TTNDZHISHM,Hong Kong Island,All Hong Kong Island,Sai Ying Pun,HMA056
16 Second Street,16 Second Street,1,5,--,--,--,--,--,https://hk.centanet.com/estate/en/16-Second-Street/2-TTNHZHIJHM,Hong Kong Island,All Hong Kong Island,Sai Ying Pun,HMA056
151 Third Street,151 Third Street,1,4,--,--,--,--,--,https://hk.centanet.com/estate/en/151-Third-Street/2-TTNLTHSVHM,Hong Kong Island,All Hong Kong Island,Sai Ying Pun,HMA056
389-391 Queen's Road West,389-391 Queen's Road West,1,15,--,--,--,--,--,https://hk.centanet.com/estate/en/389-391-Queen-s-Road-West/2-TTNMIHNJHM,Hong Kong Island,All Hong Kong Island,Sai Ying Pun,HMA056
Wo Yick Mansion,253-263 Queen's Road West,1,125,--,--,--,--,--,https://hk.centanet.com/estate/en/Wo-Yick-Mansion/2-TTNMZHNXHM,Hong Kong Island,All Hong Kong Island,Sai Ying Pun,HMA056
Tak May House,239-241 Des Voeux Road West,1,12,--,--,--,--,--,https://hk.centanet.com/estate/en/Tak-May-House/2-TTNMZHTHHM,Hong Kong Island,All Hong Kong Island,Sai Ying Pun,HMA056
308 Queen's Road West,308 Queen's Road West,1,5,--,--,--,--,--,https://hk.centanet.com/estate/en/308-Queen-s-Road-West/2-TTNNTHXVHM,Hong Kong Island,All Hong Kong Island,Sai Ying Pun,HMA056
36-38 Centre Street,36-38 Centre Street,1,10,--,--,--,--,--,https://hk.centanet.com/estate/en/36-38-Centre-Street/2-TTNNZHHRHM,Hong Kong Island,All Hong Kong Island,Sai Ying Pun,HMA056
30-32 Western Street,30-32 Western Street,1,10,--,--,--,--,--,https://hk.centanet.com/estate/en/30-32-Western-Street/2-TTNNZHLAHM,Hong Kong Island,All Hong Kong Island,Sai Ying Pun,HMA056
Wah Lap Building,251-253 Des Voeux Road West,1,11,--,--,--,--,--,https://hk.centanet.com/estate/en/Wah-Lap-Building/2-TTNNZHTOHM,Hong Kong Island,All Hong Kong Island,Sai Ying Pun,HMA056
147 Third Street,147 Third Street,1,4,--,--,--,--,--,https://hk.centanet.com/estate/en/147-Third-Street/2-TTNSTHSYHM,Hong Kong Island,All Hong Kong Island,Sai Ying Pun,HMA056
Shing Jack Lau,43-45 High Street,1,10,--,--,--,--,--,https://hk.centanet.com/estate/en/Shing-Jack-Lau/2-TTNTZHDVHM,Hong Kong Island,All Hong Kong Island,Sai Ying Pun,HMA056
312 Queen's Road West,312 Queen's Road West,1,5,--,--,--,--,--,https://hk.centanet.com/estate/en/312-Queen-s-Road-West/2-TTNXTHXOHM,Hong Kong Island,All Hong Kong Island,Sai Ying Pun,HMA056
34-36 Western Street,34-36 Western Street,1,10,--,--,--,--,--,https://hk.centanet.com/estate/en/34-36-Western-Street/2-TTNXZHLRHM,Hong Kong Island,All Hong Kong Island,Sai Ying Pun,HMA056
304 Queen's Road West,304 Queen's Road West,1,5,--,--,--,--,--,https://hk.centanet.com/estate/en/304-Queen-s-Road-West/2-TTNZTHXYHM,Hong Kong Island,All Hong Kong Island,Sai Ying Pun,HMA056
269-275 Queen's Road West,269-275 Queen's Road West,1,15,--,--,--,--,--,https://hk.centanet.com/estate/en/269-275-Queen-s-Road-West/2-TTNZZHNOHM,Hong Kong Island,All Hong Kong Island,Sai Ying Pun,HMA056
On Shun Mansion,125-126 Connaught Road West,1,12,--,--,--,--,--,https://hk.centanet.com/estate/en/On-Shun-Mansion/2-TTSDTHDRHN,Hong Kong Island,All Hong Kong Island,Sai Ying Pun,HMA056
300-302 Queen's Road West,300-302 Queen's Road West,1,10,--,--,--,--,--,https://hk.centanet.com/estate/en/300-302-Queen-s-Road-West/2-TTSDTHXVHM,Hong Kong Island,All Hong Kong Island,Sai Ying Pun,HMA056
26 Centre Street,26 Centre Street,1,5,--,--,--,--,--,https://hk.centanet.com/estate/en/26-Centre-Street/2-TTSDZHHRHM,Hong Kong Island,All Hong Kong Island,Sai Ying Pun,HMA056
247 Des Voeux Road West,247 Des Voeux Road West,1,5,--,--,--,--,--,https://hk.centanet.com/estate/en/247-Des-Voeux-Road-West/2-TTSDZHTJHM,Hong Kong Island,All Hong Kong Island,Sai Ying Pun,HMA056
3 David Lane,3 David Lane,1,1,--,--,--,--,--,https://hk.centanet.com/estate/en/3-David-Lane/2-TTSITHTEHM,Hong Kong Island,All Hong Kong Island,Sai Ying Pun,HMA056
Hang Yue Building,334-350 Des Voeux Road West,1,176,"$10,347/ ft²",2.00%,1,--,--,https://hk.centanet.com/estate/en/Hang-Yue-Building/2-TTSMTHMAHM,Hong Kong Island,All Hong Kong Island,Sai Ying Pun,HMA056
24 Centre Street,24 Centre Street,1,5,--,--,--,--,--,https://hk.centanet.com/estate/en/24-Centre-Street/2-TTSMZHHAHM,Hong Kong Island,All Hong Kong Island,Sai Ying Pun,HMA056
1A-1B Eastern Street,1A-1B Eastern Street,1,10,--,--,--,--,--,https://hk.centanet.com/estate/en/1A-1B-Eastern-Street/2-TTSNZHMJHM,Hong Kong Island,All Hong Kong Island,Sai Ying Pun,HMA056
414 Queen's Road West,414 Queen's Road West,1,15,--,--,--,--,--,https://hk.centanet.com/estate/en/414-Queen-s-Road-West/2-TTSTZHXSHM,Hong Kong Island,All Hong Kong Island,Sai Ying Pun,HMA056
24 Mui Fong Street,24 Mui Fong Street,1,5,--,--,--,--,--,https://hk.centanet.com/estate/en/24-Mui-Fong-Street/2-TTSXIHZYHM,Hong Kong Island,All Hong Kong Island,Sai Ying Pun,HMA056
407 Queen's Road West,407 Queen's Road West,1,10,--,--,--,--,--,https://hk.centanet.com/estate/en/407-Queen-s-Road-West/2-TTSZIHNOHM,Hong Kong Island,All Hong Kong Island,Sai Ying Pun,HMA056
30 Centre Street,30 Centre Street,1,5,--,--,--,--,--,https://hk.centanet.com/estate/en/30-Centre-Street/2-TTSZZHHSHM,Hong Kong Island,All Hong Kong Island,Sai Ying Pun,HMA056
54 Second Street,54 Second Street,1,5,--,--,--,--,--,https://hk.centanet.com/estate/en/54-Second-Street/2-TTSZZHIYHM,Hong Kong Island,All Hong Kong Island,Sai Ying Pun,HMA056
Kwok Chung House,18-20 Western Street,1,15,--,--,--,--,--,https://hk.centanet.com/estate/en/Kwok-Chung-House/2-TTTDZHLXHM,Hong Kong Island,All Hong Kong Island,Sai Ying Pun,HMA056
Fuk Shing Building,314-316 Queen's Road West,1,13,--,--,--,--,--,https://hk.centanet.com/estate/en/Fuk-Shing-Building/2-TTTITHXXHM,Hong Kong Island,All Hong Kong Island,Sai Ying Pun,HMA056
Chun Kwan Building,322-324 Queen's Road West,1,10,--,--,--,--,--,https://hk.centanet.com/estate/en/Chun-Kwan-Building/2-TTTLTHXAHM,Hong Kong Island,All Hong Kong Island,Sai Ying Pun,HMA056
23 Kwai Heung Street,23 Kwai Heung Street,1,4,--,--,--,--,--,https://hk.centanet.com/estate/en/23-Kwai-Heung-Street/2-TTTMZHZVHM,Hong Kong Island,All Hong Kong Island,Sai Ying Pun,HMA056
32 Centre Street,32 Centre Street,1,5,--,--,--,--,--,https://hk.centanet.com/estate/en/32-Centre-Street/2-TTTNZHHHHM,Hong Kong Island,All Hong Kong Island,Sai Ying Pun,HMA056
318 Queen's Road West,318 Queen's Road West,1,5,--,--,--,--,--,https://hk.centanet.com/estate/en/318-Queen-s-Road-West/2-TTTSTHXJHM,Hong Kong Island,All Hong Kong Island,Sai Ying Pun,HMA056
Rich Court,213 Queen's Road West,1,21,--,--,--,--,--,https://hk.centanet.com/estate/en/Rich-Court/2-TTTZZHXHHD,Hong Kong Island,All Hong Kong Island,Sai Ying Pun,HMA056
84 First Street,84 First Street,1,10,--,--,--,--,--,https://hk.centanet.com/estate/en/84-First-Street/2-TTXDTHDAHM,Hong Kong Island,All Hong Kong Island,Sai Ying Pun,HMA056
381-383 Queen's Road West,381-383 Queen's Road West,1,10,--,--,--,--,--,https://hk.centanet.com/estate/en/381-383-Queen-s-Road-West/2-TTXHIHNOHM,Hong Kong Island,All Hong Kong Island,Sai Ying Pun,HMA056
301 Queen's Road West,301 Queen's Road West,1,5,--,--,--,--,--,https://hk.centanet.com/estate/en/301-Queen-s-Road-West/2-TTXLZHNEHM,Hong Kong Island,All Hong Kong Island,Sai Ying Pun,HMA056
88-90 High Street,88-90 High Street,1,15,--,--,--,--,--,https://hk.centanet.com/estate/en/88-90-High-Street/2-TTXNIHDEHM,Hong Kong Island,All Hong Kong Island,Sai Ying Pun,HMA056
320 Queen's Road West,320 Queen's Road West,1,5,--,--,--,--,--,https://hk.centanet.com/estate/en/320-Queen-s-Road-West/2-TTXSTHXHHM,Hong Kong Island,All Hong Kong Island,Sai Ying Pun,HMA056
21 Kwai Heung Street,21 Kwai Heung Street,1,4,--,--,--,--,--,https://hk.centanet.com/estate/en/21-Kwai-Heung-Street/2-TTXTZHZRHM,Hong Kong Island,All Hong Kong Island,Sai Ying Pun,HMA056
Hing Pont House,3-7 Sung Hing Lane,1,10,--,--,--,--,--,https://hk.centanet.com/estate/en/Hing-Pont-House/2-TTXXIHIRHM,Hong Kong Island,All Hong Kong Island,Sai Ying Pun,HMA056
Wing Lee Building,18-24 Kwai Heung Street,1,78,--,--,--,--,--,https://hk.centanet.com/estate/en/Wing-Lee-Building/2-TTXXZHZOHM,Hong Kong Island,All Hong Kong Island,Sai Ying Pun,HMA056
West Grand Court (Wang Lap Court),403-405 Queen's Road West,1,23,--,--,--,--,--,https://hk.centanet.com/estate/en/West-Grand-Court-Wang-Lap-Court/2-TTXZIHNXHM,Hong Kong Island,All Hong Kong Island,Sai Ying Pun,HMA056
Kam Lun Mansion,39-41 High Street,1,10,--,--,--,--,--,https://hk.centanet.com/estate/en/Kam-Lun-Mansion/2-TTZHZHDJHM,Hong Kong Island,All Hong Kong Island,Sai Ying Pun,HMA056
Siu Tak Building,124-126 High Street,1,14,--,--,--,--,--,https://hk.centanet.com/estate/en/Siu-Tak-Building/2-TTZLIHDAHM,Hong Kong Island,All Hong Kong Island,Sai Ying Pun,HMA056
299 Queen's Road West,299 Queen's Road West,1,4,--,--,--,--,--,https://hk.centanet.com/estate/en/299-Queen-s-Road-West/2-TTZLZHNAHM,Hong Kong Island,All Hong Kong Island,Sai Ying Pun,HMA056
Cheong Kwei Building,2-4 Kwai Heung Street,1,20,--,--,--,--,--,https://hk.centanet.com/estate/en/Cheong-Kwei-Building/2-TTZMZHZHHM,Hong Kong Island,All Hong Kong Island,Sai Ying Pun,HMA056
8-10 Water Street,8-10 Water Street,1,14,--,--,--,--,--,https://hk.centanet.com/estate/en/8-10-Water-Street/2-TTZNTHLYHM,Hong Kong Island,All Hong Kong Island,Sai Ying Pun,HMA056
77 First Street,77 First Street,1,4,--,--,--,--,--,https://hk.centanet.com/estate/en/77-First-Street/2-TTZSIHMRHM,Hong Kong Island,All Hong Kong Island,Sai Ying Pun,HMA056
1D High Street,1D High Street,1,9,--,--,--,--,--,https://hk.centanet.com/estate/en/1D-High-Street/2-TTZTTHMVHD,Hong Kong Island,All Hong Kong Island,Sai Ying Pun,HMA056
12 Western Street,12 Western Street,1,4,--,--,--,--,--,https://hk.centanet.com/estate/en/12-Western-Street/2-TTZTZHLRHM,Hong Kong Island,All Hong Kong Island,Sai Ying Pun,HMA056
255-257 Des Voeux Road West,255-257 Des Voeux Road West,1,6,--,--,--,--,--,https://hk.centanet.com/estate/en/255-257-Des-Voeux-Road-West/2-TTZXZHTAHM,Hong Kong Island,All Hong Kong Island,Sai Ying Pun,HMA056
Rex Building,399-401 Queen's Road West,1,40,--,--,--,--,--,https://hk.centanet.com/estate/en/Rex-Building/2-TTZZIHNVHM,Hong Kong Island,All Hong Kong Island,Sai Ying Pun,HMA056
6A-6B Water Street,6A-6B Water Street,1,11,--,--,--,--,--,https://hk.centanet.com/estate/en/6A-6B-Water-Street/2-TTZZTHLHHM,Hong Kong Island,All Hong Kong Island,Sai Ying Pun,HMA056
48-50 Second Street,48-50 Second Street,1,10,--,--,--,--,--,https://hk.centanet.com/estate/en/48-50-Second-Street/2-TTZZZHIRHM,Hong Kong Island,All Hong Kong Island,Sai Ying Pun,HMA056
